Record Sequence Number,EQID,YEAR,MODY,HRMN,Station Name,Component,Station Sequence Number,Station ID  No.,Station Type,Station Network,Earthquake Magnitude,Magnitude Type,Mo (dyne.cm),Strike (deg),Dip (deg),Rake Angle (deg),Mechanism,Hypocenter Latitude (deg),Hypocenter Longitude (deg),Hypocenter Depth (km),Finite Rupture Model: 1=Yes;  0=No,Depth to Top Of Fault Rupture Model,Fault Rupture Width (km),Fault Rupture Area (km^2),Fault Name,Slip Rate (mm/Yr),EpiD      (km),HypD           (km),Joyner-Boore Dist. (km),FW/HW Indicator,Source to Site Azimuth (deg),Vs30 (m/s) selected for analysis,Preferred NEHRP Based on Vs30,Surface Geological Unit,Station Latitude,Station Longitude,Depth to Top Judea (km),Depth to Vs=1100,File Name (Horizontal 1),File Name (Horizontal 2),File Name (Vertical),H1 azimth (degrees),H2 azimith (degrees),Type of Recording,Instrument Model,Type of Filter,npass,HP (Hz),LP (Hz),Factor,Lowest Usable Freq - V (Hz),PGA (g),PGV (cm/sec),PGD (cm),f 0.01 Hz,0.012,0.014,0.017,0.021,0.025,0.030,0.036,0.044,0.052,0.063,0.076,0.091,0.110,0.130,0.160,0.190,0.230,0.280,0.330,0.400,0.480,0.580,0.690,0.830,1.00,1.20,1.450,1.740,2.090,2.510,3.020,3.630,4.370,5.250,6.310,7.590,9.120,10.970,13.180,15.850,19.060,22.910,27.540,33.110,39.810,47.860,57.540,69.180,83.180,100.00
17,,2008,1019,1407,IS_EIL__BHN,BHN,,,,IS,3.5,,,,,,,34.6589,34.1689,,,,,,,,557.989856,,,,,,,,29.6712,34.952,,,,,,,,,,,,0.14595403695435244,13.768156780330239,,,4.347289214019643e-05,2.7945621602654435e-06,4.1107998994439797e-07,3.706547964961906e-06,3.7153150462696436e-06,3.764710787730081e-06,3.6573016346862148e-06,3.818900473228993e-06,3.996358495338872e-06,3.633148308532773e-06,3.4234474714499973e-06,3.573650588102331e-06,1.0022372458263955e-05,1.6701324747202374e-05,5.623541782234292e-05,7.101860340590699e-05,0.00017806912435670808,0.0005542095858147289,0.0006231494309757483,0.0012594691246185664,0.0012632965885612264,0.002493355774469587,0.002697590556160964,0.004320748040170449,0.0058417324258133434,0.0011554295346206485,0.002907451244821675,0.0063133545349541844,0.004837758414166642,0.003948996963290567,0.01111428752090648,0.006217631473772112,0.006029029529620754,0.004484539757574366,0.008157534021365206,0.008600178504479796,0.004752527451227787,0.004862497350158949,0.0028510611232278856,0.0033340089222664527,0.0015780161359725772,0.0021136519917156478,0.0008354185970355832,0.0001310538649680673,1.5219723176495704e-08,,,,,,,,,
18,,2008,1019,1407,IS_DSI__SHN,SHN,,,,IS,3.5,,,,,,,34.6589,34.1689,,,,,,,,358.639287,,,,,,,,31.5933,35.3922,,,,,,,,,,,,0.22939878247817763,13.768156780330239,,,8.53221911951743e-05,4.024565739156066e-06,3.159900046399542e-07,4.658476748049395e-06,4.7202287080483144e-06,4.657821585448352e-06,4.5904621348257415e-06,4.766168949330957e-06,4.4933991978667065e-06,5.13898346682219e-06,4.223137765435543e-06,3.6303590895507566e-06,3.278657295492084e-06,5.6682123131196174e-06,7.721243063816991e-06,1.8315407647183245e-05,5.536298065194681e-06,4.351682618792829e-05,4.260927962778388e-05,2.6586463167445524e-05,0.0002576088204102391,0.0005228589236056444,0.00031035420294068297,0.0007603330006401755,0.002387739492549799,0.0021064422383230575,0.0019297800021366176,0.0036590557376630804,0.007275811239837344,0.004248755352924241,0.006034207954916345,0.005119525756083739,0.014911166371460706,0.00723547356174512,0.009085569531889527,0.011130686866947896,0.02374886193902103,0.0008283392684855233,0.01257185404082933,0.005885846668408913,0.008431611059729133,0.0036707818122832182,0.001559495739177633,0.0002902952826790467,5.6094225218444604e-08,,,,,,,,,
19,,2008,1019,1407,IS_MMB4__BHZ,BHZ,,,,IS,3.5,,,,,,,34.6589,34.1689,,,,,,,,214.560425,,,,,,,,33.02084,35.40199,,,,,,,,,,,,0.452015787813371,16.007891610655562,,,3.517119582337548e-05,1.0168926995704723e-06,3.376968591828659e-08,1.3562195831989545e-08,1.3562032962650087e-08,1.3561829540300275e-08,1.356148203342979e-08,1.356088087049489e-08,1.3560613354071055e-08,1.3559437304438024e-08,1.3558389194518204e-08,1.3565443487209052e-08,1.3553378477685935e-08,1.370445489325836e-08,1.4436497168672887e-08,1.3340371136786522e-08,1.4423818317471473e-08,1.0512273837337715e-08,7.98083432658614e-08,2.6082861964016575e-07,4.3267848729882893e-07,2.37098959596528e-06,1.6698238173314946e-06,2.2520361328256697e-05,2.6986215064630617e-05,4.633312446909206e-05,5.678923887773923e-05,6.34733388002849e-05,1.4019314979058483e-05,0.0003510896628569417,8.29002939682934e-05,0.0007380944515233589,0.0005443561074047555,0.0009268449406461132,0.0007387253828233635,0.0005730859627508671,0.0022795542832578135,0.00371608813531643,0.00815892420314307,0.0017184920220874199,0.00272953469294635,0.0015666218597120607,0.0012422708223610898,0.00015764910441222078,7.707840815726094e-09,,,,,,,,,
20,,2008,1019,1407,IS_MMA3__BHZ,BHZ,,,,IS,3.5,,,,,,,34.6589,34.1689,,,,,,,,215.572735,,,,,,,,33.01205,35.40572,,,,,,,,,,,,0.5810999317457595,15.22350628750272,,,4.659006849321392e-05,1.624957414230057e-06,8.415130367775651e-08,9.358878494192222e-07,9.359385987107811e-07,9.359984997082364e-07,9.36104881070996e-07,9.362799602587696e-07,9.364914772299959e-07,9.368089122397458e-07,9.372689968687776e-07,9.380295213642519e-07,9.389706464227657e-07,9.402817667017205e-07,9.4313754237519e-07,9.462610663142132e-07,9.502945817227923e-07,9.59478768908673e-07,9.937439350789082e-07,1.0511286260416042e-06,1.1194859178414856e-06,1.8315660619913045e-06,1.655616955421814e-06,9.369365802575826e-06,3.351595433050872e-05,2.3924988190598696e-05,0.0001869324144263793,0.00032021427389596313,8.98854286213214e-05,0.0005403553895555933,0.0009800784816535125,0.0005239397924512135,0.002135481859275903,0.003207550740759849,0.002381918581816334,0.0033046538197299695,0.004148801187641374,0.0032452905583670788,0.005617478945706305,0.011248069660003067,0.0003349161095795367,0.006449401019166157,0.0033151096644218046,0.00029358558106261015,5.763181889416341e-08,,,,,,,,,
21,,2008,1019,1407,IS_SLTI__SHN,SHN,,,,IS,3.5,,,,,,,34.6589,34.1689,,,,,,,,280.18275,,,,,,,,32.2408,35.041,,,,,,,,,,,,0.16969710913234198,10.982173594246373,,,1.0986970180656521e-07,6.3118744918585115e-09,3.970312758460313e-08,7.894889281515959e-07,7.866701982690773e-07,7.894600553126019e-07,8.116012592781158e-07,8.074309409935145e-07,6.693285094293783e-07,8.179287312225436e-07,1.3017018270797138e-06,1.2194997638943791e-06,1.0971919312869022e-06,8.990914607946222e-07,8.810786916938684e-07,9.421931262176496e-07,1.1237636722881772e-06,2.684364293334181e-07,3.7260222756867904e-07,2.009268028730055e-06,1.1359955064642581e-06,1.0016741678809755e-06,7.655811240992628e-07,6.869710030078917e-07,2.9142181348945497e-06,2.278120947128108e-06,2.4471388267881505e-06,3.196488874534593e-06,8.582804578776172e-06,6.247374087680717e-06,1.6555342111980096e-05,1.5397906120585667e-05,1.812561328348117e-05,1.3503028542999721e-05,2.6882466033224704e-05,1.0629073475182818e-05,1.0531571434226705e-05,1.0378970961315908e-05,1.333102750394416e-06,6.182948320902584e-06,2.5805012647913342e-06,4.003328814006461e-06,1.3283606698820747e-06,8.182402400790693e-08,6.927016721608318e-09,,,,,,,,,
22,,2008,1019,1407,IS_MMC6__BHZ,BHZ,,,,IS,3.5,,,,,,,34.6589,34.1689,,,,,,,,214.87913,,,,,,,,33.01203,35.39151,,,,,,,,,,,,0.16548731966907376,15.610773157806022,,,9.37151840596553e-07,2.8273067440036378e-08,9.236956235835342e-10,7.172333755565794e-10,7.184335365012115e-10,7.196309497159844e-10,7.22064407869406e-10,7.27774713003491e-10,7.352679583932146e-10,7.403897395677613e-10,7.78341833677289e-10,8.147742729455797e-10,9.032114360529556e-10,1.3088133848643406e-09,2.1066434990396176e-09,6.157969677635562e-09,1.5619081311697184e-08,1.800770470252435e-08,1.1917939111315743e-07,3.9087065971554555e-07,2.880124263624076e-07,7.606833827439911e-07,4.6214684504525055e-07,1.8953813142409428e-06,1.5076299654573653e-06,3.099700129825532e-06,4.056617991661414e-06,3.5313586271106417e-06,2.931922281413135e-06,1.9361755567032642e-05,1.4305870275740086e-05,3.841595880708882e-06,6.592602011873493e-05,5.622576552819852e-05,5.804030339323189e-05,0.00013811615811686406,0.00024589009648588175,0.00022589470018051166,0.00029303237358786814,0.00016928475818358963,0.000108993075139169,8.833033741147288e-05,4.424137345221133e-05,2.0619112162622835e-05,8.468569968891893e-10,,,,,,,,,
23,,2008,1019,1407,IS_HRFI__BHN,BHN,,,,IS,3.5,,,,,,,34.6589,34.1689,,,,,,,,518.571195,,,,,,,,30.04,35.03,,,,,,,,,,,,0.3101042891746055,9.932290562950914,,,7.029217391540003e-06,3.028574394488194e-07,4.3587571759105645e-08,1.083787370008367e-07,1.0832098649483917e-07,1.0825911570026838e-07,1.0810108355341716e-07,1.0789483923571336e-07,1.076427347596049e-07,1.0703936345304148e-07,1.0391139869461348e-07,1.1486886917557019e-07,1.1315809826845548e-07,1.450962245236737e-07,3.5489829612123026e-07,3.5502219719734707e-07,8.366964424521079e-07,1.6624435499018422e-06,3.791427583343557e-06,3.1648459929375325e-05,5.010364375048575e-05,0.0001385747207113892,0.0002019342228582882,0.0004542795640041007,0.0005328132637471649,0.0005597124917918679,0.00021724321038321993,0.0005492430429751016,0.0009777460066707681,0.00024089097381398977,0.0006995852419092371,0.00047764870678400904,0.001507302863396102,0.00035979865687525665,0.0007259574298390959,0.0007476310807154552,0.0010801522429051379,0.0016612674543981193,0.0014111579203407686,0.0005642834184748982,0.000807756688098526,0.0001879735672506529,5.4697076918158964e-05,3.5178541314927e-06,1.2292615899111031e-09,,,,,,,,,
24,,2008,1019,1407,IS_SLTI__SHE,SHE,,,,IS,3.5,,,,,,,34.6589,34.1689,,,,,,,,280.18275,,,,,,,,32.2408,35.041,,,,,,,,,,,,0.18763477559595848,14.11840138794345,,,1.1385491266014444e-07,4.278259763812562e-09,4.832700383350078e-09,9.236910904134058e-08,9.54216767368648e-08,8.870006353270913e-08,1.0802662930802657e-07,1.2601569030991122e-07,1.481195812171632e-07,1.6809206792799807e-07,3.6328268745627427e-07,2.947630557751155e-07,7.450257695258954e-07,3.6967087042354467e-07,6.285016328029108e-07,7.343983265155441e-07,3.0608518604208607e-07,7.541825829439768e-07,6.675751340372021e-07,6.704743596329086e-07,7.189184029133515e-07,3.7628758432696643e-07,8.743667443436376e-07,2.389459806178627e-06,5.462055501262822e-07,5.827276600808909e-07,1.2216179045757177e-06,2.745149485595118e-06,5.278545411283468e-06,2.3683072798269266e-06,1.9713698550055793e-06,9.913854088376298e-06,1.7690771257338958e-05,1.4457393513499329e-05,3.0865644758210767e-06,1.9544205482909803e-05,2.5322988378404415e-05,1.9301624121240626e-06,8.454310631178266e-06,7.97779213207256e-06,9.895382550939219e-06,7.336617997837153e-06,1.9667519264858435e-06,1.0159456174405137e-06,9.16307148697811e-10,,,,,,,,,
25,,2008,1019,1407,IS_PRNI__SHN,SHN,,,,IS,3.5,,,,,,,34.6589,34.1689,,,,,,,,484.011364,,,,,,,,30.3522,35.0052,,,,,,,,,,,,0.182979994466891,11.84179314417475,,,2.120437964554153e-06,1.389342866458443e-07,1.1438469682878913e-07,2.363698354422848e-06,2.361197305130543e-06,2.3603238572999353e-06,2.3364682637772452e-06,2.635328879654156e-06,2.4266528269877067e-06,2.22351222767505e-06,2.0932877994655342e-06,1.964899154195684e-06,2.6197638719836e-06,4.021399459362149e-06,5.007457229824267e-06,1.0553252774405933e-05,1.5070513481282303e-05,2.4707481010592155e-05,2.4753544312674487e-05,7.812998032190975e-05,0.0001908449922591702,0.0001362375053405375,0.0001739461498744388,9.504730631035627e-05,0.0003203368561735918,0.0002991813910204261,0.0005128485108211576,0.0009604153534715611,0.0005967318260516151,0.0005727328913093726,0.00045294456832885413,0.00017181706717520192,0.00021340857769330744,0.00022082399891467432,0.00021413178631388412,0.00022245601619762912,0.0013765463821154725,0.0006904408417163374,0.0003979724936578401,0.0004672470809220376,0.0002570242463652158,0.00011322438763278236,2.3549103135630788e-05,7.625402802446537e-06,2.447101924266071e-08,,,,,,,,,
26,,2008,1019,1407,IS_HRFI__BHE,BHE,,,,IS,3.5,,,,,,,34.6589,34.1689,,,,,,,,518.571195,,,,,,,,30.04,35.03,,,,,,,,,,,,0.2181582617087067,11.548025876957055,,,5.566455483240149e-06,3.33840870136192e-07,4.1937252609751524e-08,1.2845339915715476e-08,1.2867044083233237e-08,1.2650006655129994e-08,1.2666389530757455e-08,1.1750686283515604e-08,1.0699119196628814e-08,8.791187699909967e-09,1.6923867719727377e-08,4.1057831156295564e-08,2.5687349646266947e-08,1.7958377968021475e-07,5.60955850298971e-07,1.169921029054386e-06,2.6046107738013813e-06,4.873816348692398e-06,2.527652255150248e-05,2.8982086526334713e-05,0.00015771561775510722,0.00022257204851333114,0.00011530855125212695,0.0004773069790138001,0.00010332651926177741,0.00011118965091692448,0.0001649658460409793,0.00046842280154027997,0.00043264709648922105,0.0016005686740619908,0.0005780330405257742,0.0016996591127758046,0.000268484607053574,0.0008997932796957566,0.002444099034305197,0.0017059616485289408,0.00043313582704021986,0.0006432828781016027,0.00019989138516012585,0.0002495492550313028,0.0002327042389273666,0.0001751919402394601,0.00016272770672586095,8.647128878686103e-06,3.021150953784002e-09,,,,,,,,,
27,,2008,1019,1407,IS_HRFI__BHZ,BHZ,,,,IS,3.5,,,,,,,34.6589,34.1689,,,,,,,,518.571195,,,,,,,,30.04,35.03,,,,,,,,,,,,0.24735476145225985,11.84179314417475,,,6.79607685981937e-06,2.9065478021792464e-07,2.6853079978223155e-08,1.8380307085466634e-07,1.838294844686542e-07,1.8401845185074922e-07,1.837929890912487e-07,1.842795829130374e-07,1.8418245542187266e-07,1.8304991301200263e-07,1.87668968158717e-07,2.0003693884978244e-07,2.2569593518064157e-07,3.4428170138955356e-07,7.325122953510926e-07,6.799980086549047e-07,1.2798423713770369e-06,3.53632149590863e-06,1.1992155819474854e-05,1.7654803139422335e-05,0.0001379325981612791,9.384359373998906e-05,0.00010849571885325964,0.00013890759749716857,0.00016436340316000294,0.00020226434137331494,0.00026338792351072185,0.0009057248749371166,0.0005501509008203299,0.0004998278718691546,0.0010160103341152176,0.0009763881490077377,0.00020590226447197188,0.0014131716466512707,0.002049133665876778,0.0004505858569967721,0.0004257797116967832,0.0005552153766913902,0.0011266776294530587,0.0009433494215751326,0.001716860208134282,0.00044254898997911384,0.0007314991019588706,1.1677472276487344e-05,5.030235850268429e-09,,,,,,,,,
28,,2008,1019,1407,IS_MMA1__BHZ,BHZ,,,,IS,3.5,,,,,,,34.6589,34.1689,,,,,,,,214.871967,,,,,,,,33.01812,35.40311,,,,,,,,,,,,0.47530572792954845,13.0935182727725,,,3.1234869658307586e-05,1.0221419609959994e-06,3.110905943603445e-08,2.1299138839914696e-08,2.1301355332291284e-08,2.1303965694373756e-08,2.130864896552964e-08,2.1316265592953783e-08,2.1325630566294557e-08,2.1340033965438586e-08,2.1358183212713082e-08,2.1401050655999714e-08,2.1457882651166555e-08,2.1464957118590115e-08,2.1924935062814556e-08,2.1404182079581726e-08,1.928202191053948e-08,2.6422968993759688e-08,8.637451253743193e-08,2.3775769117561846e-07,4.5050855361513075e-07,1.9394824889235546e-06,1.6703895729757546e-06,1.5469253920029836e-05,1.5983622513346738e-05,4.708960152520136e-05,5.552407022106442e-05,3.540333106726158e-05,7.348283374931984e-05,0.00014407800126588248,0.0002160414081560022,0.00023386515687615384,0.0003972158104783336,0.0011656316028345992,0.002497898685595389,0.001332058352923247,0.0031260778927015226,0.002636842673862513,0.0034141377435534903,0.0006712958349114899,0.0019934218263689646,0.0012663516719336669,0.00023605849773802973,0.00013760145541908065,7.114180600222309e-09,,,,,,,,,
29,,2008,1019,1407,IS_SLTI__SHZ,SHZ,,,,IS,3.5,,,,,,,34.6589,34.1689,,,,,,,,280.18275,,,,,,,,32.2408,35.041,,,,,,,,,,,,0.21274626408445713,12.143033481526487,,,1.258383338476202e-07,6.886616482081948e-09,3.157652929280868e-09,6.112323604318093e-08,5.86133525106469e-08,6.222886733471603e-08,4.883077023291631e-08,3.897439242682847e-08,1.0373000224036963e-07,5.8189239175534654e-08,1.6818631907651e-07,4.39361659803124e-07,5.10095811910255e-07,3.196707159213521e-07,2.6856062937169666e-07,4.4715847977416083e-07,5.126134404310672e-07,3.382914153466873e-07,9.310654204722365e-07,1.8757479428365337e-06,3.4213772811086464e-06,3.1070393539209916e-06,1.6320260693563165e-06,3.766652397677453e-06,6.114374852835537e-06,3.0796528322916897e-06,6.6682059173642675e-06,6.765899849615083e-06,1.2081185922382177e-05,1.2291320286715369e-05,1.5328568256163268e-05,1.9890459906130944e-05,2.3789412298464923e-05,4.400675913118469e-05,2.7931107661103896e-05,7.043980440927071e-06,3.6280641987614916e-05,2.047206135748798e-05,2.8741699955130242e-05,2.8864092071127384e-05,1.2371823624782993e-05,5.854538437197407e-06,6.54801477123106e-07,2.5726124572620754e-07,6.862543706659988e-10,,,,,,,,,
30,,2008,1019,1407,IS_MMB1__BHZ,BHZ,,,,IS,3.5,,,,,,,34.6589,34.1689,,,,,,,,215.53315,,,,,,,,33.01513,35.41081,,,,,,,,,,,,0.23523439924503559,15.610773157806022,,,3.113170523289201e-05,8.969459497433571e-07,3.049322962816992e-08,2.2625726308429203e-08,2.2626614145427987e-08,2.2627627626419503e-08,2.262984800715209e-08,2.2633014607383864e-08,2.263912247914619e-08,2.2651432534399794e-08,2.2594254880025773e-08,2.251997397846083e-08,2.2028149740116824e-08,2.5673646340027105e-08,3.283951592698677e-08,4.105405174025299e-08,8.17562515295159e-08,4.986275837317226e-08,9.345198151988258e-07,3.0056006278328243e-06,2.1939679365880817e-06,1.2152437234165564e-05,9.318853249307527e-06,2.8185503548036346e-05,1.722276753585796e-05,6.590065963422673e-05,6.119928759224414e-05,1.807555902075634e-05,0.0001938056877920161,0.00018723954374746596,0.00019963683528087837,0.0003775648814729977,0.0007654735262123374,0.0016950521724517485,0.0011056679205580721,0.0018788972300800202,0.0019387641842642373,0.0015175296035796657,0.005982913421232469,0.002176445389394224,0.0010257749407117456,0.0007057112874103539,0.0007069002151723158,0.00041006377853273454,4.345464800139405e-09,,,,,,,,,
31,,2008,1019,1407,IS_MMC2__BHZ,BHZ,,,,IS,3.5,,,,,,,34.6589,34.1689,,,,,,,,214.47553,,,,,,,,33.02681,35.41164,,,,,,,,,,,,0.4997956732783731,16.415112257931984,,,3.2017336303900007e-05,1.0024381818452875e-06,3.6865087662443336e-08,1.0568586563057812e-08,1.0570319895881675e-08,1.0572353314800268e-08,1.0575988891895792e-08,1.0581931557738035e-08,1.0589169013567898e-08,1.0600084819623728e-08,1.061410554746107e-08,1.0635363242285745e-08,1.0646446016952448e-08,1.0714048582505143e-08,1.0591072502002696e-08,1.13246823068697e-08,1.5930371019047574e-08,7.298685607664691e-09,5.2864970528548845e-08,1.7758920557266428e-07,3.6878699859726477e-07,1.6952003349380335e-06,1.4176189596907478e-06,1.926900126128172e-05,1.9889907693639756e-05,1.3424930916831955e-05,3.6283072305889965e-05,3.8404276143069206e-05,7.131813828447415e-05,0.00018514050527234329,0.00023314529314510366,0.0005165041595448298,0.0009819838060750512,0.0006501762684213445,0.001377407540909331,0.0022004834838068752,0.0008229161580347143,0.0016709319389130214,0.0051361643234327055,0.003914265781260123,0.005678132243297374,0.0010460806261900783,0.0008125914375480268,0.0010580674301170288,5.7090078997588185e-08,,,,,,,,,
