Record Sequence Number,EQID,YEAR,MODY,HRMN,Station Name,Component,Station Sequence Number,Station ID  No.,Station Type,Station Network,Earthquake Magnitude,Magnitude Type,Mo (dyne.cm),Strike (deg),Dip (deg),Rake Angle (deg),Mechanism,Hypocenter Latitude (deg),Hypocenter Longitude (deg),Hypocenter Depth (km),Finite Rupture Model: 1=Yes;  0=No,Depth to Top Of Fault Rupture Model,Fault Rupture Width (km),Fault Rupture Area (km^2),Fault Name,Slip Rate (mm/Yr),EpiD      (km),HypD           (km),Joyner-Boore Dist. (km),FW/HW Indicator,Source to Site Azimuth (deg),Vs30 (m/s) selected for analysis,Preferred NEHRP Based on Vs30,Surface Geological Unit,Station Latitude,Station Longitude,Depth to Top Judea (km),Depth to Vs=1100,File Name (Horizontal 1),File Name (Horizontal 2),File Name (Vertical),H1 azimth (degrees),H2 azimith (degrees),Type of Recording,Instrument Model,Type of Filter,npass,HP (Hz),LP (Hz),Factor,Lowest Usable Freq - V (Hz),PGA (g),PGV (cm/sec),PGD (cm),f 0.01 Hz,0.012,0.014,0.017,0.021,0.025,0.030,0.036,0.044,0.052,0.063,0.076,0.091,0.110,0.130,0.160,0.190,0.230,0.280,0.330,0.400,0.480,0.580,0.690,0.830,1.00,1.20,1.450,1.740,2.090,2.510,3.020,3.630,4.370,5.250,6.310,7.590,9.120,10.970,13.180,15.850,19.060,22.910,27.540,33.110,39.810,47.860,57.540,69.180,83.180,100.00
32,,2008,1019,1407,IS_MMA0B__BHZ,BHZ,,,,IS,3.5,,,,,,,34.6589,34.1689,,,,,,,,215.13779,,,,,,,,33.01527,35.40305,,,,,,,,,,,,0.07595621906578284,16.415112257931984,,,2.9849912513155582e-06,1.399788388328327e-07,1.7432111081624117e-08,1.439735360277592e-08,1.5647704987785597e-08,1.3744783638721083e-08,1.5192416148734613e-08,1.5306329573085115e-08,3.917245377427539e-08,7.797239634708868e-08,3.645940806445838e-07,5.571505642514259e-07,2.0973773743022242e-06,6.0323687216464526e-06,1.3246747705619262e-05,1.1326229597286038e-05,2.2780193035635557e-05,1.1178030366100087e-05,4.478610583301541e-05,7.445209085661871e-05,3.166463868630117e-05,9.329567808442552e-05,2.872716941743991e-05,0.00014997376463984398,8.81604259744903e-05,8.41753518687102e-05,0.00016803289666731178,8.143480326690256e-05,0.00017205375627978123,0.00026325411348769275,0.0004075637677861164,0.0003356123089607897,0.0007886722523488553,0.00016810834086203164,0.00014469173949902838,0.00046184400856089406,0.000537453625063249,0.0005532821684496663,0.0008229813897888449,8.441987222881334e-05,0.00014715080105025168,0.0003657219611076692,0.00011621557526269521,1.8252302982791424e-05,2.614345325863755e-09,,,,,,,,,
33,,2008,1019,1407,IS_MBRI__SHE,SHE,,,,IS,3.5,,,,,,,34.6589,34.1689,,,,,,,,544.113229,,,,,,,,29.79329,34.9152,,,,,,,,,,,,0.13880230159616835,12.76869862473219,,,9.0875213223149e-11,6.5843056830391735e-12,2.933277419004318e-12,6.31931234760329e-11,6.343357387028094e-11,6.328680658780152e-11,5.857129627010972e-11,5.964515067650244e-11,6.29056261572988e-11,6.475898909638684e-11,5.829776858299105e-11,6.838272375318189e-11,4.490852285632039e-11,1.0665835937330412e-10,7.589575575534988e-11,2.871370093093167e-10,2.7009914931305516e-10,4.706059031204941e-10,6.711242959888343e-10,5.440869194274919e-10,9.94049709205975e-10,6.781823905980374e-10,1.0536851429466607e-09,1.5642860436299226e-09,4.24093334225981e-09,1.560298120488226e-09,4.769399503356093e-09,1.4841746812311239e-08,2.6648744850243333e-09,1.802446511465161e-08,1.2431022103969181e-08,1.5086144476246753e-08,2.0517809608938578e-08,1.8535649916765125e-08,1.5074932730823543e-08,4.4920120542779454e-08,2.4407553245764508e-08,7.262609260215837e-09,8.918582208629768e-09,1.4794396021057693e-08,1.0351649706307513e-08,5.765065393714124e-09,2.3223199572564993e-09,5.659812084218063e-10,4.311878025873977e-13,,,,,,,,,
34,,2008,1019,1407,IS_MMC4__BHZ,BHZ,,,,IS,3.5,,,,,,,34.6589,34.1689,,,,,,,,216.663077,,,,,,,,33.00722,35.41861,,,,,,,,,,,,0.14966692425061529,15.22350628750272,,,3.21088525981134e-05,1.071521466428431e-06,3.5174491622816605e-08,1.4708801123113882e-08,1.4723995182892737e-08,1.4741985519758828e-08,1.4776120438533994e-08,1.4829690323939648e-08,1.4915588721389407e-08,1.501526021084993e-08,1.5100525736370156e-08,1.4687152388315994e-08,1.668317196646345e-08,1.165163151854677e-08,8.837883109309249e-08,1.0108624669947187e-07,4.83581750804867e-07,3.388644179426367e-07,2.606130684972894e-06,5.95837657775926e-06,4.65752906419131e-06,1.6062119365983904e-05,1.2732546036968258e-05,3.20131723935875e-05,3.786670935769141e-05,6.0637032992656285e-05,6.883605082056999e-05,0.0001212610729021995,9.061827187847772e-05,0.00023033321507388878,0.00022373702571835263,0.0006409619933305064,0.0009021501380199409,0.00027662297850274934,0.0007492691039001195,0.0021877532844762197,0.0024169524415607823,0.0007774178547071757,0.0077011256804293705,0.0060100082239348375,0.0019536487901065254,0.001521623289308691,0.0006377875892823667,0.00025078741086389524,1.7458099749641762e-08,,,,,,,,,
35,,2008,1019,1407,IS_KRMI__SHZ,SHZ,,,,IS,3.5,,,,,,,34.6589,34.1689,,,,,,,,506.29501,,,,,,,,30.1178,34.7257,,,,,,,,,,,,0.07407192243676099,8.982775129193653,,,2.9627510155609625e-06,1.1549540245077328e-07,6.447372293327101e-07,1.4742950366670335e-05,1.6133016758219747e-05,1.859657625737963e-05,1.0473046134816907e-05,2.6629595000738172e-05,1.752326754919843e-05,4.778775351071983e-05,5.4659590293054765e-05,4.479147829174111e-05,0.00011038652356858033,0.00013375827526579116,0.00016514630983878844,0.0001827015977954593,6.578579986959545e-05,0.00014220547098803052,9.60392030323086e-05,6.682716454304513e-05,2.6753453601484796e-05,6.0872073861326177e-05,7.779059409672562e-05,5.9298334673831495e-05,9.601776140047564e-05,4.424844712762951e-05,5.3720629063490745e-05,0.0001396675922450597,0.0002196233256976679,3.697036520883047e-05,0.00016936315622281765,0.0003323674713060925,8.689175561990706e-05,0.0005149886924694334,0.000728853218469622,0.0007149078746960997,0.00040028393974806027,0.0006568490925375977,0.0016382275842265512,0.0014689042246587107,0.0002444958901305968,0.0004786389696350948,1.4571913664164688e-05,2.987000225664977e-06,5.0465692044457693e-08,,,,,,,,,
36,,2008,1019,1407,IS_MMC3__BHZ,BHZ,,,,IS,3.5,,,,,,,34.6589,34.1689,,,,,,,,215.386877,,,,,,,,33.01826,35.41381,,,,,,,,,,,,0.0839850966960839,14.11840138794345,,,2.8874675092004354e-05,9.528169709244397e-07,3.0398495538266734e-08,1.3726032655274095e-08,1.3753547564261511e-08,1.3787972576795563e-08,1.3848728508569945e-08,1.4022075364805186e-08,1.4144930940131835e-08,1.450212232054645e-08,1.2767692594386243e-08,1.7991100224309552e-08,3.8038737625968094e-08,1.6803200802123404e-07,4.1104704362548845e-07,5.669306223951108e-07,1.5476619024184926e-06,7.558907183252472e-07,4.392036436618658e-06,8.336830886360795e-06,5.3912542074121365e-06,1.8271829340015274e-05,9.579122278016838e-06,3.735034908898566e-05,3.268162092704881e-05,4.309122615764066e-05,6.512849705850162e-05,8.249688700238958e-05,0.00011346268450349965,0.00017981316876582753,0.00039106922873697263,0.0003752645268092703,0.0006945156434192315,0.0016829334073379543,0.0004959660658851135,0.0021757363481743116,0.0018621357164673193,0.0037878309674002357,0.00462791109342005,0.00352561783765076,0.0008775040744778927,0.0005913575337508719,0.0012638434846646157,6.885482202402882e-05,1.2378613639832739e-08,,,,,,,,,
37,,2008,1019,1407,IS_PRNI__SHE,SHE,,,,IS,3.5,,,,,,,34.6589,34.1689,,,,,,,,484.011364,,,,,,,,30.3522,35.0052,,,,,,,,,,,,0.20232171529551018,14.11840138794345,,,3.4431411533106085e-06,1.9385103782731493e-07,7.71901671891372e-08,1.5626022816442096e-06,1.577828653484749e-06,1.5833878051186715e-06,1.5617488303412866e-06,1.5487846599679474e-06,1.6243269421509772e-06,1.6879411365694506e-06,1.6903543721139372e-06,1.4423277728094563e-06,1.6653571609994572e-06,2.036665362251631e-06,3.8994928775353e-06,1.3363803894297207e-06,7.24564442531118e-06,2.4652266035606397e-05,5.689603893363539e-05,0.00011301907162535803,6.487047271109246e-05,0.0002818898304934017,0.00023029403451077935,0.0006108613801237459,0.00047746345441538154,0.0009188715091168354,0.00033545777183039105,0.0011218866685693296,0.00044495922167069523,0.0002800748128022485,0.0007712967353345664,0.0003381595901594638,0.0001833827784637267,0.00039406941799743824,0.0003132076917530452,0.00035926488604951125,0.0005744960644206036,0.0013516794365669611,0.00017335599294578466,0.00043445688878317667,0.0005052192059908779,0.0003594082971623041,0.0003755304999522866,1.8777868838301804e-05,1.3629643101956304e-08,,,,,,,,,
38,,2008,1019,1407,IS_MBRI__SHN,SHN,,,,IS,3.5,,,,,,,34.6589,34.1689,,,,,,,,544.113229,,,,,,,,29.79329,34.9152,,,,,,,,,,,,0.18763477559595848,11.548025876957055,,,1.1588688957955298e-10,7.820223868044915e-12,4.659197608505158e-12,1.0080920517236561e-10,1.0120404889452668e-10,1.0201073980782505e-10,1.0132758189917225e-10,9.814678271956003e-11,1.061969134633076e-10,1.1003686497207842e-10,1.0560144683208894e-10,9.885287516577909e-11,1.295139766281012e-10,1.1545943196406887e-10,1.7603347714970927e-10,1.6644112806266496e-10,2.3553368560875255e-10,2.0311766974626189e-10,6.454711783671694e-10,5.698291826391511e-10,8.028858630783903e-10,3.280777148245084e-09,1.8994414447625474e-09,8.244399401093512e-09,5.088730223702633e-09,6.837544576893387e-09,1.2017310636109603e-08,1.4711592440317139e-08,7.2269434792758394e-09,2.2279828983929366e-08,3.085783979394374e-08,9.718109822729575e-09,9.809717095219949e-09,8.185792008682062e-09,3.950950349723198e-08,3.1699716634490564e-08,1.924425577445396e-08,7.1096496358814816e-09,2.1819988988216494e-08,6.385178913209058e-09,1.831193624108172e-08,2.4259019213314915e-09,3.869781881174249e-10,1.5985068749527851e-10,1.0372076758159453e-12,,,,,,,,,
39,,2008,1019,1407,IS_MMC7__BHZ,BHZ,,,,IS,3.5,,,,,,,34.6589,34.1689,,,,,,,,213.983216,,,,,,,,33.02205,35.39256,,,,,,,,,,,,0.28045867955622106,15.610773157806022,,,1.1901878026521542e-05,3.384219567314517e-07,1.4216449142279187e-08,6.4863865717410355e-09,6.4887232977639485e-09,6.491575064940545e-09,6.496597116932533e-09,6.5059869386272745e-09,6.5150141990921506e-09,6.531073259700057e-09,6.559637477971899e-09,6.593729828644181e-09,6.596941350749827e-09,7.874266430440795e-09,1.2937296960982378e-08,1.6787367226807165e-08,4.9756462474590424e-08,4.56124528326308e-08,4.713748973634295e-07,1.9581382013517524e-06,3.0265247638402744e-06,9.244862185942553e-06,8.171004218039041e-06,5.008177819858879e-05,3.8873057452939025e-05,3.1612154856355476e-05,5.364583416463718e-05,6.307362895403929e-05,6.127888745486317e-05,0.0003163766868668623,0.0002742997778232836,0.00018516139737548051,0.0003560334144269466,0.0012585830822395582,0.0011302701406759447,0.0005879324046803444,0.0013422978388478504,0.001292112153766063,0.0031819546353713596,0.0013252866474643538,0.0023328711806630538,0.001567932553042474,0.00041769792661250333,0.0001277312150188888,1.9270951775236597e-08,,,,,,,,,
40,,2008,1019,1407,IS_MMLI__BHZ,BHZ,,,,IS,3.5,,,,,,,34.6589,34.1689,,,,,,,,272.429109,,,,,,,,32.438,35.422,,,,,,,,,,,,0.16138196526315954,13.768156780330239,,,2.84180644771065e-05,1.0148550613892434e-06,1.0890032850220852e-07,3.1552682314096847e-09,3.4048194361721343e-09,3.3711099561875587e-09,3.159528855989895e-09,9.726558018741977e-09,1.4560070770691492e-08,2.339040152596911e-08,5.917431648498375e-08,1.6852807428140599e-07,4.941663714161231e-07,1.9302793061893043e-06,4.13013054994167e-06,1.367069392921137e-05,1.493318470173871e-05,3.8873881343885567e-05,8.191614964648907e-05,0.00026472907459179423,0.0004208196137776178,0.0003979797247622795,0.0003749818563688772,0.00024502897873325406,0.0013979849868729092,0.0007009334531984391,0.00027014838810547154,0.0015739965726854228,0.0009906999203806574,0.0013928922164469855,0.002805503351887087,0.004254498754224952,0.004166277979115602,0.0025183158013197962,0.0026999997010603355,0.0018613739813299747,0.0032231875133693667,0.002299548516866088,0.002585371485480791,0.007606972095363451,0.004455873222171559,0.0029173521973106815,0.0005585669748038985,0.0004293760803652599,1.2396251945280288e-08,,,,,,,,,
41,,2008,1019,1407,IS_OFRI__SHZ,SHZ,,,,IS,3.5,,,,,,,34.6589,34.1689,,,,,,,,238.337306,,,,,,,,32.6217,34.9862,,,,,,,,,,,,0.24735476145225985,13.768156780330239,,,6.979795963339845e-06,4.3376438655673614e-07,2.9690706939532307e-08,5.44444516865106e-08,5.4409849073483804e-08,5.436415501188218e-08,5.4290108844603736e-08,5.417635862777105e-08,5.3988446872728985e-08,5.367920153623922e-08,5.352098891680884e-08,5.395668055769174e-08,5.215106355599802e-08,5.300491986227213e-08,5.296166106234718e-08,6.18664575091494e-08,8.157032127259504e-08,7.15234102301109e-08,1.2563098554111278e-06,3.985128705340699e-06,1.601997536640571e-05,1.4989375820229168e-05,3.668438163656647e-05,6.624546546146806e-05,0.0002014530678738412,0.00016650450462327043,0.00043960275572107647,0.0004461238717363841,0.0007856373778816609,0.0006891320762923668,0.000966903955945405,0.0010999427659668963,0.001081598249542548,0.001253517491975666,0.00253833874968459,0.0006870521377433747,0.0008690027276360974,0.0011911833614020207,0.000344597010747878,0.00032246417710643944,0.00012895419940947502,0.00027617314811559433,0.00018647532260433565,2.005047335032161e-05,3.1302114806014675e-09,,,,,,,,,
42,,2008,1019,1407,IS_MMLI__BHE,BHE,,,,IS,3.5,,,,,,,34.6589,34.1689,,,,,,,,272.429109,,,,,,,,32.438,35.422,,,,,,,,,,,,0.13535894024649903,19.085440556365885,,,4.38449010457844e-05,1.4206675397705784e-06,1.1943668227525865e-07,1.4410069618235045e-07,1.4531059865494967e-07,1.4192392311556235e-07,1.4092997501770087e-07,1.662194527063737e-07,1.9249096088268736e-07,1.5927659158189242e-07,2.3167153921576513e-07,7.796488581003709e-07,1.8652164224670491e-06,2.325908338259937e-06,2.954647398005666e-06,1.966153426738184e-05,1.3680880829043326e-05,4.072286266397687e-05,3.732839999690614e-05,7.950493860741766e-05,0.00031694711019248723,0.0001677223644185396,0.0007436371598030431,0.00037214493544114846,0.0004833560259867754,0.00011924867161426672,0.0003672394971774625,0.0025125442931972146,0.0006667483878525038,0.0007442194795225039,0.0022416606334816733,0.005127290889470597,0.008734996837438837,0.0014949117267035591,0.001953688167494734,0.014642933307537805,0.006132460544086485,0.005999990914104829,0.007000319241111192,0.004938336472029062,0.002346366222525084,0.0045667771886296555,0.0013784335504938281,0.0011231021787665738,4.223098014541772e-06,,,,,,,,,
43,,2008,1019,1407,IS_MMA2__BHZ,BHZ,,,,IS,3.5,,,,,,,34.6589,34.1689,,,,,,,,215.531234,,,,,,,,33.01249,35.40572,,,,,,,,,,,,0.1287263637230419,18.61197529247999,,,2.6333710566659474e-05,8.605476424271202e-07,4.03395928688606e-08,3.5899860356113613e-07,3.590838557955034e-07,3.5919716732360474e-07,3.5942771845393985e-07,3.5987911179143955e-07,3.6058085956128163e-07,3.6181883126073335e-07,3.6410002278766733e-07,3.6788454643615374e-07,3.712135398274637e-07,3.679384833984212e-07,5.12765132403048e-07,4.717642652462693e-07,6.422045834262852e-07,5.788041470880511e-07,3.6582099039017598e-06,7.231165820841014e-06,5.339460627461544e-06,1.6426345067090968e-05,8.947912091946747e-06,2.6026570607084448e-05,3.483006751212175e-05,4.037173493615764e-05,7.876628276654852e-05,9.847511981220343e-05,3.185130793446668e-05,9.577009063268534e-05,0.00043086235181919244,0.00014240322185632632,0.0003219854649205789,0.0001045455486896334,0.0007521486262837299,0.0002670660419887096,0.0021580278566645386,0.0018669510717171575,0.005805291936747075,0.005436279073631974,0.0017314571619667957,0.0019703078938583243,0.0002584660120843495,0.0004886423481737749,2.4122414057320273e-07,,,,,,,,,
44,,2008,1019,1407,IS_KRMI__SHN,SHN,,,,IS,3.5,,,,,,,34.6589,34.1689,,,,,,,,506.29501,,,,,,,,30.1178,34.7257,,,,,,,,,,,,0.17844068760047355,11.84179314417475,,,8.62559582194023e-06,2.665442492407017e-07,7.856257971187745e-08,1.5381141864681502e-06,1.5238385477335046e-06,1.4903828009458504e-06,1.5830283892474106e-06,1.5378673851650764e-06,1.6131655651431676e-06,2.796288048960449e-06,1.9207694063819353e-06,5.323374817142234e-06,1.1588523212691409e-06,6.070845002432133e-06,7.186628375393537e-06,1.7491017671369907e-05,9.737899583703124e-06,1.1679107615098928e-05,3.240083756725116e-05,4.2316060671995015e-05,6.510084660606197e-05,5.0419240445780846e-05,0.00011323392205370229,0.00021248873086510497,9.500416286389234e-05,0.00022870313279622751,0.00019329189986179172,0.00013021798360924464,8.434544068419121e-05,0.0002266776187292032,0.0002194955023478462,0.000582893864086209,0.0013154239660466535,0.00039077721351139203,0.0014015704318600026,0.0013185352693737072,0.0012908161069313069,0.001529301843825461,0.0019871291195825446,0.002866480676438934,0.001065838391103426,0.0010957694509559238,0.0003636697356854935,4.4426999752850965e-05,1.7957058105685014e-08,,,,,,,,,
45,,2008,1019,1407,IS_MMC1__BHZ,BHZ,,,,IS,3.5,,,,,,,34.6589,34.1689,,,,,,,,213.73228,,,,,,,,33.03052,35.40368,,,,,,,,,,,,0.15737845512441853,18.61197529247999,,,3.503907823834864e-05,1.208245425944256e-06,3.920019908574237e-08,1.2516453363761816e-08,1.251580952729766e-08,1.2514895388319577e-08,1.2515213903818349e-08,1.2512478606658142e-08,1.2511675908533666e-08,1.2526430381812231e-08,1.2337870277156604e-08,1.1924083420315443e-08,9.71483155240146e-09,2.596243319767638e-08,6.102006364896711e-08,1.1265335925840323e-07,4.119000707031622e-07,2.9132316427346986e-07,2.9578924959054584e-06,6.038089636295709e-06,8.03586423032522e-06,1.7791684182686908e-05,1.4375275665054525e-05,5.2369912521504404e-05,2.905284748026754e-05,2.727811630508755e-05,5.688505246562161e-05,0.00011504385779951084,0.00017035156592109328,0.000206202908751834,0.0003086475409055294,0.0005254015560339573,0.0005201946103824869,0.0009280723060517625,0.0016537579074660574,0.0014132599723659244,0.004729564950941879,0.001195544239288097,0.004547626520714772,0.0018626300419849599,0.003647844003262409,0.0035003101327612533,0.0005552950556449193,0.0006875030234721102,3.068694548563997e-07,,,,,,,,,
46,,2008,1019,1407,IS_MMB3__BHZ,BHZ,,,,IS,3.5,,,,,,,34.6589,34.1689,,,,,,,,213.955554,,,,,,,,33.01954,35.38714,,,,,,,,,,,,0.10529063018350757,17.69999009109423,,,3.01267676765909e-05,6.205012233986944e-07,2.0188267562203743e-08,2.2101703062298317e-08,2.21270302354858e-08,2.2156682516741822e-08,2.22165830736267e-08,2.2312972823037252e-08,2.2432248915868617e-08,2.2551880013927065e-08,2.3950952201958507e-08,2.0850105966404588e-08,1.1138412824178103e-08,8.998105559448508e-08,2.0185247542091238e-07,3.773874505454813e-07,1.0915477381821254e-06,4.2544293415917515e-07,4.2552998840914395e-06,8.165586596007358e-06,7.586900185066296e-06,1.6474767343802582e-05,7.118495696908859e-06,5.9456473252943705e-05,4.533748904589932e-05,2.9545715351484482e-05,5.705444523064216e-05,5.086509559326337e-05,7.088052606072105e-05,0.00023334644406482194,0.00012668973483180045,0.000529811250332136,0.00022344124326962523,0.0010862243155015377,0.0020286564842312616,0.0014939055779586174,0.003562513139568464,0.001968911673404633,0.004903193877147347,0.0035761084347741188,0.0014313047528467496,0.005279376939957539,0.0021229688271898607,0.003996844951897356,3.1797652300297174e-07,,,,,,,,,
