Record Sequence Number,EQID,YEAR,MODY,HRMN,Station Name,Component,Station Sequence Number,Station ID  No.,Station Type,Station Network,Earthquake Magnitude,Magnitude Type,Mo (dyne.cm),Strike (deg),Dip (deg),Rake Angle (deg),Mechanism,Hypocenter Latitude (deg),Hypocenter Longitude (deg),Hypocenter Depth (km),Finite Rupture Model: 1=Yes;  0=No,Depth to Top Of Fault Rupture Model,Fault Rupture Width (km),Fault Rupture Area (km^2),Fault Name,Slip Rate (mm/Yr),EpiD      (km),HypD           (km),Joyner-Boore Dist. (km),FW/HW Indicator,Source to Site Azimuth (deg),Vs30 (m/s) selected for analysis,Preferred NEHRP Based on Vs30,Surface Geological Unit,Station Latitude,Station Longitude,Depth to Top Judea (km),Depth to Vs=1100,File Name (Horizontal 1),File Name (Horizontal 2),File Name (Vertical),H1 azimth (degrees),H2 azimith (degrees),Type of Recording,Instrument Model,Type of Filter,npass,HP (Hz),LP (Hz),Factor,Lowest Usable Freq - V (Hz),PGA (g),PGV (cm/sec),PGD (cm),f 0.01 Hz,0.012,0.014,0.017,0.021,0.025,0.030,0.036,0.044,0.052,0.063,0.076,0.091,0.110,0.130,0.160,0.190,0.230,0.280,0.330,0.400,0.480,0.580,0.690,0.830,1.00,1.20,1.450,1.740,2.090,2.510,3.020,3.630,4.370,5.250,6.310,7.590,9.120,10.970,13.180,15.850,19.060,22.910,27.540,33.110,39.810,47.860,57.540,69.180,83.180,100.00
47,,2008,1019,1407,IS_MMB2__BHZ,BHZ,,,,IS,3.5,,,,,,,34.6589,34.1689,,,,,,,,215.281489,,,,,,,,33.00971,35.39526,,,,,,,,,,,,0.4088036038654198,14.84584660496123,,,2.4895303724325656e-05,5.951810370624013e-07,2.1347197059757327e-08,1.9703624798538814e-08,1.9704496608069354e-08,1.970553307693996e-08,1.97073721563028e-08,1.971045164244898e-08,1.9713977778558473e-08,1.9719165958376757e-08,1.973004621878562e-08,1.9746835110126504e-08,1.9672846391029095e-08,1.9716337908434902e-08,2.0344677211361985e-08,1.9548566215357775e-08,1.8906401283250838e-08,1.3226920468677482e-08,1.009195049940676e-07,3.9565623793598585e-07,6.379371869446021e-07,3.155637188408276e-06,3.0487930850092946e-06,1.1319746884211985e-05,2.4427548029809198e-05,4.117272866120931e-05,7.933664250422451e-05,0.00015616705097111386,6.723438594934162e-05,0.00030459830041904945,0.0006463398026060462,0.00016812820895017197,0.0016081132796292356,0.000858102036005336,0.001459551563438095,0.0011480228106662514,0.0016381031505604254,0.002845904577278672,0.0019226895917920693,0.003143412392859584,0.0014378725243831911,0.0002437912578004747,0.0002138314967356405,0.00016261797052274484,1.8396084145246187e-08,,,,,,,,,
48,,2008,1019,1407,IS_HNTI__SHE,SHE,,,,IS,3.5,,,,,,,34.6589,34.1689,,,,,,,,198.027747,,,,,,,,33.0827,35.1741,,,,,,,,,,,,0.20232171529551018,16.83269208676716,,,5.120526172448118e-07,2.0264521814616503e-08,1.6671044193036306e-08,3.97977907099389e-07,3.9831451692381293e-07,4.061028072290356e-07,4.0600207655713144e-07,4.140624152515588e-07,4.237813127740047e-07,4.4165277956413597e-07,2.3466830888911066e-07,6.264955740857429e-07,3.1356909508305314e-07,4.239186638482148e-07,6.053619679704749e-07,7.986340778680332e-07,5.226042361669093e-07,6.612314182929677e-07,6.069509541905222e-07,1.7687078254594868e-06,5.861485556440011e-07,7.210303079941492e-07,1.7467298276343163e-06,2.9180740171216354e-06,3.035516264840169e-06,4.373018473916815e-06,6.175203607445883e-06,5.230472367632245e-06,5.45808602584244e-06,8.311096787170393e-06,1.797658038954292e-05,3.741613196355393e-05,7.6586421286238e-05,8.06354998080435e-05,1.3391749217611488e-05,4.566649125091192e-05,6.721157867198382e-05,9.493253257441127e-05,2.2616189819639968e-05,7.843409112237394e-05,2.1984572503397257e-05,4.483631464905124e-05,4.009814877172938e-05,4.481960262867552e-05,4.763560952346143e-09,,,,,,,,,
49,,2008,1019,1407,IS_PRNI__SHZ,SHZ,,,,IS,3.5,,,,,,,34.6589,34.1689,,,,,,,,484.011364,,,,,,,,30.3522,35.0052,,,,,,,,,,,,0.26009962067397546,13.426600924495034,,,1.7831950627614027e-05,6.991231395218782e-07,5.8416835826366716e-08,1.741390102418908e-08,2.1478053656434367e-08,1.5338332440966472e-08,2.3352281501498194e-08,2.2445570754881e-08,5.108596238812967e-08,7.310375822732018e-08,3.821071197348089e-08,2.1615602095420997e-07,2.906044218508163e-07,3.3644423660366707e-07,8.89841645299619e-07,8.402576303633325e-07,3.0354912404115275e-06,1.0263418815485495e-05,4.2645076617600725e-06,5.473152730738539e-05,8.574551557917347e-05,0.00035540933928175964,0.0002623938373718159,0.00029749292843141476,0.0007487088698636141,0.0006377590963058605,0.00016891992008606283,0.0012414094284415732,0.000981329116805716,0.0017310374266786093,0.0035476361530757646,0.0032353681520339212,0.001105267840675438,0.005129879699234242,0.002141320008742266,0.004378426137255403,0.0014822908323968175,0.00045332186000935113,0.003871102558438585,0.003539166965100192,0.004807595048837165,0.0018869108172639873,0.0004378878560399777,9.513925257612915e-05,3.9954722331675085e-09,,,,,,,,,
50,,2008,1019,1407,IS_MMA0B__BH2,BH2,,,,IS,3.5,,,,,,,34.6589,34.1689,,,,,,,,215.13779,,,,,,,,33.01527,35.40305,,,,,,,,,,,,0.1287263637230419,15.610773157806022,,,3.1404557103863913e-06,1.3664491966461423e-07,1.6031083820335124e-08,5.718391868499384e-09,5.532151378239497e-09,5.36308938808683e-09,5.205175593597943e-09,5.064714155375723e-09,2.4588076405508046e-09,1.3067829000315387e-08,3.3369701298328784e-08,1.093089165993064e-07,3.0603861043581687e-07,1.1003511510507835e-06,1.6816929047552648e-06,7.059856081098342e-06,4.879018714806636e-06,3.0371496000966283e-06,2.8832197644802466e-05,2.8965187916671835e-05,4.434754724936846e-05,5.0341725954968514e-05,4.044258749748324e-05,8.44255131654099e-05,0.00011268370322002746,0.00026018002396450095,0.00012321600369676942,0.00026844403535170963,0.00039913945835981025,0.0003533536515343522,9.922545942733362e-05,0.0007851904576419342,0.0003922997520767142,0.0002626763847446988,0.0005878234755722312,0.0006395784585881371,0.0002964628675944815,0.00044972686994508907,0.0007516833258888207,0.0007124745150040078,0.00017752111130659755,0.0002899289201211428,0.00010502588776211095,4.44813786971282e-06,2.0184867855063372e-10,,,,,,,,,
51,,2008,1019,1407,IS_KRMI__SHE,SHE,,,,IS,3.5,,,,,,,34.6589,34.1689,,,,,,,,506.29501,,,,,,,,30.1178,34.7257,,,,,,,,,,,,0.26009962067397546,11.84179314417475,,,9.927551691664483e-06,4.127187981324636e-07,5.650951390995418e-08,1.2753967480675002e-06,1.2954062620678528e-06,1.2938199284751322e-06,1.3152618661603383e-06,1.2246951096539465e-06,1.364978183600128e-06,1.3310751277418892e-06,1.1114118805164766e-06,1.1441457020917391e-06,1.6691224256667847e-06,1.5074997337502854e-06,2.2306533091522847e-06,3.2414688896990075e-06,2.2235199907491293e-06,5.1817766535967525e-06,4.839315049316322e-06,1.3190755196436569e-05,1.7989220600099575e-05,2.9613222899763465e-05,8.800434736373135e-05,3.712207506900703e-05,5.412337657021409e-05,3.709577794827691e-05,7.114733277006281e-05,0.0001270133361729117,0.00016150317970810852,5.3829717964045084e-05,0.0003324874582401282,0.000401012024657537,0.0002977944223249759,0.0025224447914924883,0.0022317101806258663,0.0015323551939721255,0.0015986732918563558,0.0017007949693729082,0.0019181001418592937,0.0027246842218909073,0.0008612035880550112,0.0007686669806249151,0.00026834623567967546,4.2007421575912085e-05,2.0593697797576293e-08,,,,,,,,,
52,,2008,1019,1407,IS_HMDT__SHZ,SHZ,,,,IS,3.5,,,,,,,34.6589,34.1689,,,,,,,,295.169544,,,,,,,,32.2529,35.526,,,,,,,,,,,,0.17844068760047355,13.768156780330239,,,2.082377839268679e-07,1.2330238052830366e-08,1.4686900213206346e-08,2.974367061938665e-07,2.9763929302672546e-07,3.0345935416764686e-07,3.0053302389197817e-07,3.2454943382185774e-07,2.640964220834556e-07,2.535639782192909e-07,4.6707440533792936e-07,1.5725473606596463e-07,6.388800829634664e-07,7.96484697019007e-07,6.67378296313161e-07,6.660380701937705e-07,4.6092900157860965e-07,4.700266085860959e-07,2.934451375032709e-06,2.560139370778894e-06,3.0418689883396477e-06,3.060068125407361e-06,4.002259171390944e-06,3.248692105333345e-06,6.622760812793927e-06,1.1041519169197092e-05,5.039159476070767e-06,4.940904753975564e-06,1.1956108656173999e-05,2.924714711077421e-05,1.5929980805977918e-05,7.922908000166325e-05,1.9850563358256994e-05,3.747729502987838e-05,1.2501704364963929e-05,3.277433617259362e-05,4.67706396473481e-05,9.905892805511774e-06,1.0910238620527994e-05,1.4348147781557327e-05,1.7313577956527423e-05,1.665071771540453e-05,1.013541467352125e-05,4.380466529587616e-06,2.881068543030302e-09,,,,,,,,,
53,,2008,1019,1407,IS_MBRI__SHZ,SHZ,,,,IS,3.5,,,,,,,34.6589,34.1689,,,,,,,,544.113229,,,,,,,,29.79329,34.9152,,,,,,,,,,,,0.1423332577316923,13.0935182727725,,,1.1035355986201932e-10,5.367972676872921e-12,3.994463174180294e-12,7.463324694812494e-11,7.579036917347891e-11,8.134174780405061e-11,7.959417109419812e-11,1.04194784376839e-10,8.639401371538853e-11,7.858789159229433e-11,1.1460716447976506e-10,1.743420436448402e-10,1.518332153136889e-10,2.460752216711878e-10,3.5579216181425945e-10,7.649499229839016e-10,4.349422332485e-10,8.965749402989185e-10,5.464423068585124e-10,1.209864897956447e-09,2.131451171914914e-09,1.6871784981361417e-09,5.64948562714974e-10,1.1399536926949768e-09,2.1765404003354574e-09,3.076953657664289e-09,1.7097937868213648e-09,2.482523300042146e-09,7.386898714254562e-09,5.432017908525902e-09,2.630564066765544e-08,1.1404498463724366e-08,1.4546520056948968e-08,1.5343879135349373e-08,3.67827432245603e-08,1.267401108425738e-08,1.8603422955525076e-08,1.2629793272237764e-08,1.0965888514119678e-08,1.2505654690801792e-08,1.1977685903813452e-08,2.5745103281687483e-09,3.0517697280381285e-09,2.352314040111255e-10,5.728378482345045e-13,,,,,,,,,
54,,2008,1019,1407,IS_HNTI__SHN,SHN,,,,IS,3.5,,,,,,,34.6589,34.1689,,,,,,,,198.027747,,,,,,,,33.0827,35.1741,,,,,,,,,,,,0.21274626408445713,11.548025876957055,,,5.630398529025404e-07,1.6012227934890458e-08,1.7831522453936682e-09,3.530649485935087e-08,3.522703871927401e-08,3.7667504134532083e-08,4.167559548860719e-08,3.671530913928268e-08,3.899718042439245e-08,1.1910384470467074e-07,1.7885649842844634e-07,2.0561188112028614e-07,2.931738999787802e-07,3.470129987641173e-07,1.8137646681019114e-07,3.9606350610115175e-07,2.741329935816202e-07,1.5931676733849215e-07,1.2710657024603097e-07,3.3532057528096785e-07,3.1002586749500793e-07,2.9027386169832154e-07,1.1430148402195553e-06,8.791859917797221e-07,1.911719270482194e-06,4.955947227295574e-06,1.7960722451942855e-06,6.664400006759206e-06,3.536604806712674e-06,1.085176216180256e-05,1.0947256790564483e-05,6.722671998635032e-05,3.3188138588531596e-05,3.647129261682237e-05,2.4905684758884994e-05,9.23683218169221e-05,1.9560822717293325e-05,0.00010603117253876266,7.616357907872842e-05,0.00017352017957277064,7.648949434941606e-05,5.599882022391661e-05,1.754953294452986e-05,2.7655375580095747e-07,5.44796987712539e-10,,,,,,,,,
55,,2008,1019,1407,IS_MMLI__BHN,BHN,,,,IS,3.5,,,,,,,34.6589,34.1689,,,,,,,,272.429109,,,,,,,,32.438,35.422,,,,,,,,,,,,0.24735476145225985,17.260894621722816,,,3.986317346288091e-05,1.5608590866285975e-06,1.2909104794754096e-07,3.727666685061749e-08,3.7193615487723134e-08,3.7084705008624304e-08,3.671448451139404e-08,3.703440945232346e-08,3.6619167158251757e-08,3.9699054269678556e-08,3.0332754456509405e-08,4.64043978010534e-08,1.0194693099258937e-07,3.1642749441200593e-07,9.175803039732472e-07,1.960982876925784e-06,4.8086624186780576e-06,9.596785842451746e-06,2.170846173519085e-05,7.797817197839301e-05,0.00020492575566224586,0.00028758522739466053,0.0003092785564759685,0.00012343442259896912,0.0009827986839738684,0.0005733255609672087,0.0004113430721535156,0.0015579468608352147,0.0015678885569701164,0.0015108125892672455,0.004556748952245079,0.0021388723170488915,0.004265117680686883,0.004512936851036374,0.0025805897513633273,0.0030938054383081192,0.0067202890518166915,0.001726931941634851,0.00228331060458153,0.004842826444247675,0.004874381690527284,0.0025852297590765374,0.0033025073359041097,0.0019523826065172873,6.450499484964923e-08,,,,,,,,,
