Record Sequence Number,EQID,YEAR,MODY,HRMN,Station Name,Station Sequence Number,Station ID  No.,Station Type,Station Network,Earthquake Magnitude,Magnitude Type,Mo (dyne.cm),Strike (deg),Dip (deg),Rake Angle (deg),Mechanism,Hypocenter Latitude (deg),Hypocenter Longitude (deg),Hypocenter Depth (km),Finite Rupture Model: 1=Yes;  0=No,Depth to Top Of Fault Rupture Model,Fault Rupture Width (km),Fault Rupture Area (km^2),Fault Name,Slip Rate (mm/Yr),EpiD      (km),HypD           (km),Joyner-Boore Dist. (km),FW/HW Indicator,Source to Site Azimuth (deg),Vs30 (m/s) selected for analysis,Preferred NEHRP Based on Vs30,Surface Geological Unit,Station Latitude,Station Longitude,Depth to Top Judea (km),Depth to Vs=1100,File Name (Horizontal 1),File Name (Horizontal 2),File Name (Vertical),H1 azimth (degrees),H2 azimith (degrees),Type of Recording,Instrument Model,Type of Filter,npass,HP (Hz),LP (Hz),Factor,Lowest Usable Freq - V (Hz),PGA (g),PGV (cm/sec),PGD (cm),f 0.01 Hz,0.012,0.014,0.017,0.021,0.025,0.030,0.036,0.044,0.052,0.063,0.076,0.091,0.110,0.130,0.160,0.190,0.230,0.280,0.330,0.400,0.480,0.580,0.690,0.830,1.00,1.20,1.450,1.740,2.090,2.510,3.020,3.630,4.370,5.250,6.310,7.590,9.120,10.970,13.180,15.850,19.060,22.910,27.540,33.110,39.810,47.860,57.540,69.180,83.180,100.000
1,,2008,0214,1659,IS.MMC6..BHZ,,,,IS,3.1,,,,,,,33.282,35.3936,,,,,,,,29.942218,,,,,,,,33.01203,35.39151,,,,,,,,,,,,,,,,0.0010371483867797088,3.0577165250073799e-05,1.2121097173355371e-06,7.9430321833593062e-15,,,,,,7.9660914558256524e-15,,,,,,,8.5204144518009307e-15,7.5603467027242969e-15,1.8827183564616133e-14,5.1276593887718541e-14,5.7566264415316957e-14,1.2554852945721029e-13,6.5657508558687981e-14,,3.0759142523500585e-13,6.5369127206409805e-13,1.9533197796851218e-12,2.9249377265931112e-12,1.7465189348322447e-12,6.7102791699443043e-12,4.3418680977077239e-12,3.5207277755005755e-11,2.9246014104489916e-11,3.121093170324552e-11,2.6871596431632903e-12,1.9734825587799561e-11,3.2355982139562881e-11,6.4175544268073809e-11,6.8155704733438769e-11,1.3434552360089238e-11,5.7575065683950061e-11,8.3426217805942476e-12,1.2682934806164224e-11,2.621812887111391e-11,1.0623472499114005e-13,,,,,,,,,
2,,2008,0214,1659,IS.KZIT..BHN,,,,IS,3.1,,,,,,,33.282,35.3936,,,,,,,,279.656066,,,,,,,,30.9067,34.3979,,,,,,,,,,,,0.69281754739391199,9.4456091727744216,,,3.6432776854212916e-05,4.5102970125340572e-06,4.8012933626183639e-07,2.5613973825599097e-14,,,,,,2.5689044114217284e-14,,,,,,,2.6826155764752665e-14,2.7799506878221998e-14,2.8093010308827468e-14,2.7418914661293184e-14,2.4534816384973072e-14,1.0687514746124841e-13,2.1983926385581042e-13,,2.513586175297371e-13,5.6742833217321231e-13,4.6802880479762038e-13,1.7188619096361302e-12,3.3253867545333468e-12,6.3329392655824424e-12,2.2069495590516037e-12,3.2695438191632908e-12,4.1973624224946799e-12,2.5173009103381569e-12,7.8808370788942606e-13,1.1360969725494823e-12,4.2139131720468857e-13,6.2678022453742419e-13,2.141020651712577e-12,4.8833090175083835e-13,1.5678219483925845e-13,8.1919853878576832e-14,7.4984670546783438e-15,1.4191257013025731e-15,1.0586875915881822e-15,,,,,,,,,
3,,2008,0214,1659,IS.ZFRI..SHZ,,,,IS,3.1,,,,,,,33.282,35.3936,,,,,,,,301.971573,,,,,,,,30.5649,35.1787,,,,,,,,,,,,0.71044195521451559,10.444048025110865,,,7.2986005930943969e-08,4.1820301953614138e-09,7.2384254658382274e-09,1.204043518742351e-16,,,,,,1.2198563047448473e-16,,,,,,,1.2148594884201855e-16,1.2912934963396497e-16,1.2868378704079057e-16,1.3394784062363848e-16,1.0374305993728481e-16,2.038361522255991e-16,2.9211535055545338e-16,,7.8220085199218816e-16,1.0251081107948231e-15,1.1592791493305361e-15,1.224985790846994e-15,6.0277688552023915e-16,6.5896746791906962e-15,1.7334760730688108e-14,2.0142944335895765e-15,4.2154617143087801e-15,6.8298955216370481e-15,7.3535027178940841e-15,3.4650226976235951e-15,2.1139258852099147e-15,1.5934684622172509e-15,5.8500356008006543e-15,1.509414754050974e-15,4.6935284583435767e-16,7.390887148872124e-16,2.2786926977046122e-16,4.7977147713151567e-17,5.2777858003146665e-18,,,,,,,,,
