Record Sequence Number,EQID,YEAR,MODY,HRMN,Station Name,Station Sequence Number,Station ID  No.,Station Type,Station Network,Earthquake Magnitude,Magnitude Type,Mo (dyne.cm),Strike (deg),Dip (deg),Rake Angle (deg),Mechanism,Hypocenter Latitude (deg),Hypocenter Longitude (deg),Hypocenter Depth (km),Finite Rupture Model: 1=Yes;  0=No,Depth to Top Of Fault Rupture Model,Fault Rupture Width (km),Fault Rupture Area (km^2),Fault Name,Slip Rate (mm/Yr),EpiD      (km),HypD           (km),Joyner-Boore Dist. (km),FW/HW Indicator,Source to Site Azimuth (deg),Vs30 (m/s) selected for analysis,Preferred NEHRP Based on Vs30,Surface Geological Unit,Station Latitude,Station Longitude,Depth to Top Judea (km),Depth to Vs=1100,File Name (Horizontal 1),File Name (Horizontal 2),File Name (Vertical),H1 azimth (degrees),H2 azimith (degrees),Type of Recording,Instrument Model,Type of Filter,npass,HP (Hz),LP (Hz),Factor,Lowest Usable Freq - V (Hz),PGA (g),PGV (cm/sec),PGD (cm),f 0.01 Hz,0.012,0.014,0.017,0.021,0.025,0.030,0.036,0.044,0.052,0.063,0.076,0.091,0.110,0.130,0.160,0.190,0.230,0.280,0.330,0.400,0.480,0.580,0.690,0.830,1.00,1.20,1.450,1.740,2.090,2.510,3.020,3.630,4.370,5.250,6.310,7.590,9.120,10.970,13.180,15.850,19.060,22.910,27.540,33.110,39.810,47.860,57.540,69.180,83.180,100.00
142,,2008,1019,1459,IS_MMA0B__BH2,,,,IS,3.5,,,,,,,34.6589,34.1689,,,,,,,,215.13779,,,,,,,,33.01527,35.40305,,,,,,,,,,,,0.12872636372304189,15.610773157806022,,,3.0807871378824285e-05,1.3664972802388412e-07,1.6156370792956691e-08,6.8887505479460723e-11,6.8839814031116493e-11,6.87851436449114e-11,6.8698517286508671e-11,6.8529563508575153e-11,6.8201625679606081e-11,6.8526407563687704e-11,6.6443226679285869e-11,8.1494042172187133e-11,8.1796468422491695e-11,1.9189793191232919e-10,2.6734536167676833e-10,9.5980603647389547e-10,7.516399949937375e-10,1.1215733120909951e-09,3.8604111037564834e-09,3.7429111445172531e-09,5.5329356887624941e-09,5.9033449367531549e-09,4.7489293707912598e-09,1.5765633490878141e-08,1.8726582752935255e-08,3.9332005619974115e-08,2.0047439392177156e-08,3.7074101245203479e-08,6.1533296378019238e-08,5.4092194801198593e-08,1.9812169528064159e-08,1.2349872766183438e-07,5.8123938267033554e-08,4.3344165430740054e-08,9.2591706792396601e-08,9.9943483598657439e-08,4.6561993997593058e-08,6.8718266484340645e-08,1.1882435046737397e-07,1.1172415111215238e-07,2.7525641410792886e-08,4.4264411173940804e-08,1.6153581841698776e-08,1.0608600547097547e-09,9.7283172120778106e-12,,,,,,,,,
143,,2008,1019,1459,IS_KRMI__SHE,,,,IS,3.5,,,,,,,34.6589,34.1689,,,,,,,,506.29501,,,,,,,,30.1178,34.7257,,,,,,,,,,,,0.26009962067397546,11.841793144174749,,,9.7389512126123734e-05,4.1332940442964149e-07,1.1482958027904926e-07,1.0051509590072591e-09,1.0046663859495613e-09,1.0043179530173994e-09,1.0065425387295671e-09,1.0087895179852634e-09,1.0081156534685839e-09,1.0249734352665508e-09,1.045051121730357e-09,1.0157088101260105e-09,1.0163609216301202e-09,1.1659534775547932e-09,1.0882710891792523e-09,1.0561621673088919e-09,1.7262737911173227e-09,9.4512509593686785e-10,1.8197598617975924e-09,1.5570984517554345e-09,2.4327878032735321e-09,4.5585216841708545e-09,8.2449407870264394e-09,4.5215032092913868e-09,3.6421282268221891e-09,4.0381618384118537e-09,7.7103817274669311e-09,1.7438421869449336e-08,2.1565975590493605e-08,8.2950891643801961e-09,4.1977064324134548e-08,5.6540717964555641e-08,4.6071410286360109e-08,3.39794356538237e-07,2.8163963230036314e-07,1.9136556806612745e-07,2.01095063262714e-07,2.2842759940830661e-07,2.134799599985585e-07,3.7241604122305473e-07,9.8020127963799004e-08,6.2651739653023032e-08,1.5350125184331375e-08,5.0813419136186825e-09,4.9247121267322844e-11,,,,,,,,,
144,,2008,1019,1459,IS_HMDT__SHZ,,,,IS,3.5,,,,,,,34.6589,34.1689,,,,,,,,295.169544,,,,,,,,32.2529,35.526,,,,,,,,,,,,0.17844068760047355,13.768156780330239,,,2.0427762766756334e-06,1.2508933374720813e-08,5.5837765650766881e-09,3.0237845107701378e-11,3.0484844060787835e-11,3.0842002976174426e-11,3.008520940836857e-11,2.7736765079329787e-11,2.5733379081445509e-11,2.644717174581151e-11,2.9254547261632178e-11,9.7563815831490245e-12,3.5463470481371889e-11,7.1657708545975377e-11,1.0987359423411176e-10,3.9520917847775648e-11,1.3884826261164768e-10,6.3468112255859394e-11,3.3430851810509039e-10,3.4683800672203382e-10,3.123592083530334e-10,4.7691306378537664e-10,5.2787420036680141e-10,4.6022289598886874e-10,9.3284527005667383e-10,1.4435592176299776e-09,5.5983494133887351e-10,7.8488634874753424e-10,1.60901628699772e-09,4.1198005989263088e-09,2.2508077274268955e-09,1.095834165744499e-08,2.7584684155208297e-09,5.1616230238664047e-09,1.7474527998299543e-09,4.5499784885595313e-09,6.513239096388332e-09,1.3574060566406245e-09,1.4935602515538226e-09,2.053488843716582e-09,2.4101122401525632e-09,2.2980210858848149e-09,1.4264913742472629e-09,6.0159717435799225e-10,1.0643938037499335e-12,,,,,,,,,
145,,2008,1019,1459,IS_MBRI__SHZ,,,,IS,3.5,,,,,,,34.6589,34.1689,,,,,,,,544.113229,,,,,,,,29.79329,34.9152,,,,,,,,,,,,0.14233325773169231,13.093518272772499,,,1.0825732523736023e-09,5.3712411029978914e-12,3.6607117667934295e-12,1.5963365004324484e-14,1.5999546111853406e-14,1.5599136960526188e-14,1.5575461097994004e-14,1.6109718973132562e-14,1.7387042211074706e-14,1.7242031109072567e-14,1.3749308076229301e-14,1.7837381775427085e-14,1.581669471227532e-14,2.649990268007572e-14,2.5572326897948885e-14,4.888265704368642e-14,5.5534572568591662e-14,1.0656391611979756e-13,1.1789082094845281e-13,1.6906108923936008e-13,9.0432957167249585e-14,1.4212076535707486e-13,1.9242088124806246e-13,1.3841027951240531e-13,2.627600890847239e-13,3.6474654959133366e-13,1.7519815332572582e-13,3.0934167546063719e-13,9.4290687431808458e-13,7.2646606892650773e-13,3.3439900963218605e-12,1.4420162649214905e-12,1.7906506182888983e-12,1.9852373255611409e-12,4.6438341968432684e-12,1.5789716361232867e-12,2.3023737095428678e-12,1.550913317122739e-12,1.340090813606488e-12,1.5353019378195454e-12,1.4792788059754964e-12,2.8767003968438487e-13,4.1760790318217974e-13,3.379356191762685e-14,1.3112641620834733e-15,,,,,,,,,
146,,2008,1019,1459,IS_HNTI__SHN,,,,IS,3.5,,,,,,,34.6589,34.1689,,,,,,,,198.027747,,,,,,,,33.0827,35.1741,,,,,,,,,,,,0.21274626408445713,11.548025876957055,,,5.5234195391043851e-06,1.604309829367627e-08,9.1776556263153026e-10,6.6878459907304417e-12,6.7931702337102744e-12,6.8397923975426569e-12,6.9889094004626787e-12,8.3909025355745343e-12,6.8152422435750027e-12,1.0237558394469706e-11,1.8631126971187944e-11,1.7299981230551444e-11,1.9172467147238685e-11,1.700626941786956e-11,2.2955613442084964e-11,4.3450334690588144e-11,5.2663144045339942e-11,2.7566092666213102e-11,3.0912931192606826e-11,8.3451351900971874e-11,4.0643281243872757e-11,6.4207424760847503e-11,1.5308138044136574e-10,1.6465020187706739e-10,3.7374343284130101e-10,6.8232121092695172e-10,2.3315308488821441e-10,9.9737000746116069e-10,6.8355314683272032e-10,1.6604721703404277e-09,1.9347009811941632e-09,1.0525760985450268e-08,4.8895017458280189e-09,5.0096474473643941e-09,3.729518983044354e-09,1.4581009562800334e-08,3.026436274511763e-09,1.6341861548868499e-08,1.174690224861979e-08,2.5296749572300326e-08,1.2044688160913464e-08,8.5582697968075804e-09,2.7117189116040324e-09,7.7707897118217451e-11,1.3722506766483136e-12,,,,,,,,,
147,,2008,1019,1459,IS_MMLI__BHN,,,,IS,3.5,,,,,,,34.6589,34.1689,,,,,,,,272.429109,,,,,,,,32.438,35.422,,,,,,,,,,,,0.24735476145225985,17.260894621722816,,,0.00039105772944455369,1.5608437752184587e-06,1.2884178069966812e-07,5.6791022037542859e-11,5.9968021049534731e-11,6.389027386414126e-11,7.005505629526193e-11,7.9168006936629515e-11,8.8843567121480092e-11,1.0178175289548362e-10,1.1907600152059553e-10,1.4927372853004904e-10,1.8451471818922676e-10,1.9125608564859793e-10,2.7191075881370432e-10,4.123071429774703e-10,1.0271657135235779e-09,1.8615296102702273e-09,4.006706908342147e-09,8.3696205578029507e-09,3.2427456649177972e-08,3.621863723748339e-08,5.6392375380142917e-08,4.2038965146174463e-08,1.785984263440997e-07,1.503632635000341e-07,5.9764898035861118e-08,3.0469303368345061e-07,2.9640551341629093e-07,3.1394931958946039e-07,9.1368032831971654e-07,4.3045796948881609e-07,8.9629394177159115e-07,8.567642113671517e-07,5.5505254695159854e-07,6.9279861384854967e-07,1.3222455151417279e-06,3.6611620043112217e-07,5.1884166703750013e-07,9.4404455615473284e-07,9.7566526514125241e-07,5.1264211949896337e-07,6.8928597498829735e-07,3.4127123952195322e-07,2.3533458153996684e-10,,,,,,,,,
148,,2008,0203,1746,IS_MZDA__SHZ,,,,IS,3.2,,,,,,,28.9188,34.7724,,,,,,,,271.178648,,,,,,,,31.3106,35.3629,,,,,,,,,,,,0.55262608466879115,9.9322905629509144,,,3.1841692404797988e-08,1.3318339730263813e-10,2.5213089838611191e-10,1.9499778186204116e-12,1.9501761637110359e-12,1.9503902267524543e-12,1.9508002846986449e-12,1.95146055876137e-12,1.9522750210723374e-12,1.9534929653501817e-12,1.9552545954951837e-12,1.958147997352861e-12,1.9616354403425402e-12,1.9675890716456699e-12,1.9764804594452894e-12,1.9895028503825565e-12,2.0100447798354649e-12,2.0400347899919564e-12,2.0925043377466124e-12,2.1988743659557744e-12,2.2714233537829279e-12,2.442812311204301e-12,3.4797613461146693e-12,1.2085826781784184e-11,1.5811419548204051e-11,1.9788363807560517e-11,3.0233557933947109e-11,2.2329781575513805e-11,3.7310730353120786e-11,6.3406262414249444e-11,1.2542263626334573e-10,6.5466302587168502e-11,3.5342535417566364e-11,1.1747810296063576e-10,4.2150933023019596e-11,1.4235187980045196e-10,1.1100367989578842e-10,2.4018337384544138e-11,1.1803567950533111e-10,2.7828994424469353e-11,3.6026146953268751e-11,1.0855551805992324e-11,3.9136517151331083e-12,1.6414596321299758e-13,1.0982313249143346e-13,,,,,,,,,
149,,2008,0203,1746,IS_DSI__SHZ,,,,IS,3.2,,,,,,,28.9188,34.7724,,,,,,,,302.4251,,,,,,,,31.5933,35.3922,,,,,,,,,,,,0.91332600058414781,12.451936994525948,,,1.4862130624233741e-05,5.7663942054891164e-08,8.1082071812445998e-09,4.8893425471771481e-11,4.8886757959669486e-11,4.8896400602766625e-11,4.8930222479711562e-11,4.8919674294019795e-11,4.8880827825268316e-11,4.8803443356039899e-11,4.9379367237815167e-11,4.8954782108759449e-11,4.8985506682051872e-11,4.9356373650845854e-11,4.9218688071496075e-11,4.9422782599272152e-11,5.0089485720398528e-11,5.0119704689698691e-11,4.7190767710123341e-11,3.3126219780271285e-11,1.4670208734592209e-11,8.1963652114797556e-11,4.6246070700844279e-11,2.017501719785427e-10,2.6936384789524315e-10,2.5734024178261687e-10,9.9348968836886013e-10,3.7378072816869049e-10,1.63582187623064e-09,1.0182702080660957e-10,3.3478173233117683e-09,5.8085101466436951e-09,1.9946382019501469e-08,1.8860311318736461e-08,2.8402088939493287e-08,6.1463360600431979e-08,6.572414867446459e-08,9.1179324161788729e-08,5.244819851555036e-08,2.7832472159272878e-08,2.5063970392326893e-08,2.2672245960612348e-08,1.1102618433531511e-08,1.4614770769110826e-09,1.4860582438009668e-11,,,,,,,,,
150,,2008,0203,1746,IS_EIL__BHZ,,,,IS,3.2,,,,,,,28.9188,34.7724,,,,,,,,85.202556,,,,,,,,29.6712,34.952,,,,,,,,,,,,0.29490920546268229,10.982173594246373,,,0.00060058550040545725,2.999483134430185e-06,2.9893469167767714e-07,1.834629175940089e-10,1.8499126963835146e-10,1.8691661359167238e-10,1.9027987815184452e-10,1.9576151059410566e-10,2.0259866611366702e-10,2.1253732701025447e-10,2.273479901223195e-10,2.5126205982418798e-10,2.8197099621338291e-10,3.1254130754932227e-10,4.5072162568552663e-10,4.1724879210509697e-10,1.4800383818913818e-09,2.297978440246504e-09,2.3975951035186516e-08,2.0369023506080467e-08,9.0242942842665087e-08,1.4176887369797153e-07,1.6528335273129605e-07,1.3796366945034396e-07,2.596828466968276e-07,3.0257042253338118e-07,1.6705387017480268e-07,3.5924645187755491e-07,2.1646596826231966e-07,7.6816926938112176e-07,7.6651399109021306e-07,4.3281542163851503e-07,5.263517680332253e-07,1.1974234966530525e-06,7.053772196832603e-07,1.8718025435012246e-06,2.7246912002284649e-06,8.6618831239841414e-07,1.1105202779049975e-06,1.0492849412244137e-06,1.7913656126347909e-07,7.4187415763387234e-07,3.6952577596740811e-07,2.8179563730380597e-08,2.3113652542190474e-12,,,,,,,,,
151,,2008,0203,1746,IS_EIL__BHE,,,,IS,3.2,,,,,,,28.9188,34.7724,,,,,,,,85.202556,,,,,,,,29.6712,34.952,,,,,,,,,,,,0.24735476145225985,14.477555778261765,,,0.00069785476906650289,2.778084535848628e-06,3.4569710697036297e-07,1.1956594615163305e-08,1.1957889616101735e-08,1.1959347496875353e-08,1.1961913014656708e-08,1.1966274854756982e-08,1.1971487572089457e-08,1.1979476568924468e-08,1.1989047677038384e-08,1.2005548250280973e-08,1.2037379131909371e-08,1.2008682293533805e-08,1.2013080619104945e-08,1.2009080654922496e-08,1.2241111024252055e-08,1.268503868793099e-08,1.8922079380342411e-08,8.2875872484211737e-08,1.312314634679496e-07,1.5865619973836613e-07,1.6405771649317985e-07,4.8560877481360968e-07,4.8851741936558179e-07,5.6159003613598946e-07,5.7619144388333897e-07,7.5256315767853477e-07,2.9001281742215867e-07,6.4496614252282406e-07,7.3230129578831355e-07,1.1117657344998105e-06,6.2550814949951651e-07,2.6532847010468468e-06,9.7785302647280644e-07,1.2352944270648013e-06,1.9352347458283544e-06,7.2730457941779021e-07,1.936444459309703e-06,8.8845224972399045e-07,1.1528387538262699e-06,1.369398400331043e-06,4.7036220433067932e-07,1.1864081608353607e-07,3.4178564287673863e-10,,,,,,,,,
152,,2008,0203,1746,IS_MZDA__SHN,,,,IS,3.2,,,,,,,28.9188,34.7724,,,,,,,,271.178648,,,,,,,,31.3106,35.3629,,,,,,,,,,,,0.48739690838536964,9.2112856408474109,,,8.1278033197675291e-08,4.1326274672069853e-10,3.9996713352723756e-10,7.7273874519477522e-13,7.7304927359392868e-13,7.7340867571714012e-13,7.7406940535289962e-13,7.7514973408222828e-13,7.7645027554894909e-13,7.7841040029665183e-13,7.8125628552748294e-13,7.8589088427312714e-13,7.9152817000500971e-13,8.0097827138366441e-13,8.1484399580855515e-13,8.347307057786444e-13,8.6649012579535127e-13,9.0892137636230146e-13,9.9553452749757501e-13,1.1004702587761999e-12,1.2497491927537158e-12,1.8264339915126598e-12,2.1091803482364488e-12,8.5563103699036733e-12,7.0679543568219706e-12,2.8511710838684561e-11,4.5075012721328905e-11,2.1984618505465853e-11,9.4152511328701013e-11,6.942212759565162e-11,1.0063821288402153e-10,6.7456981141594452e-11,2.8295004670061642e-10,4.6489037618285964e-11,1.3152253027571995e-10,6.4905172326305229e-11,1.3355729163818956e-10,2.8138717929812489e-10,2.5148985445100106e-10,9.056659323321509e-11,2.3811274932790834e-11,1.8695698453720918e-11,2.8998622014541875e-13,7.3330185438935713e-14,6.5165063070953015e-14,,,,,,,,,
153,,2008,0203,1746,IS_DSI__SHE,,,,IS,3.2,,,,,,,28.9188,34.7724,,,,,,,,302.4251,,,,,,,,31.5933,35.3922,,,,,,,,,,,,0.53891672049481687,10.982173594246373,,,3.0270972035855513e-05,1.2364840311919223e-07,1.2402642898448537e-07,2.0325041466149516e-10,2.0328606234878052e-10,2.0332771432348676e-10,2.0340152282703436e-10,2.0352349000465532e-10,2.0367112047176324e-10,2.0389519579711173e-10,2.0422304384214961e-10,2.0476334253205131e-10,2.054300038774485e-10,2.0657108793948851e-10,2.0828706025509453e-10,2.1086462960249293e-10,2.1511398447538643e-10,2.2102531715706639e-10,2.3454823856125658e-10,2.4759978891052445e-10,2.8021396086818077e-10,3.2207965618419239e-10,4.4016577614509423e-10,2.0773985905322155e-09,7.3469687177164124e-09,1.475609297800916e-08,1.1980876556158326e-08,2.9874860631382028e-08,2.5765663366733948e-08,3.3084419969773088e-08,7.4248923786612582e-08,4.3402066607540114e-08,7.8957389588331356e-08,5.6449821190592073e-08,1.008179902034819e-07,9.962077143399695e-08,9.2308633613420428e-08,7.0893101991094399e-08,5.1964003705813694e-08,1.9767078234773954e-08,2.3725116029704783e-08,6.7824970731523349e-09,1.1450811864173561e-09,9.8345789148246515e-11,9.3274066383635627e-11,,,,,,,,,
154,,2008,0203,1746,IS_MZDA__SHE,,,,IS,3.2,,,,,,,28.9188,34.7724,,,,,,,,271.178648,,,,,,,,31.3106,35.3629,,,,,,,,,,,,0.56668419784034996,8.7599334303389345,,,6.5227865146473907e-08,3.0515755057769689e-10,5.295924902577488e-11,7.1990378203169078e-13,7.1991189465366028e-13,7.1992140457044251e-13,7.1993878669034676e-13,7.1996778425103594e-13,7.2000241949385928e-13,7.2005500046386163e-13,7.2013222278359889e-13,7.2025847388837915e-13,7.2042339853767828e-13,7.2067360054077231e-13,7.2110516452518126e-13,7.2180131616101765e-13,7.2285603057848206e-13,7.2513853798769299e-13,7.2380300958143319e-13,7.246307828252996e-13,7.2954071182924311e-13,6.1697922230894753e-13,1.0092781016972216e-12,4.7123315334619479e-12,8.655814046954432e-12,1.7509129996969234e-11,3.1815955513642723e-11,4.495695611423973e-11,4.9838994962399039e-11,6.8995396156839066e-11,1.407301527303517e-10,1.6304769340820903e-10,1.4280128146351401e-10,1.3812313700147551e-10,8.0344083765089e-11,1.5439708875925727e-10,3.610868245642332e-10,2.2838588509820779e-10,1.2371170314294114e-10,1.6185640421272791e-10,1.8862863261030509e-11,5.3517224020897393e-11,2.9018623367076648e-12,6.9663304817128337e-13,6.4728067726326383e-13,,,,,,,,,
155,,2008,0203,1746,IS_MMLI__BHE,,,,IS,3.2,,,,,,,28.9188,34.7724,,,,,,,,395.084207,,,,,,,,32.438,35.422,,,,,,,,,,,,0.93655986636598898,12.143033481526487,,,8.1727166810154088e-06,3.6033544332639358e-08,3.1404144207262627e-09,8.2145710900554855e-11,8.2151637967487483e-11,8.2159121324584671e-11,8.2172085187948949e-11,8.219309253818417e-11,8.2218919204830797e-11,8.2257378145889244e-11,8.2313073100883821e-11,8.2403671305923031e-11,8.2512765528513709e-11,8.2694883714428847e-11,8.2958616668610599e-11,8.3333177411498189e-11,8.3927540123094701e-11,8.4663780252886309e-11,8.6255264056432951e-11,8.7988608824130057e-11,9.8797294285198019e-11,1.1093306047573135e-10,8.3866011146253579e-11,7.2119896307156167e-10,2.0516023920838776e-09,6.0334516007229494e-09,3.9870751656900474e-09,2.1059408881010683e-09,9.5141019933235551e-09,2.3291534196723155e-08,9.5194518123380035e-09,1.7009346997014674e-08,3.1859149712035568e-08,3.4826804994770345e-08,2.228785521967243e-08,3.3876866903793283e-08,2.5678763108080976e-08,1.1087123694830396e-08,4.071340185535772e-08,2.4368675954438231e-08,6.3699499036890682e-09,7.2838668822611579e-09,8.4482278584400834e-10,5.5385102939479362e-11,4.4211272310543699e-11,,,,,,,,,
156,,2008,0203,1746,IS_EIL__BHN,,,,IS,3.2,,,,,,,28.9188,34.7724,,,,,,,,85.202556,,,,,,,,29.6712,34.952,,,,,,,,,,,,0.31799295261837968,14.11840138794345,,,0.00074453234990595188,3.7440501543260074e-06,3.9102447897626673e-07,2.6039195181520879e-10,2.5616883450466811e-10,2.5124242333237307e-10,2.42491412578369e-10,2.2863845998032477e-10,2.118424758041662e-10,1.8611973539494168e-10,1.5158689159344068e-10,1.0507813451064888e-10,8.9706681251460059e-11,1.8478686839307505e-10,4.292491638573738e-10,7.3181851804743064e-10,1.3743090838186152e-09,2.5751774112370391e-09,9.0269888592837285e-09,2.326629262644942e-08,7.4215482340895141e-08,5.8280437035779691e-08,7.2667959504000826e-08,3.1997742075530827e-07,2.4797780695043403e-07,4.6384378619821214e-07,4.3866061260150619e-07,4.5445564595137225e-07,1.0195885705401737e-06,2.6599875486617415e-07,7.7689747034737251e-07,1.597816284421329e-06,6.6479290887957063e-07,1.3633567524337895e-06,1.9127302513552084e-06,1.2479087970450384e-06,1.7435474092205155e-06,2.2093693130882739e-06,1.0272252376990837e-06,1.015410332707543e-06,1.8838825178186835e-06,4.0265250304550202e-07,4.3114257821869603e-07,2.936312616587833e-07,7.6340120659777461e-12,,,,,,,,,
