Record Sequence Number,EQID,YEAR,MODY,HRMN,Station Name,Station Sequence Number,Station ID  No.,Station Type,Station Network,Earthquake Magnitude,Magnitude Type,Mo (dyne.cm),Strike (deg),Dip (deg),Rake Angle (deg),Mechanism,Hypocenter Latitude (deg),Hypocenter Longitude (deg),Hypocenter Depth (km),Finite Rupture Model: 1=Yes;  0=No,Depth to Top Of Fault Rupture Model,Fault Rupture Width (km),Fault Rupture Area (km^2),Fault Name,Slip Rate (mm/Yr),EpiD      (km),HypD           (km),Joyner-Boore Dist. (km),FW/HW Indicator,Source to Site Azimuth (deg),Vs30 (m/s) selected for analysis,Preferred NEHRP Based on Vs30,Surface Geological Unit,Station Latitude,Station Longitude,Depth to Top Judea (km),Depth to Vs=1100,File Name (Horizontal 1),File Name (Horizontal 2),File Name (Vertical),H1 azimth (degrees),H2 azimith (degrees),Type of Recording,Instrument Model,Type of Filter,npass,HP (Hz),LP (Hz),Factor,Lowest Usable Freq - V (Hz),PGA (g),PGV (cm/sec),PGD (cm),f 0.01 Hz,0.012,0.014,0.017,0.021,0.025,0.030,0.036,0.044,0.052,0.063,0.076,0.091,0.110,0.130,0.160,0.190,0.230,0.280,0.330,0.400,0.480,0.580,0.690,0.830,1.00,1.20,1.450,1.740,2.090,2.510,3.020,3.630,4.370,5.250,6.310,7.590,9.120,10.970,13.180,15.850,19.060,22.910,27.540,33.110,39.810,47.860,57.540,69.180,83.180,100.00
28,,2004,0211,0802,AA.TVR..BLZ,,,etna,AA,4.8,,,,,,,31.7002,35.5461,,,,,,,,121.566015,,,,,,,,32.79643,35.53593,,,,,,,,,,,,0.28319397202180185,64.35524791382737,,,0.0038724527048159952,2.6618815799810926e-05,2.418892785089671e-06,1.4814665996126314e-07,1.4903019926874697e-07,1.4991373857623083e-07,1.5123904753745657e-07,1.5300612615242426e-07,1.5477320476739192e-07,1.5698205303610153e-07,1.630623377829952e-07,1.7393909720416415e-07,1.8481585662533307e-07,1.9977140082944038e-07,2.2637773425491965e-07,2.5844851502601609e-07,3.3380100485742676e-07,4.2435014684873422e-07,4.1555216450877622e-07,9.662255952757079e-07,1.2662105013341794e-06,5.1487910131801572e-06,8.8463551129573297e-06,8.062738418767833e-06,1.0622072382731952e-05,9.9552668189450752e-06,2.7743535649399183e-05,3.026076584667999e-05,2.9043252721756661e-05,6.5827601410963285e-05,0.0001872944617019466,0.00021730342270909517,0.00016171626310210673,7.7031055564088556e-05,4.3639809427685366e-05,7.2968053866068192e-05,4.3681738642838264e-05,2.8911636318182273e-05,1.9925726290703662e-05,9.7326190222191913e-06,9.745675924203177e-06,4.387957239833974e-06,1.3977399887423136e-05,7.8013947936301066e-06,5.8898540732119428e-06,4.778379551610415e-06,1.538792765412604e-06,1.2961138284596373e-06,1.9109882016211376e-07,6.0600570809775666e-07,5.1172211706422096e-07,7.270801924300848e-08,1.2546645702511219e-08,1.1039599388068179e-11
29,,2004,0211,0802,AA.TMR..BLE,,,a-800,AA,4.8,,,,,,,31.7002,35.5461,,,,,,,,77.81769,,,,,,,,31.06535,35.19728,,,,,,,,,,,,0.4495964677874188,41.359269507099718,,,0.028409445827602998,0.00011964888088634541,8.2189256880191948e-06,5.8822896692043362e-07,5.8831710939735645e-07,5.8840525187427918e-07,5.8882849976273572e-07,5.8963731448806438e-07,5.9044612921339305e-07,5.914571476200538e-07,5.9051490897916953e-07,5.890971546014574e-07,6.0052540430500814e-07,6.1306766031074008e-07,5.9737471895143502e-07,6.1635651054626885e-07,6.3538180720312364e-07,6.7476669131621779e-07,7.4223659873132237e-07,1.0990365036827038e-06,1.2026887086236736e-06,3.3220557626357297e-06,8.495112520542887e-06,1.2331103092354204e-05,8.8963503802075062e-06,1.1851910932479542e-05,1.0978508100186375e-05,3.2477932403870497e-05,1.7693761800318894e-05,4.9070727473042298e-05,4.3065230709478616e-05,5.5049851020873056e-05,6.4364646063261207e-05,0.00027719670985795882,0.00049835694842301551,5.9495274852482088e-05,0.00033453032786931155,4.8617299303783024e-05,6.7342116808801326e-05,6.5175620090431258e-05,0.00014356160758225505,0.00013704675586650097,6.5477996884633134e-05,3.3128757551090128e-05,1.5308503135125766e-05,7.6724890394065169e-06,6.4877428814923199e-06,3.3362854127688117e-06,3.9144940348250521e-06,1.407915364663412e-06,5.7008976519571992e-08,2.0718824671809526e-08,1.2858316667289694e-08,9.5936295542898992e-09
30,,2004,0211,0802,IS.MMLI..BHE,,,,IS,4.8,,,,,,,31.7002,35.5461,,,,,,,,82.648049,,,,,,,,32.438,35.422,,,,,,,,,,,,0.077888449833265441,17.699990091094229,,,0.30689790655146121,0.0019129390675385327,0.00033397518054689674,2.6944068658446853e-08,2.9357104027336519e-08,3.1770139396226184e-08,3.6856308348759696e-08,4.5675791797930124e-08,4.4185615868816235e-08,2.4950679321280728e-08,1.368450063932652e-07,4.9631573808143071e-07,9.8637438090198486e-07,2.0910295254347827e-06,4.8686933473470135e-06,8.07072334284521e-06,1.203668204535534e-05,1.3907849019162663e-05,1.3943691457629676e-05,2.4921226915646108e-05,3.0282616452644037e-05,4.7689305144854077e-05,4.5267497582739272e-05,0.00011315384666823493,0.00010770744638566127,0.00023345783779030925,0.00027822915061039482,0.00049781514574830273,0.00053143653677251753,0.001146646174845233,0.0012100998527994086,0.00065936128646796731,0.0010286065607348651,0.00088951610825060805,0.00043807536350350075,0.00042554265977543193,0.00028617557875481068,0.00021156485815002581,0.00023011509513807954,0.00037527946617269957,0.0002851931694132807,0.00045610064774176021,0.00022770965801737489,7.0569495875934547e-05,9.4760882040027435e-09,,,,,,,,,
31,,2004,0211,0802,AA.BET..BLZ,,,etna,AA,4.8,,,,,,,31.7002,35.5461,,,,,,,,88.556877,,,,,,,,32.49776,35.49797,,,,,,,,,,,,0.36774359231855536,63.074844719841963,,,0.0067319998046983737,4.1593436857999082e-05,7.6499751168802142e-06,1.7773594014467702e-06,1.7781076199447047e-06,1.7788558384426394e-06,1.7799781661895413e-06,1.7814746031854105e-06,1.78297104018128e-06,1.7848415864261164e-06,1.7899848574375353e-06,1.7991834014668135e-06,1.8083819454960917e-06,1.821029943536349e-06,1.8466412116155843e-06,1.8778297393392528e-06,1.9242981404178257e-06,1.9777882199448539e-06,2.0991793432835353e-06,2.2182219552855478e-06,2.5001395897689585e-06,3.6673072605035023e-06,7.0847434094332069e-06,1.2485758963688049e-05,7.0585894784858511e-06,5.8279308982971901e-05,9.5189422847824463e-05,0.00013006182584774344,0.00024714441146528944,0.00010874878644910192,0.0002664314900714639,8.7903756237848779e-05,2.9022429039581837e-05,0.00013775712131924514,4.5330549778695125e-05,5.5201119354100119e-05,6.7285008406459723e-05,8.585790728461857e-05,0.00011169315084368912,0.00019905820177632821,4.9610699011595251e-05,9.5374642262878364e-06,3.0165241501894444e-05,8.1956887589045603e-06,5.3298459251352676e-06,1.1059375935845585e-05,3.7752258639837739e-06,6.461256684992466e-07,1.2971943022642149e-06,2.3310486279002162e-07,1.2698015252209397e-07,7.4264737365237598e-08,5.2825760878448247e-09,3.0150957803551507e-09
32,,2004,0211,0802,AA.ROI..BLZ,,,etna,AA,4.8,,,,,,,31.7002,35.5461,,,,,,,,61.014808,,,,,,,,32.24821,35.48796,,,,,,,,,,,,0.22251058379489944,65.661642964732252,,,0.023641586814323601,0.00010713263114519685,9.0574512079676071e-06,1.6120073633790379e-08,1.8975482066759647e-08,2.1830890499728915e-08,2.6114003149182817e-08,3.1824820015121356e-08,3.7535636881059891e-08,5.3097098087150664e-08,7.8683259838042993e-08,1.1279814217256612e-07,1.4691302450708924e-07,2.2667086077548143e-07,3.2988308231452694e-07,5.1775690054340962e-07,7.6076917969678909e-07,6.3504716077595209e-07,1.562644892250263e-06,3.047055073528466e-06,3.1080839356323192e-06,6.6278565549025545e-06,1.8434868327426831e-05,2.7797821202850782e-05,2.0642891465532788e-05,6.9831339914513301e-05,8.1470719681425312e-05,8.3771545789302799e-05,5.1994801300486187e-05,0.0001624392389984754,0.00013861540502509072,0.0003615347083023747,0.00030083948969621658,0.00021473425126395171,0.00023969652591358153,0.00018083140177507098,0.00037872053382796488,0.00016859297964927548,0.00020049563117937013,0.00011320221410372973,0.00024098138410701247,0.0002102089897212439,0.0001049887800055259,3.3923510984883801e-05,3.4052867380281605e-05,6.4239230905915442e-06,4.0132084039476063e-06,1.1272608670708897e-06,4.6219186323196687e-07,2.5323836982289809e-07,9.2945379000306958e-08,4.135788009584385e-08,3.8811536712708662e-09,2.7145116486196372e-11
33,,2004,0211,0802,AA.IZR..BLN,,,etna,AA,4.8,,,,,,,31.7002,35.5461,,,,,,,,97.953996,,,,,,,,32.56284,35.32262,,,,,,,,,,,,0.28319397202180185,69.742109310345796,,,0.0090934909878634795,5.0245321341846047e-05,8.3933095455002508e-06,7.9182806960895337e-08,8.4922186765412704e-08,9.0661566569930071e-08,9.9270636276706122e-08,1.1074939588574087e-07,1.2222815549477562e-07,1.3657660500606903e-07,1.7554408316053435e-07,2.450649423388598e-07,3.1458580151718527e-07,4.1017698288738273e-07,5.8701195436329964e-07,8.0085654308412122e-07,1.1563872472689362e-06,1.5749027708180651e-06,2.3600518301729739e-06,3.1773638639000159e-06,5.3186201321266492e-06,6.7066062291935774e-06,1.6311641854274815e-05,2.9077458752523866e-05,7.765854691378136e-05,9.482313692825031e-05,9.1647468554416497e-05,6.6899299907789667e-05,7.7955225818997733e-05,0.00012587445803890099,7.4826197543226099e-05,0.00012392219606554761,4.4065451163017081e-05,4.03508116076627e-05,0.000189875632691824,5.7130629828085326e-05,7.5715138924607321e-05,9.228359998292788e-05,6.9762591733919921e-05,6.5802941563159259e-05,5.578969566355264e-05,4.6695802905088531e-05,8.0527722236175268e-06,1.6178730471181271e-05,5.0559059096587556e-06,1.8551070109069896e-06,2.1639436965983249e-06,1.0204387821856161e-06,7.1886771567188189e-07,3.3968020906816805e-07,7.278146848220892e-08,5.7597325997754331e-08,4.2657573391422816e-08,2.9224633821334464e-11
34,,2004,0211,0802,AA.BET..BLE,,,etna,AA,4.8,,,,,,,31.7002,35.5461,,,,,,,,88.556877,,,,,,,,32.49776,35.49797,,,,,,,,,,,,0.65864388750417779,55.910004110419301,,,0.015265431175008573,8.3702330237352322e-05,9.9326337475119926e-06,4.3301005786346918e-07,4.3248805325387166e-07,4.3196604864427415e-07,4.3118304172987786e-07,4.3013903251068283e-07,4.290950232914878e-07,4.2779001176749399e-07,4.2425269165145227e-07,4.1794428720903607e-07,4.1163588276661986e-07,4.0296182665829755e-07,3.8618684077825442e-07,3.658295597833235e-07,3.3378531868991944e-07,2.9688205819934195e-07,2.3291984384446602e-07,8.1407161719507224e-08,7.51681594043787e-08,1.1829296943651001e-06,1.4485031470428896e-06,7.9122138759576883e-06,2.9358302560198323e-05,5.6662181740623934e-05,7.0488940868370552e-05,0.00012428864441178688,0.00013425789927681847,0.00018021984673689183,0.00032966022616686091,0.0003158490674977635,0.00047983792375636556,8.4424078313381242e-05,0.00032170195001570475,0.00012405064687868791,0.00049199471296377021,0.0001560067867367042,5.9920400269432015e-05,8.4401614927284379e-05,4.4026401371042036e-05,2.3047147528813186e-05,1.4545249742676797e-05,7.6140668448256971e-06,9.5330304628866891e-06,4.341842294405567e-06,9.059826981774208e-07,9.0212829486996673e-07,1.8712170647304926e-07,1.1005743499591695e-07,5.0744123048640858e-08,2.557667545434393e-08,3.7083995633727452e-09,1.8029755397616033e-09
35,,2004,0211,0802,AA.BET..BLN,,,etna,AA,4.8,,,,,,,31.7002,35.5461,,,,,,,,88.556877,,,,,,,,32.49776,35.49797,,,,,,,,,,,,0.30079273166198128,58.202961011812114,,,0.016975370311644821,0.00011058180763910688,1.4965165416033562e-05,1.7990455231158177e-06,1.8018965700476775e-06,1.8047476169795373e-06,1.8090241873773268e-06,1.8147262812410462e-06,1.8204283751047656e-06,1.8275559924344149e-06,1.8475923395162358e-06,1.8835810189613094e-06,1.9195696984063833e-06,1.9690541326433596e-06,2.0618843638372199e-06,2.1742693170117073e-06,2.4065080935133382e-06,2.6916322657905187e-06,3.094993311589155e-06,4.0545130076313311e-06,4.0094823514406972e-06,7.1927805687414289e-06,6.4004117183335388e-06,2.058064159489028e-05,8.364822548303972e-05,0.00016140655210884183,0.00013765740784403037,0.00021958639913830517,0.0001046454831093756,0.00015766707431321081,0.00021101011216178564,0.00010176041150865159,0.00025442958542281886,0.00037978936127261822,0.00030047022760799154,0.00024272825700030412,0.00033493373149570183,0.0002907591052967929,6.0150031871324358e-05,3.6394522657464099e-05,2.9375054123204947e-05,2.9443676537274369e-05,2.1345158515116401e-05,1.1003625576505414e-05,4.5461259603764415e-06,2.9881241999617052e-06,1.8675316910002003e-06,1.3801328805898498e-06,5.9859943347285242e-08,2.088229759185521e-07,4.2290419304025756e-08,8.6493941823075445e-08,2.796271341460038e-09,3.1656426465986001e-09
36,,2004,0211,0802,AA.ROI..BLE,,,etna,AA,4.8,,,,,,,31.7002,35.5461,,,,,,,,61.014808,,,,,,,,32.24821,35.48796,,,,,,,,,,,,0.22251058379489944,57.044962874989963,,,0.059588075884307,0.00027225269156514636,4.6290731883155201e-05,7.7965657664448773e-08,9.3111263967062671e-08,1.0825687026967658e-07,1.3097527972359743e-07,1.6126649232882523e-07,1.9155770493405302e-07,2.7418190318972549e-07,4.1006403579200151e-07,5.9124021259503622e-07,7.7241638939807092e-07,1.1648458425317481e-06,1.6676846597534876e-06,2.3663145201900897e-06,3.340075730632988e-06,4.4777398987552104e-06,6.8464528677581223e-06,1.0132240551916122e-05,1.6518934204697081e-05,2.8028867611940093e-05,5.234780090936949e-05,2.2817408866993019e-05,7.7438557130208707e-05,0.00018757951509226981,0.00013351937999527756,0.00014495032060419551,0.00022088922194995591,0.00053331051786855972,0.0010098136808319703,0.00072914842312497841,0.00063899375006335509,0.00085296366314628527,0.00031107246943252559,0.00050503066433335705,0.00076485884260197288,0.00066573383613179526,0.0012036571694237176,0.00022762100268168667,0.00018580697301665079,2.3903279379315612e-05,2.3480918989008615e-05,1.8516484177088078e-05,7.8553847502456931e-06,5.6573568355934546e-06,1.6402845375858181e-06,1.7335808930830328e-06,1.1051018833793017e-06,3.1804359057179743e-07,1.17530252344575e-07,3.0895238707355536e-08,5.9591877716867368e-09,3.4991282654417002e-10
37,,2004,0211,0802,IS.MMLI..BHN,,,,IS,4.8,,,,,,,31.7002,35.5461,,,,,,,,82.648049,,,,,,,,32.438,35.422,,,,,,,,,,,,0.13880230159616835,18.15025559744506,,,0.15942524047795578,0.00062950055402916528,8.3851635235416752e-05,8.1869159256348421e-09,8.2689002681626214e-09,8.3653721857577782e-09,8.5263251863414837e-09,8.8245440382294422e-09,9.2339754165067603e-09,9.8428991545646102e-09,1.2202842251663426e-08,1.8679818569338235e-08,1.4179689136579138e-08,7.8756014788783436e-08,1.5711651699155994e-07,5.3355941773262338e-07,1.2799975923822041e-06,1.9699504381118153e-06,3.4193105861421183e-06,5.903697201958136e-06,4.6992815077974459e-06,2.7443269240774954e-05,2.5816299746029851e-05,3.018138917359194e-05,4.191588488073987e-05,7.2948436727620058e-05,0.00016547043615231999,0.00022990424200198777,0.00028324566245596129,0.00021238504504451306,0.00033101563688563894,0.00011834550240612395,0.00021771287229297728,0.00067635739738768758,0.00033675042778086729,0.00051886462748651258,0.00023059828596145584,0.00054254638455819202,0.00029844741418250971,0.00017943977719353117,0.0003836088118239926,9.0670182218242622e-05,7.6080563299463528e-05,2.2338887113959326e-05,3.2798784904208477e-08,,,,,,,,,
10,,2004,0211,0802,AA.JER..BLE,,,a-800,AA,4.8,,,,,,,31.7002,35.5461,,,,,,,,33.934393,,,,,,,,31.77244,35.19812,,,,,,,,,,,,0.22702749165970687,60.589955669690539,,,0.052106477462193157,0.00023445237273288618,3.2404217064244424e-05,1.0042220319790528e-06,1.005229712183841e-06,1.0062373923886292e-06,1.0077489126958116e-06,1.009764273105388e-06,1.0172070149358854e-06,1.027005564965616e-06,1.0387638250012926e-06,1.044242158244857e-06,1.0038740997469842e-06,9.4836801931240865e-07,1.6230321163865077e-06,2.0950401446745251e-06,1.9041200064155407e-06,1.5219363109988138e-06,4.3006896623792575e-06,8.4738982619807835e-06,1.3046037525571533e-05,2.9982184407180615e-05,3.7490214738387698e-05,6.6815132471659107e-05,2.7438335562898774e-05,3.7816163991606189e-05,4.0768093632618016e-05,7.5743617957690671e-05,0.00011313420359457412,0.00022510438597274636,0.00030755908668207151,0.00018720329505597189,0.00029749017953099546,0.00018979891076026552,0.00016431020483313291,0.00032567545130285066,0.00028541770250368825,0.00024102120894084453,0.0001253363226938558,6.6591562071654261e-05,7.116787419343611e-05,3.1594694584596636e-05,6.9666115699493694e-05,6.9834737039001573e-06,5.3528660012116466e-05,6.1619819857936553e-06,1.3563291326803447e-06,1.577294562251373e-06,1.1519335347963484e-06,7.7276681347710206e-06,5.8491357410162321e-07,1.261814633190169e-07,3.6830172856897236e-08,3.2426424451553353e-09
38,,2004,0211,0802,AA.DIM..BLN,,,unknown,AA,4.8,,,,,,,31.7002,35.5461,,,,,,,,86.535898,,,,,,,,31.001,35.142,,,,,,,,,,,,0.37520869306139154,47.606615041693068,,,0.023832296530235674,7.5628256233286083e-05,8.1687818788074385e-06,6.7530283973756055e-08,7.077444174548502e-08,7.4018599517213985e-08,7.8884836174807439e-08,8.5373151718265369e-08,9.1861467261723312e-08,9.9971861691045718e-08,1.2165348661789923e-07,1.7100871339123529e-07,2.2036394016457138e-07,2.8822737697790848e-07,2.7977273103781931e-07,2.286307373780041e-07,5.6569728905942397e-07,1.3106990960489573e-06,2.6156337575785141e-06,5.262985118768883e-06,8.819141355535153e-06,2.4710284624895432e-05,5.8760569877876808e-06,5.5968385288473587e-05,7.228412064000958e-05,5.1676637246227884e-05,0.00011085240741015112,0.00010758458479196182,3.9722195021240121e-05,0.00010039536794511606,0.00017594766565561765,0.00023242644136080108,0.00023357895420988273,0.00022052781984349378,0.00032690307464335391,0.00047832361256129391,0.00011083344992603866,0.00015542369257726428,0.00027076415504422399,8.5161216881845999e-05,0.00032066753009815549,0.0001231494132058167,8.5442206686326975e-05,9.4202577336549042e-05,1.0840395634173085e-05,5.0969930484589274e-06,1.2107026227891005e-05,2.4822116815629597e-06,2.09131939092424e-06,1.0384220838256744e-06,8.2804294864978851e-07,1.9819400790469575e-07,3.7968872315507626e-09,3.5487915628196858e-10
39,,2004,0211,0802,AA.ARI..BLN,,,etna,AA,4.8,,,,,,,31.7002,35.5461,,,,,,,,54.935985,,,,,,,,32.10397,35.20956,,,,,,,,,,,,0.31948514572800063,59.384466214241719,,,0.017074244402929321,9.682588317799212e-05,1.1721263749026969e-05,5.6131201417922464e-07,5.6066270163950182e-07,5.600133890997789e-07,5.5903942029019467e-07,5.5774079521074893e-07,5.5644217013130319e-07,5.5481888878199604e-07,5.5147631377085766e-07,5.4589327283565071e-07,5.4031023190044387e-07,5.3263355061453441e-07,5.3126325453016259e-07,5.3086456508339608e-07,4.0645475364508645e-07,2.37750559579516e-07,5.7072884267751212e-07,1.9466329349354653e-06,3.7154625443585688e-07,3.2726544453034291e-06,1.3721012399039469e-05,2.2134882134469514e-05,1.7814541397488292e-05,2.5509680440901187e-05,5.7815434840870527e-05,0.00013578041905218456,0.0001540422717240836,0.00015154454504241613,0.00018539158433465648,0.00016406897003296965,0.00017178526127822647,8.4084196823653408e-05,0.00011111462112589897,6.6783739561698653e-05,0.0001471497787825025,7.6279252361910861e-05,0.00010790953081382922,0.0002434600806054137,2.8913717586612804e-05,6.2447727866913775e-05,2.8251231218252584e-05,1.087048988544726e-05,1.0952929388254954e-05,5.4444316783241763e-06,5.144127079459313e-06,2.332783679223048e-06,2.0985198640658284e-06,9.0898113014994373e-07,4.211336301549804e-07,2.8349343210551147e-07,5.5573275334045061e-09,2.2011783691513892e-09
