Record Sequence Number,EQID,YEAR,MODY,HRMN,Station Name,Station Sequence Number,Station ID  No.,Station Type,Station Network,Earthquake Magnitude,Magnitude Type,Mo (dyne.cm),Strike (deg),Dip (deg),Rake Angle (deg),Mechanism,Hypocenter Latitude (deg),Hypocenter Longitude (deg),Hypocenter Depth (km),Finite Rupture Model: 1=Yes;  0=No,Depth to Top Of Fault Rupture Model,Fault Rupture Width (km),Fault Rupture Area (km^2),Fault Name,Slip Rate (mm/Yr),EpiD      (km),HypD           (km),Joyner-Boore Dist. (km),FW/HW Indicator,Source to Site Azimuth (deg),Vs30 (m/s) selected for analysis,Preferred NEHRP Based on Vs30,Surface Geological Unit,Station Latitude,Station Longitude,Depth to Top Judea (km),Depth to Vs=1100,File Name (Horizontal 1),File Name (Horizontal 2),File Name (Vertical),H1 azimth (degrees),H2 azimith (degrees),Type of Recording,Instrument Model,Type of Filter,npass,HP (Hz),LP (Hz),Factor,Lowest Usable Freq - V (Hz),PGA (g),PGV (cm/sec),PGD (cm),f 0.01 Hz,0.012,0.014,0.017,0.021,0.025,0.030,0.036,0.044,0.052,0.063,0.076,0.091,0.110,0.130,0.160,0.190,0.230,0.280,0.330,0.400,0.480,0.580,0.690,0.830,1.00,1.20,1.450,1.740,2.090,2.510,3.020,3.630,4.370,5.250,6.310,7.590,9.120,10.970,13.180,15.850,19.060,22.910,27.540,33.110,39.810,47.860,57.540,69.180,83.180,100.00
40,,2004,0211,0802,IS.HRFI..BHE,,,,IS,4.8,,,,,,,31.7002,35.5461,,,,,,,,190.563541,,,,,,,,30.04,35.03,,,,,,,,,,,,0.09055895299174474,12.143033481526487,,,0.0091554482609854798,0.00012013823657690418,3.0143252389729744e-05,1.3193566536416601e-07,1.3199728342358885e-07,1.3208231965584744e-07,1.322260412176728e-07,1.3240745122938991e-07,1.326169986682727e-07,1.338355439582859e-07,1.3255716758529215e-07,1.4129461209053402e-07,1.2317789849707159e-07,1.5989298630265924e-07,2.165743143420324e-07,4.0781953984500799e-07,4.4459068363627159e-07,1.8525732479598153e-06,4.0292813204337144e-06,5.6466993130083848e-06,1.7445074264505123e-06,7.4187547867520688e-06,1.0607152968805129e-05,7.5468883074678448e-06,3.7522229678553843e-05,4.2405688439759659e-05,2.9630964673064021e-05,2.3501673242282148e-05,2.8459519722902067e-05,3.9358671046562892e-05,2.5459571752670919e-05,3.1091800558187325e-05,1.5275497711170456e-05,3.2728250918025149e-06,1.7095468412088144e-05,7.7242371906246962e-06,1.5413745473058432e-05,1.3438544049335912e-05,1.4282303806307725e-06,1.2640273606108103e-06,8.928217941939845e-06,4.4178075687961718e-06,2.6359732007071018e-07,1.2526793036147874e-07,8.3381408830937968e-10,,,,,,,,,
41,,2004,0211,0802,AA.NAZ..BLZ,,,etna,AA,4.8,,,,,,,31.7002,35.5461,,,,,,,,113.769105,,,,,,,,32.69968,35.27372,,,,,,,,,,,,0.58382676360480767,63.074844719841963,,,0.008570087577225674,6.7363932602906615e-05,7.4523977541488933e-06,5.916461228644509e-07,5.9154410526092689e-07,5.9144208765740287e-07,5.912890612521169e-07,5.9108502604506897e-07,5.9088099083802094e-07,5.9062594682921095e-07,5.8993616438058986e-07,5.8870656399713911e-07,5.8747696361368835e-07,5.8578626308644363e-07,5.8248884263022312e-07,5.784846571538993e-07,5.730554680167506e-07,5.6670225405717285e-07,5.4288231124658603e-07,5.5131169340086234e-07,4.6040853173414119e-07,6.0198241411740498e-07,9.9352256280039256e-07,4.1973783921504206e-06,9.2975363732592768e-06,2.0100696587465262e-05,2.6038566784330092e-05,1.8107279746957832e-05,3.6534819565583015e-05,6.59184072593885e-05,0.00054607611464017533,0.00037920330811087372,0.00010159832678992196,0.00015951452992464269,0.00013178829963585094,0.00011564199721488312,3.2351833012545989e-05,2.4095703284512596e-05,1.7667657830794657e-05,7.3893764843146762e-05,2.4970713791082284e-05,1.4258741372314499e-05,6.6574330967644538e-06,1.2558764040811725e-05,4.049471326591475e-06,5.4420889724961159e-06,3.2096404728041816e-06,1.8029194685469619e-07,8.5005103252073474e-08,9.7954345577402573e-08,5.102791663198255e-08,2.6728580661225681e-08,3.0320609466380781e-09,2.7060396717310879e-09
42,,2004,0211,0802,AA.ARI..BLE,,,etna,AA,4.8,,,,,,,31.7002,35.5461,,,,,,,,54.935985,,,,,,,,32.10397,35.20956,,,,,,,,,,,,0.46803512362473576,69.742109310345796,,,0.022080207985871403,0.00014072559671414589,1.7460915852394641e-05,1.5071806809986335e-08,1.4417654870165985e-08,1.3763502930345636e-08,1.2782275020615111e-08,1.1473971140974411e-08,1.0165667261333712e-08,8.5302874117828387e-09,9.8158746480878254e-09,1.4153029245115751e-08,1.8490183842143679e-08,2.4453771413057081e-08,4.4085421679405093e-08,6.8669167304749261e-08,1.0292086983512388e-07,1.44077011198257e-07,3.1645212885715567e-07,2.8299611325075247e-07,3.7523619487030372e-07,2.3946254417759086e-06,8.2322387743974117e-06,1.8874233326234045e-05,3.2219778073517695e-05,2.9512179448994711e-05,9.3207668349356047e-05,0.00013786547931122134,9.0322752466833167e-05,0.00025158883212260971,0.00042458928686763052,0.00035914606594738023,0.00054700766322985359,0.00016075541090022417,0.00015988814109494357,2.9076912467495721e-05,9.7621102661952282e-05,5.2661825431576364e-05,6.4900108711515598e-05,8.9422422313923319e-05,7.1628730486364824e-05,2.9620926286279729e-05,3.3349972750529976e-05,3.6927739647305345e-05,1.5159541958881064e-05,1.3642528965073275e-05,5.3148218213372366e-06,5.4895671470810198e-06,1.320322998506386e-06,2.6507835609221192e-06,7.6304685845457355e-07,1.0325371429054313e-06,3.9247970543092266e-08,1.6960184956310676e-10
43,,2004,0211,0802,AA.ARI..BLZ,,,etna,AA,4.8,,,,,,,31.7002,35.5461,,,,,,,,54.935985,,,,,,,,32.10397,35.20956,,,,,,,,,,,,0.3985256003986174,43.929493151877026,,,0.011228495847396932,4.4352006168334152e-05,6.2038070739670384e-06,2.0953555263261e-08,2.0475842720418002e-08,1.9998130177575005e-08,1.9281561363310509e-08,1.8326136277624513e-08,1.7370711191938521e-08,1.6176429834831027e-08,1.5386628554755766e-08,1.4853102515334976e-08,1.4319576475914182e-08,1.3585978171710593e-08,2.5977960209307033e-08,4.2311896278342844e-08,7.952578397322336e-08,1.2694061707574543e-07,2.1674076538137064e-07,1.9416565376645537e-07,8.851462262769969e-07,2.9272960128859535e-06,6.4744519264971998e-06,1.4158947819373379e-05,1.8052448129348031e-05,4.9517682120467858e-05,7.2211073216301881e-05,4.9465273748250605e-05,5.8189877887695083e-05,0.00010025169645713815,0.00013226805332187928,7.2887359573239424e-05,0.00023764045326815953,7.1740451289597733e-05,8.9412627174351845e-05,7.7848900435231847e-05,3.9858928164959926e-05,4.7580306926026338e-05,0.00010261086609070459,0.00015639779405764265,2.6318181306072404e-05,3.4475024554219617e-05,3.0616666721156236e-05,2.0613957028489891e-05,2.8109060456141969e-05,1.1551113980535962e-05,7.500178829611822e-06,2.1086512233068682e-06,3.471829260549052e-06,2.4504008953852711e-06,4.8424451026221604e-07,3.6905661070576917e-08,7.7554313682737194e-10,1.4049540830358373e-10
44,,2004,0211,0802,AA.ROI..BLN,,,etna,AA,4.8,,,,,,,31.7002,35.5461,,,,,,,,61.014808,,,,,,,,32.24821,35.48796,,,,,,,,,,,,0.36774359231855536,65.661642964732252,,,0.069080564335915084,0.00028096196075835724,3.0081388061928737e-05,1.6348423075141458e-08,1.5855913753378723e-08,1.5363404431615988e-08,1.4624640448971883e-08,1.3639621805446411e-08,1.2654603161920938e-08,1.1660994578906162e-08,1.0663707289151834e-08,9.3339909028127282e-09,8.0042745164736227e-09,1.9539271115700754e-08,3.6813611857903774e-08,4.867766948341843e-08,6.6371762164614928e-08,1.6102168343496157e-07,1.6866934313955518e-07,8.340078510832576e-07,1.36327346603398e-06,3.7055934443216092e-06,5.0889764050445367e-06,1.5298163532424345e-05,3.5284636847839339e-05,0.00011898594522706483,6.541756936910258e-05,0.00019293298210784098,7.671470137704158e-05,0.00017687100149495257,0.00075623056276595286,0.0011488276402755338,0.00044167728540056794,0.00059163130858964951,0.00039236229124925111,0.00037719140311867931,0.0002106270902288003,0.0008287050372942829,0.00068536864263405426,0.00036549906813569888,5.332756928322573e-05,4.4260931349062359e-05,1.7974226470377619e-05,1.1327164622053619e-05,8.9101373904400344e-06,2.9853695140052867e-06,4.3674731716532516e-06,1.4471159858803556e-06,8.5050721998675334e-07,6.2237336977934212e-07,7.6715907928313756e-08,6.0920057424360688e-08,9.5212366497572587e-09,1.0900849691830579e-10
45,,2004,0211,0802,AA.NAZ..BLE,,,etna,AA,4.8,,,,,,,31.7002,35.5461,,,,,,,,113.769105,,,,,,,,32.69968,35.27372,,,,,,,,,,,,0.17483055711699708,63.074844719841963,,,0.017681300102933162,0.00023921278079996232,3.0943775357775494e-05,6.6334795389650778e-07,6.6771529324383672e-07,6.7208263259116567e-07,6.7863364161215908e-07,6.8736832030681697e-07,6.9610299900147476e-07,7.0702134736979712e-07,7.3869864908216758e-07,7.9593598556756646e-07,8.5317332205296533e-07,9.3187465972038882e-07,1.0721142021532142e-06,1.2411795617672513e-06,1.4796349501475973e-06,1.7621243948363455e-06,2.7976426931107308e-06,4.5014070400182255e-06,3.0086644218776914e-06,9.8898711101012208e-06,1.1451091455840191e-05,3.69672334874766e-05,5.117255807266221e-05,8.0065812895568417e-05,0.00016699640433305628,0.00042682822650048484,0.00027551616968054821,0.0010137939456959367,0.0005463868864639457,0.00080093734823125269,0.00046297036201979581,0.00076727705707329782,0.00025967796952169008,0.00012472015215634396,9.9678878058406044e-05,3.4022252815577379e-05,3.5423162419557461e-05,2.2969842782804682e-05,1.5551697758436168e-05,4.9975093305283037e-05,1.6732144879095759e-05,4.137669618513927e-06,4.8261714155427141e-06,2.0187731799027256e-06,8.6430296730327061e-07,2.9221068915046096e-07,1.0961546004971658e-07,1.9009556450979962e-08,3.1787235042000232e-08,6.8713120555523797e-09,1.015457088249832e-09,7.7828862557763199e-10
46,,2004,0211,0802,IS.HRFI..BHZ,,,,IS,4.8,,,,,,,31.7002,35.5461,,,,,,,,190.563541,,,,,,,,30.04,35.03,,,,,,,,,,,,0.048326833667893379,17.260894621722816,,,0.0080093682210150233,4.9499765770413627e-05,1.6270307383953714e-05,7.460972982387827e-09,7.4704082785901449e-09,7.4177115343416957e-09,7.3809701423503384e-09,8.1843340776169621e-09,8.9939531495822888e-09,3.6105759283753826e-09,1.2578316280043247e-08,5.3845298140117592e-08,1.8531596616951363e-07,3.9386996353465492e-07,9.045348192259765e-07,1.4024089318589037e-06,1.9610961860561889e-06,1.663868210393603e-06,2.3163316715098685e-06,2.0685802872888316e-06,2.5689610161532574e-06,8.7834739161494781e-06,3.6618164462907152e-06,3.0887581017207779e-06,4.0022065076081718e-06,2.2057514428322022e-05,1.51693256614151e-05,6.7938313496700278e-06,7.5880194179132384e-06,5.4927209567730575e-06,1.2807285609211641e-05,2.1934187823663747e-05,1.605834443258702e-05,1.1519489962032078e-05,1.4156378171407885e-05,1.7637693046987326e-05,1.4494928739442123e-05,2.1357977890407521e-05,1.5523945977165359e-05,1.2021078764422251e-05,1.1657770343325593e-05,4.2612785219259151e-06,5.7925597172829604e-06,8.1152760523484789e-07,3.9314414709859114e-10,,,,,,,,,
47,,2004,0211,0802,AA.BNR..BLZ,,,etna,AA,4.8,,,,,,,31.7002,35.5461,,,,,,,,64.185103,,,,,,,,31.64895,34.87188,,,,,,,,,,,,0.44065135807188449,44.821250612266539,,,0.0076612417819186289,5.6592270117610913e-05,7.2490081679061373e-06,1.0584132286536257e-07,1.0451126561470365e-07,1.0318120836404473e-07,1.0118612248805636e-07,9.8526007986738516e-08,9.5865893485420674e-08,9.0721857157180629e-08,7.9070441562908415e-08,6.3535220770545445e-08,4.7999999978182463e-08,4.366215526809474e-08,5.6253103942238865e-08,9.0916132569273791e-08,1.8186357234567372e-07,2.9714374127754087e-07,4.9587013415351854e-07,7.328299500875794e-07,1.2664753301081265e-06,2.3940120719377728e-06,3.176171886576987e-06,2.9981969490570487e-06,2.0129084620729284e-05,3.9910092190240653e-05,2.4106583913578245e-05,0.00016579328598178292,0.00030312939864362171,0.00043192581150785082,5.5347130034018611e-05,0.00011545611470691516,0.00024049913141160781,0.00018077912386014829,0.00016357632412417904,0.00012301387281670446,4.7969829984420487e-05,9.5540848366441777e-05,5.8532257627968032e-05,6.7829968197438283e-05,5.3036297632557135e-05,4.4511879187970312e-05,2.5942434852036537e-05,3.7428792403184567e-05,2.4723804106690981e-06,1.9184996900890971e-05,1.4688509692004969e-05,3.9030368616115107e-06,1.5699633490700601e-06,3.000249551668155e-07,1.8813189074448177e-07,1.3834493153234823e-08,2.8956563091448286e-09,9.848634057268536e-11
48,,2004,0211,0802,AA.HAI..BLZ,,,a-800,AA,4.8,,,,,,,31.7002,35.5461,,,,,,,,138.51533,,,,,,,,32.89032,35.09952,,,,,,,,,,,,0.31948514572800063,40.536391148388262,,,0.0086041220952338838,9.5090614884057163e-05,1.9589841777705329e-05,2.9298085924533294e-07,2.9009650084085309e-07,2.8721214243637319e-07,2.8288560482965332e-07,2.7711688802069351e-07,2.7134817121173377e-07,2.5034265439248912e-07,2.2512568047849132e-07,1.9150304859316095e-07,1.6015088998884043e-07,1.2644652519233357e-07,9.8278690791238281e-08,2.2894321071842246e-07,4.5982226030653359e-07,7.5551200497695238e-07,1.1147955205643814e-06,1.7080808528866144e-06,3.9999882199582428e-06,4.3306001779237925e-06,1.217584201886887e-05,2.6255727961868166e-05,6.944283588331225e-05,0.00018817088665055071,7.9895390109933066e-05,0.00027545946001974575,0.00026364959663037024,0.00027757827646472698,0.00043786274671079076,0.000317411244001409,0.00021696127943962289,0.00026169880645664402,8.5946052406994211e-05,2.6086843299588991e-05,8.2171813091420836e-05,3.5095169655768812e-05,1.5025967038088718e-05,5.4102987979011134e-05,3.3029570107652945e-05,2.7766325107353468e-05,7.7846093232371963e-06,8.513451822985875e-06,4.9104587796963461e-06,2.1495131193204412e-06,5.3249034583942692e-07,5.0204194878547519e-07,6.119584457498152e-08,8.3085412044158747e-07,2.4200135574513846e-08,8.6341263471540284e-09,2.2989777163464045e-09,8.6246776165987487e-10
49,,2004,0211,0802,AA.BNR..BLN,,,etna,AA,4.8,,,,,,,31.7002,35.5461,,,,,,,,64.185103,,,,,,,,31.64895,34.87188,,,,,,,,,,,,0.23633824493346692,72.602342526301655,,,0.012851119194537108,9.9594985344653156e-05,2.0887817510684262e-05,7.7484915174855557e-08,8.719368909730462e-08,9.6902463019753697e-08,1.1146562390342731e-07,1.3088317174832548e-07,1.503007195932236e-07,1.8861644341811078e-07,2.7689571163019193e-07,3.9460140257963354e-07,5.1230709352907515e-07,7.4400681176104261e-07,1.0905376569950475e-06,1.5302157697541851e-06,2.1802065243207068e-06,2.6638714797367607e-06,4.8020778144116906e-06,9.3738167935000215e-06,8.4585705648586137e-06,2.3679266097673896e-05,3.2677404838286272e-05,3.7541309024397555e-05,0.00010995551375480165,5.6878694160181267e-05,0.00019027192017454463,0.0003099115059340921,0.00031525074359128646,0.00026950168396086473,0.00030603153350450838,0.00038131965360796118,0.0002230298772330458,0.00029655804709574347,0.00012518928569874791,0.00017260834467058622,2.0610397258583262e-05,0.00018628903301992308,7.0800500290303894e-05,9.015719220482806e-05,0.00014217226677009463,4.1236579903876149e-05,3.4564260328894431e-05,1.4756776132346594e-05,7.1321143958019618e-07,1.1721760925071479e-05,8.3264775828419643e-06,1.4492381560659237e-06,1.5435830371424846e-06,3.9112989881609611e-07,8.8300371141736537e-08,4.0284941577250337e-08,9.962343722576595e-09,2.4816413925844249e-10
50,,2004,0211,0802,AA.HAI..BLE,,,a-800,AA,4.8,,,,,,,31.7002,35.5461,,,,,,,,138.51533,,,,,,,,32.89032,35.09952,,,,,,,,,,,,0.3985256003986174,43.929493151877026,,,0.034721668998866785,0.00043855985945696397,6.9487211232671105e-05,3.0972572710291823e-07,3.1019168227657422e-07,3.1065763745023026e-07,3.1135657021071427e-07,3.1228848055802636e-07,3.1322039090533839e-07,3.1697516396270027e-07,3.2148283550328083e-07,3.2749306422405485e-07,3.3506045461684909e-07,3.5191575928595357e-07,3.7261470076723572e-07,4.0739534924051852e-07,4.756854883794735e-07,5.4393495318916485e-07,7.1932129132794838e-07,1.5158086698775079e-06,1.2907714589582588e-06,1.149787122381164e-05,7.8337482868215704e-06,3.6922556346237833e-05,8.7581670050344013e-05,0.00012754905602190551,0.00060316247385948591,0.00041199000779095412,0.0027078481161785348,0.0006861594416255934,0.00069118159562643763,0.00056026460381990942,0.00044049359430771445,0.00087313702257795411,0.00014432282270308855,0.00030046159574824525,0.00024908378924863302,9.3999772369106463e-05,8.1242902443282285e-05,6.0223035215908744e-05,3.4995971741314049e-05,6.9877240649021877e-05,1.4295153062970879e-05,1.0109244523992382e-05,1.8910985548903041e-06,4.3201121962004431e-07,1.2339230958944894e-07,2.4647073868878712e-07,5.3965992204758667e-08,5.0352301508401495e-07,3.052408609708062e-08,1.1850548445688891e-08,4.459188150795182e-09,2.1987510329353252e-09
51,,2004,0211,0802,AA.HAI..BLN,,,a-800,AA,4.8,,,,,,,31.7002,35.5461,,,,,,,,138.51533,,,,,,,,32.89032,35.09952,,,,,,,,,,,,0.1933108496643926,39.729884664743956,,,0.018366965029623563,0.00021173465046803828,3.4421302269698415e-05,5.738668607953185e-07,5.8430244012467025e-07,5.9473801945402189e-07,6.1039138844804941e-07,6.312625471067527e-07,6.521337057654561e-07,7.3093931287600142e-07,8.2554560857812331e-07,9.5168733618095243e-07,1.1035259713879519e-06,1.418746944357728e-06,1.7933479900471377e-06,2.2544957831905081e-06,3.1841908840265518e-06,4.3098027898472698e-06,5.9369015038720601e-06,7.4315127614415921e-06,6.957639342367857e-06,2.2204193654253785e-05,2.3723957952717947e-05,4.2646049963149393e-05,0.00010609388296201481,0.00016646255018437097,0.00014497919113269522,0.00099816097460669645,0.0007224489939764581,0.00032040210898940611,0.00051179349736384951,0.00030782671531162984,0.0005018419108519795,0.00052413098779688209,0.00020028620225075568,0.00038463572707550211,0.00038795096624540609,6.5096385209684207e-05,7.1355491919982488e-05,3.333651120215049e-05,1.4714814660390554e-05,6.2425602779766503e-05,1.79276374356847e-05,2.8728340089454361e-06,1.7884818107134442e-06,6.2530410678180616e-07,1.770451303525393e-07,1.7965359359350535e-07,7.360279518386192e-08,4.6646792924961068e-07,1.347264324487766e-08,3.2068484304010082e-09,4.5062359497502936e-10,6.6112514565778442e-10
52,,2004,0211,0802,AA.BNR..BLE,,,etna,AA,4.8,,,,,,,31.7002,35.5461,,,,,,,,64.185103,,,,,,,,31.64895,34.87188,,,,,,,,,,,,0.30079273166198128,69.742109310345796,,,0.0090731620363628737,7.0481422615793074e-05,8.8780758433878821e-06,2.8506697869768084e-08,3.1283085879877398e-08,3.4059473889986705e-08,3.822405590515067e-08,4.3776831925369298e-08,4.9329607945587914e-08,6.0220812098341253e-08,8.5188504909952828e-08,1.184787619921016e-07,1.5176901907425038e-07,2.1427765100466552e-07,3.0556865492345627e-07,4.2443774751911583e-07,6.0662282882988186e-07,8.0877287584611546e-07,1.2870838009886323e-06,1.5923908165102604e-06,2.2231095579849242e-06,6.5796987428527548e-07,1.7363428093788964e-05,3.67794992595943e-05,5.0826421935098179e-05,4.2136565547129667e-05,6.238981207050771e-05,5.4184617448941566e-05,0.00026107342919089741,9.1492361787497934e-05,0.00016891781504022561,0.00029678738429285705,0.00029236367973057946,0.00031815273855122917,0.00010336561063488417,0.00022184584374657738,7.5177089430274901e-05,8.7679197829342655e-05,6.4525332741418548e-05,5.3379522554286454e-05,0.0001165095359473058,1.010895296263877e-05,2.0827258487139319e-05,1.1006807200298549e-05,7.6998554940586518e-07,5.8769606026570119e-06,2.8413765480190528e-06,2.1094815892317371e-06,1.498671295714166e-06,9.0049947799440334e-07,4.4413987438370807e-07,6.4981225579877578e-08,1.2868731699117865e-08,8.0937224210208599e-11
