Record Sequence Number,EQID,YEAR,MODY,HRMN,Station Name,Station Sequence Number,Station ID  No.,Station Type,Station Network,Earthquake Magnitude,Magnitude Type,Mo (dyne.cm),Strike (deg),Dip (deg),Rake Angle (deg),Mechanism,Hypocenter Latitude (deg),Hypocenter Longitude (deg),Hypocenter Depth (km),Finite Rupture Model: 1=Yes;  0=No,Depth to Top Of Fault Rupture Model,Fault Rupture Width (km),Fault Rupture Area (km^2),Fault Name,Slip Rate (mm/Yr),EpiD      (km),HypD           (km),Joyner-Boore Dist. (km),FW/HW Indicator,Source to Site Azimuth (deg),Vs30 (m/s) selected for analysis,Preferred NEHRP Based on Vs30,Surface Geological Unit,Station Latitude,Station Longitude,Depth to Top Judea (km),Depth to Vs=1100,File Name (Horizontal 1),File Name (Horizontal 2),File Name (Vertical),H1 azimth (degrees),H2 azimith (degrees),Type of Recording,Instrument Model,Type of Filter,npass,HP (Hz),LP (Hz),Factor,Lowest Usable Freq - V (Hz),PGA (g),PGV (cm/sec),PGD (cm),f 0.01 Hz,0.012,0.014,0.017,0.021,0.025,0.030,0.036,0.044,0.052,0.063,0.076,0.091,0.110,0.130,0.160,0.190,0.230,0.280,0.330,0.400,0.480,0.580,0.690,0.830,1.00,1.20,1.450,1.740,2.090,2.510,3.020,3.630,4.370,5.250,6.310,7.590,9.120,10.970,13.180,15.850,19.060,22.910,27.540,33.110,39.810,47.860,57.540,69.180,83.180,100.00
97,,2008,1006,0324,IS_KRMI__SHE,,,,IS,3.1,,,,,,,27.648,34.8504,,,,,,,,274.0077,,,,,,,,30.1178,34.7257,,,,,,,,,,,,0.16548731966907376,11.261546290434179,,,2.6524908555647833e-05,1.3861811948839257e-07,1.7958799226577848e-07,7.1813940543558183e-10,7.2836532364417425e-10,7.2967180802837347e-10,7.1145497297411514e-10,7.2412024344577006e-10,7.2060864003066937e-10,6.8862815263708473e-10,7.7509578159581903e-10,1.0678654641467321e-09,1.1999735955261333e-09,9.7354346032822758e-10,1.6941484346623529e-09,1.2179577546773568e-09,2.782101720090898e-09,2.591978308791129e-09,1.6179337008949213e-09,8.051703707664786e-10,1.2748167383670461e-09,3.6423077481768324e-09,3.1072128725635273e-09,3.2286996766747208e-09,4.4217824926295858e-09,4.1522226813497734e-09,3.1849322953155161e-09,5.0540723454625736e-09,5.9598596204726738e-09,3.3035922469876957e-09,8.8711796807395559e-09,2.5066596331421141e-08,7.5978323404244e-08,1.0977900383348396e-08,9.7449924459908256e-08,3.9593535335399012e-08,7.8927896413699703e-08,8.5000262502747927e-08,3.9153172441813843e-08,4.9982310097913068e-08,2.5166965624092018e-08,2.2052160197193084e-08,1.2847852529014837e-09,5.9343999548942989e-10,7.7912969479793894e-11,,,,,,,,,
98,,2008,1006,0324,IS_MBRI__SHZ,,,,IS,3.1,,,,,,,27.648,34.8504,,,,,,,,237.849405,,,,,,,,29.79329,34.9152,,,,,,,,,,,,0.26009962067397546,10.444048025110865,,,1.6340782899133338e-10,7.9611166721398809e-13,1.977902574167327e-12,1.4248762724153868e-14,1.4240375448266132e-14,1.4250928701893322e-14,1.4257997730150442e-14,1.42374146345313e-14,1.4268050731571857e-14,1.4277594913503886e-14,1.4424031487782703e-14,1.4855905447345132e-14,1.5358359369754845e-14,1.3220497759025261e-14,1.9225912848921431e-14,1.8127596851012768e-14,2.0636426782805398e-14,1.313807464492456e-14,3.4243439556830136e-14,1.4518464246737386e-14,6.3871963422799863e-14,9.0224337233147665e-14,1.430331808692474e-13,8.6732167417651433e-14,4.8874892323067937e-14,9.0934582331430751e-14,1.7665157370118582e-13,1.3631324643573853e-13,2.2151898516997885e-13,2.2138317337577723e-13,2.8462617556088039e-13,3.6075303231973793e-13,4.2210654992854691e-13,5.1470694988173582e-14,4.8454764135773636e-13,3.51737800492102e-13,7.3225174197898801e-14,4.5653577725819911e-13,2.6735824350950903e-13,1.3015832110830067e-13,1.5247310742703722e-13,2.7101882343389332e-13,1.00751048364605e-14,2.9456559509320965e-15,9.8774453267439905e-17,,,,,,,,,
99,,2008,1019,1459,IS_MMA4__BHZ,,,,IS,3.5,,,,,,,34.6589,34.1689,,,,,,,,214.927883,,,,,,,,33.01462,35.39752,,,,,,,,,,,,0.10796909150860352,14.477555778261765,,,0.00016310472842110858,4.623387580438557e-07,1.9992861018941226e-08,1.5039918618700856e-11,1.5093451100890245e-11,1.516124080808059e-11,1.5280678973555229e-11,1.5473985541966662e-11,1.571393476387416e-11,1.6055619075305998e-11,1.6642563583079549e-11,1.7745151372187017e-11,1.9372860682280166e-11,2.7032981391447048e-11,1.6504101254240666e-11,2.1979832709322582e-11,1.2909913472387299e-10,1.3581998306402512e-10,6.9825041762539954e-10,8.2018849372455166e-10,9.6085016315645994e-10,3.457436181958348e-09,9.4320582544486891e-10,5.1058406073751572e-09,6.8509472576226225e-09,2.9096098426912437e-09,1.6756526831346926e-08,1.3270494031940819e-08,2.5046618459559797e-08,5.0160708277387085e-08,5.3502594815217572e-08,5.5889399082933462e-08,1.3501127773919405e-07,2.2228213380373375e-07,1.6274716718054737e-07,1.2789888432071127e-07,3.624486544218924e-07,1.0291193755093375e-06,1.1052700606716991e-06,8.8873818808474871e-07,5.7013421725987181e-07,2.948673144134121e-07,9.3204420516527368e-08,5.2995099589337322e-08,1.8293963925821179e-10,,,,,,,,,
100,,2008,1019,1459,IS_MMC5__BHZ,,,,IS,3.5,,,,,,,34.6589,34.1689,,,,,,,,216.232514,,,,,,,,33.00869,35.41269,,,,,,,,,,,,0.15737845512441853,15.610773157806022,,,0.00028674416262103016,1.004037964520662e-06,3.610656385585098e-08,2.2103252879512343e-11,2.2193556927810812e-11,2.2293049531117233e-11,2.2482153741662553e-11,2.278932653739801e-11,2.3159648625711521e-11,2.3709495037187702e-11,2.4462464266548709e-11,2.5729250477088352e-11,2.7277862551990805e-11,2.9530363549120395e-11,3.9508007429132869e-11,4.1948219128829096e-11,7.0982800932296965e-11,9.8377330495744615e-11,3.0195774939773669e-10,5.8303346917065316e-10,8.3901378206994397e-10,4.0003681152659782e-09,1.9424180134672483e-09,3.4243611701882601e-09,7.9997096002215907e-09,1.5516526290482829e-08,4.6060039854529905e-09,3.2350697910138181e-08,3.3123378731470482e-08,5.4269175158996515e-08,2.8237544665110445e-08,4.7765672257226311e-08,2.8736988882612603e-07,1.0933623627277583e-07,3.3249139651332761e-07,4.5087254231447699e-07,3.3841540108477135e-07,1.5815413200421341e-07,7.7566288666355194e-07,7.2253855784156235e-07,2.57894789913167e-07,3.3243011295431227e-07,2.5005312395573285e-08,3.3358725831266815e-08,5.6160921082599123e-13,,,,,,,,,
101,,2008,1019,1459,IS_MZDA__SHZ,,,,IS,3.5,,,,,,,34.6589,34.1689,,,,,,,,387.738314,,,,,,,,31.3106,35.3629,,,,,,,,,,,,0.20232171529551018,7.9224939758570674,,,1.2426481707758137e-07,9.0018402919325359e-10,5.5762555578085074e-09,3.2035565713524935e-11,3.2049940293760948e-11,3.2067575881336671e-11,3.2099454976151161e-11,3.2153185940613574e-11,3.2220719873857407e-11,3.2327124051895225e-11,3.2483722494871461e-11,3.2779955399889612e-11,3.3162719425539245e-11,3.3826865250079939e-11,3.510834923163187e-11,3.7429805829922875e-11,4.0356336574606481e-11,4.6022404775453763e-11,5.6251597589397701e-11,6.4275990993492081e-11,7.2328980821150042e-11,8.2902225078647742e-11,7.3978460973527451e-11,1.4214307759405586e-10,7.621628208028086e-11,5.4364017787352169e-11,9.6253130291950322e-11,2.1188378269566737e-10,3.5358265413858292e-10,1.7264758061332503e-10,2.6858915150398691e-10,4.6928319414599973e-10,4.0701095301406574e-10,3.6623876087067928e-10,4.301136290323403e-10,8.7170178326022104e-11,6.02850398629639e-10,6.8968806121344466e-10,2.8382495240511452e-10,2.6787618901353707e-10,2.8786065655483898e-11,3.076305476873312e-11,2.7599948765345164e-12,8.8670037584801286e-13,8.0549549399626847e-13,,,,,,,,,
102,,2008,1019,1459,IS_DSI__SHZ,,,,IS,3.5,,,,,,,34.6589,34.1689,,,,,,,,358.639287,,,,,,,,31.5933,35.3922,,,,,,,,,,,,0.18763477559595848,11.548025876957055,,,0.00019090418990110983,7.1291671854706106e-07,2.4271203075397689e-07,1.0643940691016169e-09,1.0720198866519332e-09,1.0639170873530078e-09,1.0637436068858638e-09,1.0807947670968749e-09,1.0595653929181793e-09,1.0926446340933583e-09,1.0514099645764725e-09,8.7988372626388918e-10,1.3193958971892357e-09,1.4231512583136412e-09,1.9808514240582845e-09,1.6603713417270988e-09,3.4188305932325795e-09,1.9700911010251941e-09,4.0056768207310751e-09,3.9042477739643522e-09,8.7326816001734571e-09,1.0061983327745718e-08,1.2903616579092267e-08,1.7462502592527147e-08,1.9413333231896773e-08,1.0764510504831125e-08,2.6586747793853804e-08,3.5985023667973e-08,7.5165843074162617e-08,2.5665778675630386e-08,2.4856557992817766e-07,2.3404063526171941e-07,9.0426798693550685e-08,1.8508957260925275e-07,3.3449036913596873e-07,1.1863325133203436e-07,2.6718853635750882e-07,3.3213771382551855e-07,1.7147683407230766e-07,1.9444831571700672e-07,1.4106228192125933e-07,5.1978425231406546e-08,1.5837187562915427e-08,1.5364084262016324e-09,5.4763300094344323e-11,,,,,,,,,
103,,2008,1019,1459,IS_EIL__BHZ,,,,IS,3.5,,,,,,,34.6589,34.1689,,,,,,,,557.989856,,,,,,,,29.6712,34.952,,,,,,,,,,,,0.35160608575313845,10.444048025110865,,,0.00038028388025634782,2.5548881954474769e-06,2.6007045722198181e-07,1.1777066312912216e-09,1.1792159479441838e-09,1.1810094859562141e-09,1.1841037916459583e-09,1.1896569432527548e-09,1.1960981288633779e-09,1.206529728517195e-09,1.2194957580331803e-09,1.2503717280608874e-09,1.2998108259674363e-09,1.3561170126376624e-09,1.5095958880353591e-09,1.5870902960920795e-09,1.3068749399864249e-09,2.6711474754302078e-09,2.9094281635038871e-09,1.5518304786012506e-08,3.040451587676851e-08,4.8145015922587975e-08,1.1639684201716665e-07,2.1398099508368987e-07,1.5277825862820741e-07,3.1891478328040923e-07,2.5663439779054512e-07,5.01003887764685e-07,7.7245417970838374e-07,5.7292387742763745e-07,9.8585399442631839e-07,1.9684903220787894e-06,9.3692407522836153e-07,1.0833380647068847e-06,1.9375062024130966e-06,2.4071584796412601e-06,7.4622903227828845e-07,9.0828624724031112e-07,6.0913209733376532e-08,3.1949750892649357e-07,2.0030505664695311e-07,4.3705905071946059e-08,3.5528418786736741e-08,5.2470538927693756e-09,5.2004503547162194e-11,,,,,,,,,
104,,2008,1019,1459,IS_EIL__BHE,,,,IS,3.5,,,,,,,34.6589,34.1689,,,,,,,,557.989856,,,,,,,,29.6712,34.952,,,,,,,,,,,,0.20232171529551018,11.841793144174749,,,0.00034503035621371333,2.2389198953986037e-06,3.0956616375945264e-07,5.1656282023551151e-09,5.1666048846848625e-09,5.1676402301639035e-09,5.1694838521843708e-09,5.1719430149800738e-09,5.178857835511043e-09,5.1806102714595996e-09,5.1602068146484655e-09,5.2362096796915541e-09,5.1338904242425723e-09,5.0747136207930124e-09,4.9630784792453458e-09,5.2831045842734283e-09,6.7511228996921811e-09,1.4142807332484261e-08,5.5315249653612874e-08,5.7776865285345179e-08,9.4635692007123357e-08,1.5524439115407267e-07,4.2139377517355914e-07,2.8924732580403434e-07,5.9978366031073563e-08,1.6499246997861296e-07,4.1442842969516122e-07,2.8105009416378712e-07,5.5886556389263855e-07,6.7378319639464063e-07,7.8504545524903302e-07,1.4420989863122943e-06,1.7932644679161763e-06,4.7547870915078181e-07,6.1956621437073966e-07,3.7286309419940497e-07,5.8724954406764205e-07,3.7536242655475936e-07,2.3266051103787875e-07,2.6533882263276488e-07,2.9394070635000335e-07,1.6589342512321663e-07,3.2701105910194626e-08,5.0507819010124169e-09,6.6773871572587743e-11,,,,,,,,,
105,,2008,1019,1459,IS_MZDA__SHN,,,,IS,3.5,,,,,,,34.6589,34.1689,,,,,,,,387.738314,,,,,,,,31.3106,35.3629,,,,,,,,,,,,0.25364715576097929,9.4456091727744216,,,4.2646653102950988e-07,2.3123381508728411e-09,4.7128294402259412e-09,4.0090227073021109e-11,4.0107532205593022e-11,4.0128292331965691e-11,4.0166400176010274e-11,4.0229616367632563e-11,4.0307059127107658e-11,4.0423335161230265e-11,4.0581953623007215e-11,4.095987660098335e-11,4.1291470055312549e-11,4.1739922221154869e-11,4.367047785620503e-11,4.5304668989215693e-11,5.0685819180047187e-11,5.5687864025705663e-11,6.8851489279607274e-11,7.5387406492198016e-11,7.0168681232480012e-11,1.0255636039787244e-10,3.7397000652723551e-11,1.9768512287065674e-10,8.7032050736461197e-11,1.5636215711997747e-10,1.2144140748186963e-10,4.9901706436535359e-10,5.292869319137352e-10,6.6614813933821664e-10,7.9688707650908414e-10,6.7161755068334016e-10,6.9959911417683269e-10,1.1794044041941958e-09,3.0853677396497941e-10,3.131482709105691e-10,1.4540140803349172e-09,2.6815930067943488e-09,2.3879856446571643e-09,6.9276647363029395e-10,9.1127067327629106e-10,3.7592890168704698e-10,3.1459534738570702e-11,2.1940372579674031e-12,2.1502155643726084e-12,,,,,,,,,
106,,2008,1019,1459,IS_MMA0__BHZ,,,,IS,3.5,,,,,,,34.6589,34.1689,,,,,,,,215.149228,,,,,,,,33.01518,35.40311,,,,,,,,,,,,0.25364715576097929,13.426600924495034,,,0.00015178236335850181,4.6854476372604727e-07,1.9557308186978963e-08,1.0838414884979377e-10,1.0839862479935567e-10,1.0841736629065762e-10,1.0844955331851323e-10,1.0850192556827251e-10,1.0856511965652038e-10,1.0865788403030071e-10,1.0879391158421491e-10,1.0900405796065571e-10,1.0923447408878099e-10,1.0954476024804152e-10,1.0959641322553253e-10,1.0831005327689869e-10,1.0431555879627964e-10,1.0835262715471792e-10,1.4257688277619246e-10,3.6335264232160777e-10,5.1889502974478741e-10,2.1819176932188088e-09,7.3505124521640092e-10,3.543125608086041e-09,6.4133229521414801e-09,7.17353713521647e-09,7.0819760002918499e-09,1.4552418237112895e-08,2.4075743548687814e-08,4.6900442901587539e-08,8.7047300415790171e-08,7.7016339607658384e-08,2.3503262243931678e-07,5.8339156775409311e-08,9.5770776605750423e-08,2.361823602203097e-07,3.958855480376175e-07,5.3076947104156885e-07,9.4918898223957142e-07,4.6107449832090865e-07,9.8321838286180742e-08,3.2545631501671506e-07,1.4373751975490841e-07,1.2636393998570147e-08,2.1187970624817995e-11,,,,,,,,,
107,,2008,1019,1459,IS_DSI__SHE,,,,IS,3.5,,,,,,,34.6589,34.1689,,,,,,,,358.639287,,,,,,,,31.5933,35.3922,,,,,,,,,,,,0.17401399034959145,14.845846604961229,,,0.00032301697945855476,1.4349194048845632e-06,1.0944693378368647e-07,1.6473455317903849e-09,1.641772656593453e-09,1.6298957108878022e-09,1.5953084749846106e-09,1.6268238267097053e-09,1.5337307524661001e-09,1.5763634175247119e-09,1.8815134224566193e-09,1.9801023112068482e-09,2.4912395293079016e-09,1.5943806226007641e-09,1.774351088464594e-09,6.0062766930163075e-09,9.468358091119494e-09,8.7057051424547842e-09,1.227409695777853e-08,1.4811369227550092e-08,1.2180226727551724e-08,4.4856391847511432e-08,8.8954188721145836e-08,2.352272622880922e-07,6.8735741721229246e-08,2.3925166427305163e-07,8.8610656856903946e-08,2.6788925797667775e-07,2.6921995159522695e-07,4.0390045778116526e-07,1.2029736267280901e-07,6.3003573896542522e-07,1.0981689465726006e-07,4.6107041070581476e-07,6.216014302966157e-07,4.223240920736041e-07,3.2179670696194784e-07,7.0470425921734251e-07,1.8733707862356397e-07,5.4652290335257762e-07,6.1977968467062762e-07,6.6070333670786248e-07,2.1032245756950478e-07,1.1021113187275459e-08,1.109673597064969e-10,,,,,,,,,
108,,2008,1019,1459,IS_MZDA__SHE,,,,IS,3.5,,,,,,,34.6589,34.1689,,,,,,,,387.738314,,,,,,,,31.3106,35.3629,,,,,,,,,,,,0.14233325773169231,8.9827751291936533,,,4.811007169844599e-07,2.1598467081524943e-09,2.0260185446257897e-09,7.019684320192721e-12,7.0238817755058779e-12,7.029069049812803e-12,7.0388073429949609e-12,7.0541166045672082e-12,7.0748416257437673e-12,7.1339465194845737e-12,7.1185218106341508e-12,7.5243475368783347e-12,7.9075063418348049e-12,1.062283065500558e-11,1.0743948019091691e-11,1.2449192538618179e-11,3.1474008144455568e-11,2.7525371160842634e-11,1.0653947473600452e-10,5.110207211439757e-11,1.3991611403872597e-10,3.2863325012186616e-11,9.4739754445266633e-11,3.4425747345520699e-10,1.0920638059392202e-10,1.7367592935097484e-10,2.1988937811430702e-10,3.9865756030972882e-10,7.6616177207640976e-10,3.9429018098595929e-10,1.1584198875847372e-09,1.0904285672041783e-09,1.6719369746305745e-09,8.361214803920717e-10,1.2974690980559103e-09,2.3424884761348332e-09,2.1266132284276522e-09,2.3871260498558867e-09,1.6584898119104687e-09,9.6230868045118905e-10,3.0913428393641583e-10,4.1827505127622336e-10,1.3174063372560862e-10,2.2862319864277687e-12,2.009204914580384e-13,,,,,,,,,
109,,2008,1019,1459,IS_EIL__BHN,,,,IS,3.5,,,,,,,34.6589,34.1689,,,,,,,,557.989856,,,,,,,,29.6712,34.952,,,,,,,,,,,,0.14595403695435244,13.768156780330239,,,0.00042646854813348489,2.7945221361282564e-06,3.4219240473966682e-07,2.2864237486549324e-09,2.2937222972121806e-09,2.2950263459190095e-09,2.3019743572069862e-09,2.3059267780322406e-09,2.3876199541162506e-09,2.3549652228713201e-09,2.4303300628891161e-09,2.3742183021067616e-09,3.3791644585870764e-09,3.4350892390662739e-09,6.7164673138820764e-09,5.9495004693527208e-09,2.0984055872850428e-08,4.012873688253631e-08,7.7774813903349908e-08,1.5956232936930617e-07,1.0468123889798296e-07,3.1040702020034365e-07,2.0348010527738056e-07,3.540996404657913e-07,6.7169366536030427e-07,2.8544690018028036e-07,3.6243712598054149e-07,7.2686468646054112e-07,5.646942258842397e-07,4.5435318956302086e-07,1.3371766736346365e-06,7.7821317366303807e-07,7.3837500160679508e-07,5.8139153000444251e-07,1.0027651564724415e-06,1.00667264082612e-06,5.1224301229878135e-07,5.6438589964294654e-07,3.3007872115852695e-07,3.9706250668998131e-07,2.1358035272149696e-07,2.4486231217800229e-07,1.0061173963354432e-07,1.6479998708547767e-08,1.7303857486026995e-10,,,,,,,,,
110,,2008,1019,1459,IS_DSI__SHN,,,,IS,3.5,,,,,,,34.6589,34.1689,,,,,,,,358.639287,,,,,,,,31.5933,35.3922,,,,,,,,,,,,0.22939878247817763,13.768156780330239,,,0.00083701035849681157,4.0238365452391812e-06,2.4531110553998091e-07,2.107395813704366e-09,2.1090681080915517e-09,2.1075102342765398e-09,2.11671518923558e-09,2.1266358018816857e-09,2.1237879075152633e-09,2.1624415722864997e-09,2.1881192116068915e-09,2.1464947856257822e-09,2.2497648005604634e-09,2.3782181798703753e-09,1.5805890027569019e-09,3.3565036510257384e-09,1.3843800488558381e-09,1.6134595756493953e-09,4.3304609823118273e-09,1.6068219599920388e-08,4.0621279727647746e-08,5.7271224592125028e-08,3.3294552934411845e-08,1.4437187472053629e-07,3.004745581495307e-07,2.107099499954226e-07,2.5069201014599414e-07,4.5167070955820715e-07,9.9727023575924252e-07,5.5859828989832468e-07,7.9316362103534906e-07,7.1299292961199863e-07,1.9919311605351977e-06,9.3619637631886049e-07,1.2262039736784591e-06,1.5015055959559942e-06,3.0657183223128079e-06,1.0156662785072423e-07,1.5946908449531611e-06,7.8806718633873387e-07,1.0874525066940142e-06,4.9770247371442993e-07,1.1597477154217197e-07,2.5449390921023453e-08,2.9093000903184169e-10,,,,,,,,,
111,,2008,1019,1459,IS_MMB4__BHZ,,,,IS,3.5,,,,,,,34.6589,34.1689,,,,,,,,214.560425,,,,,,,,33.02084,35.40199,,,,,,,,,,,,0.45201578781337098,16.007891610655562,,,0.00034502943571116073,1.0168861919272732e-06,3.3201881425187538e-08,2.2618074770507384e-11,2.2641677470749127e-11,2.2671590565084527e-11,2.2723657697938008e-11,2.280838528044973e-11,2.2910690110518816e-11,2.3062421609427863e-11,2.3282019016724133e-11,2.3632545490227083e-11,2.4047901080615666e-11,2.4742309640474877e-11,2.5554953217932443e-11,2.6819263423725817e-11,2.8073093549710852e-11,3.2285514716222199e-11,4.8038277623571679e-11,5.4792789116301814e-11,5.3873804651090955e-11,4.5281319378785778e-10,1.9482807661459632e-10,2.2386450495516569e-09,3.9695124459969035e-09,1.0319454395285822e-08,1.077079598355222e-08,8.1880827206329386e-09,1.1348715199930823e-08,6.6692337881745725e-08,1.8889656386164397e-08,1.3377699852498863e-07,1.0268504371803235e-07,1.7762173760580307e-07,1.3610412131892879e-07,9.2155444303204909e-08,4.4227538299328392e-07,7.2120838111524189e-07,1.550308644744651e-06,3.3340431484228733e-07,5.182549379578834e-07,3.0434869524598718e-07,2.3150542134424745e-07,2.6919547218789567e-08,4.467297232596959e-12,,,,,,,,,
