Record Sequence Number,EQID,YEAR,MODY,HRMN,Station Name,Station Sequence Number,Station ID  No.,Station Type,Station Network,Earthquake Magnitude,Magnitude Type,Mo (dyne.cm),Strike (deg),Dip (deg),Rake Angle (deg),Mechanism,Hypocenter Latitude (deg),Hypocenter Longitude (deg),Hypocenter Depth (km),Finite Rupture Model: 1=Yes;  0=No,Depth to Top Of Fault Rupture Model,Fault Rupture Width (km),Fault Rupture Area (km^2),Fault Name,Slip Rate (mm/Yr),EpiD      (km),HypD           (km),Joyner-Boore Dist. (km),FW/HW Indicator,Source to Site Azimuth (deg),Vs30 (m/s) selected for analysis,Preferred NEHRP Based on Vs30,Surface Geological Unit,Station Latitude,Station Longitude,Depth to Top Judea (km),Depth to Vs=1100,File Name (Horizontal 1),File Name (Horizontal 2),File Name (Vertical),H1 azimth (degrees),H2 azimith (degrees),Type of Recording,Instrument Model,Type of Filter,npass,HP (Hz),LP (Hz),Factor,Lowest Usable Freq - V (Hz),PGA (g),PGV (cm/sec),PGD (cm),f 0.01 Hz,0.012,0.014,0.017,0.021,0.025,0.030,0.036,0.044,0.052,0.063,0.076,0.091,0.110,0.130,0.160,0.190,0.230,0.280,0.330,0.400,0.480,0.580,0.690,0.830,1.00,1.20,1.450,1.740,2.090,2.510,3.020,3.630,4.370,5.250,6.310,7.590,9.120,10.970,13.180,15.850,19.060,22.910,27.540,33.110,39.810,47.860,57.540,69.180,83.180,100.00
157,,2008,0203,1746,IS_DSI__SHN,,,,IS,3.2,,,,,,,28.9188,34.7724,,,,,,,,302.4251,,,,,,,,31.5933,35.3922,,,,,,,,,,,,0.3428835588780923,11.548025876957055,,,8.0591467432068652e-05,3.4599720822236826e-07,5.0327488873180055e-07,9.3476868008880485e-10,9.3569941081352515e-10,9.3649357118258592e-10,9.3810892333092597e-10,9.3733914819196488e-10,9.4136884913864181e-10,9.4886214262702635e-10,9.3078100463587664e-10,9.6726323314574465e-10,9.920224223330386e-10,1.0490080591427482e-09,1.1311025869601134e-09,9.7382507876325118e-10,1.158234373592353e-09,1.363163792921725e-09,3.3188139588718211e-09,4.0543156569060614e-09,4.9017365058610157e-09,1.0718107327460485e-08,8.4143652369159233e-09,2.5678615370756725e-08,1.227059398261794e-07,8.3754020665408056e-08,7.4208088404006883e-08,2.8768305453968017e-08,1.0325641597558054e-07,1.1376689385041239e-07,4.1370005255858462e-08,6.247085827979574e-08,6.1754034412358604e-08,5.28015266888474e-08,3.2605133101350467e-07,1.6950254863742835e-07,7.3655328766788439e-08,7.3290427947047623e-08,3.198760103294882e-07,1.5113381427753791e-07,7.1747496825373613e-08,5.0626667493442051e-08,1.4054839201573085e-08,7.4025506108073267e-10,2.0745615840128128e-10,,,,,,,,,
158,,2008,0203,1746,IS_SLTI__SHN,,,,IS,3.2,,,,,,,28.9188,34.7724,,,,,,,,369.184555,,,,,,,,32.2408,35.041,,,,,,,,,,,,0.64252453002549159,8.9827751291936533,,,4.4372491985116566e-08,2.4834072008993862e-10,6.9500081155122687e-10,1.0902128373045417e-12,1.090259449475046e-12,1.0903153436429622e-12,1.0904149271431289e-12,1.0905779602124145e-12,1.0907764112655681e-12,1.091073518157634e-12,1.091504345493863e-12,1.0922066673502581e-12,1.0930610319058565e-12,1.0944929876090471e-12,1.0965933074473788e-12,1.0996135223199829e-12,1.1044673280433557e-12,1.11100074219585e-12,1.1240781714703211e-12,1.1428082733976747e-12,1.1754987571595587e-12,1.2468955722492496e-12,1.3584515710134299e-12,1.6637801627019543e-12,1.0858274475689773e-12,1.1703853233418672e-11,1.232715930008921e-11,6.3112862803251066e-12,1.1343353587683501e-11,5.8245082796830952e-11,3.063389127124535e-11,4.1360638061657829e-11,1.1992523012438332e-10,2.4656434699125336e-11,7.9154364260960095e-11,6.3607864632265875e-11,3.2101294501083948e-11,6.3169223936587266e-11,7.9599173974764558e-11,6.2729910721266146e-12,3.6194669405556585e-12,2.3525495796995448e-13,1.0062284049870057e-13,5.7814304827645135e-14,5.4400580072767001e-14,,,,,,,,,
159,,2008,0203,1746,IS_HRFI__BHN,,,,IS,3.2,,,,,,,28.9188,34.7724,,,,,,,,126.764188,,,,,,,,30.04,35.03,,,,,,,,,,,,0.33437741754973815,13.093518272772499,,,7.1424703122886871e-05,2.966519102878959e-07,2.6567269114608506e-08,6.2617943031984057e-11,6.3048802439530507e-11,6.3575515490615766e-11,6.4513554629608008e-11,6.6032006810319077e-11,6.8040910427305323e-11,7.0774282000459287e-11,7.4336000155202389e-11,8.1520794201204808e-11,8.9865416909282436e-11,1.0150933310513599e-10,1.2325194358502566e-10,1.4616326453130872e-10,1.8001552947033447e-10,4.0509319704109293e-10,2.162696047270708e-09,1.2901369626976158e-09,2.8664935964686981e-09,3.012632128936646e-09,1.3309571193606735e-08,1.296109876910979e-08,3.8866833085954431e-08,7.2939635721127127e-08,6.5611342610493293e-08,3.0876447800951283e-08,4.0702904352468488e-08,5.1528240533032944e-08,6.0279478090966078e-08,1.3960256514577757e-07,2.7296470980942996e-08,2.0759922987184391e-07,1.0101104126238955e-07,8.8726368283013171e-08,1.3975298407871018e-07,7.3036273823763328e-08,3.483516397081765e-08,1.6721716185587492e-07,1.3868584659780422e-07,8.796079065447869e-08,2.9903156035628241e-08,1.2045092184504649e-09,1.7419655686423879e-12,,,,,,,,,
160,,2008,0203,1746,IS_SLTI__SHE,,,,IS,3.2,,,,,,,28.9188,34.7724,,,,,,,,369.184555,,,,,,,,32.2408,35.041,,,,,,,,,,,,0.71044195521451559,8.1240322673048038,,,4.1703384121925737e-08,2.1213420781487178e-10,7.6365474205797735e-10,2.6220822020566842e-12,2.6222315582419104e-12,2.6224080499203043e-12,2.6227212324257666e-12,2.6232401738666706e-12,2.6238699895567448e-12,2.6248137024866965e-12,2.626174519826298e-12,2.6284147628455232e-12,2.6310226714505221e-12,2.6357890678368597e-12,2.6426211568006009e-12,2.6530939517851949e-12,2.6691349708616198e-12,2.6869724076017381e-12,2.7202128700520857e-12,2.85106266760581e-12,2.9250326864595082e-12,3.3535373711490025e-12,3.3210810755684896e-12,5.2372820626663542e-12,1.7415230939968656e-11,7.0588175451238215e-11,2.3329567338750013e-11,3.4088727407921053e-11,5.1454235181522074e-11,3.8777955314107972e-11,1.0590014418891431e-10,8.682569812865618e-11,5.8278534665190846e-11,2.7731384117110307e-10,3.5614446664419958e-10,1.6401343379939274e-10,1.1536457199897969e-10,6.006756120158323e-11,7.4006738762036212e-11,3.1200129395741335e-11,1.0103072209025565e-11,4.2088604256132451e-12,2.66424075614874e-12,8.9684049996632705e-14,6.1109291637911585e-15,,,,,,,,,
161,,2008,0203,1746,IS_HRFI__BHE,,,,IS,3.2,,,,,,,28.9188,34.7724,,,,,,,,126.764188,,,,,,,,30.04,35.03,,,,,,,,,,,,0.28759319594357236,10.184955554091268,,,5.6460501365326918e-05,2.4314044083589653e-07,2.3260753498638743e-08,7.6557251863129509e-10,7.6598923209754024e-10,7.6643559800949412e-10,7.6722608474105678e-10,7.6872242194256133e-10,7.704563822277179e-10,7.7283603625079718e-10,7.7696837667436892e-10,7.8261420536015337e-10,7.9008468697092677e-10,8.0396874637087057e-10,8.2274910214465051e-10,8.4458778158562398e-10,9.2556085437326669e-10,6.5019997778455266e-10,3.1057834767467667e-09,5.5095729988630036e-09,2.5038321986095143e-09,8.6633162914388373e-09,1.4204801148716943e-08,6.2052307775114643e-08,4.8706822821190485e-08,3.0257992082750331e-08,4.8187029117018964e-08,8.9247904186228189e-08,1.968354289236967e-08,1.050626489785781e-07,4.89838656640695e-08,1.6517990599551473e-07,1.4619895043926435e-07,8.0731931681507382e-08,6.0078237396440539e-08,1.8686121609232504e-07,4.1420962874430465e-08,1.4912290007374344e-07,8.3316046551858295e-08,1.65656134165299e-07,2.0037417173171667e-08,1.7675233324781247e-08,8.8305876389274876e-09,9.4670846884303151e-10,5.0787444573820433e-12,,,,,,,,,
162,,2008,0203,1746,IS_HRFI__BHZ,,,,IS,3.2,,,,,,,28.9188,34.7724,,,,,,,,126.764188,,,,,,,,30.04,35.03,,,,,,,,,,,,0.31799295261837968,11.548025876957055,,,8.6004488209984645e-05,3.2362947163099913e-07,1.6787422391789232e-08,2.5554145488063516e-11,2.5639799814010984e-11,2.5742181340134195e-11,2.593000095560433e-11,2.6238095586724847e-11,2.6630540573563141e-11,2.7205859460058863e-11,2.8038611634891371e-11,2.9704916767552683e-11,3.1518523506602616e-11,3.5388028213926612e-11,4.0855522311826064e-11,4.997763510038809e-11,1.098649928031359e-10,4.0635925884727826e-10,1.3804367545060284e-09,4.0653185552377458e-09,8.1705292852425665e-09,3.3750821379001109e-09,4.1231936999373341e-09,1.3155227693449457e-08,1.2315373406491104e-08,4.3959655819837794e-08,4.2464370872679524e-08,3.9540771080493322e-08,1.7131562823132708e-08,6.3723503837763461e-08,9.815509533505837e-08,7.3592400378140095e-08,4.0114925693005073e-08,8.1315846117706619e-08,2.7909109816425711e-07,2.3984036000148378e-07,1.2672611735743048e-07,1.3145919184306594e-07,9.2333986495372635e-08,4.411678355139255e-07,1.4080082412192956e-07,3.6973587365347626e-08,1.7847976329853755e-08,1.7708456592279446e-09,2.0256650236997695e-13,,,,,,,,,
163,,2008,0203,1746,IS_MBRI__SHE,,,,IS,3.2,,,,,,,28.9188,34.7724,,,,,,,,97.916699,,,,,,,,29.79329,34.9152,,,,,,,,,,,,0.19240796850781525,10.444048025110865,,,1.8875072406994138e-09,7.7547750879976184e-12,4.6893376539552186e-13,3.2441062837916602e-14,3.244467959693943e-14,3.2449301704876018e-14,3.2458364545536253e-14,3.2471973895605553e-14,3.2488964363989471e-14,3.251452132168356e-14,3.2550962005186478e-14,3.2608078321365018e-14,3.2679428229683405e-14,3.2802980825761959e-14,3.2927300093154046e-14,3.321224922686191e-14,3.3957783611374784e-14,3.4311603886118446e-14,2.4493285046404213e-14,5.9624485249932235e-14,1.1751321948386704e-13,6.0045815196924392e-14,2.3939597563003856e-13,4.2058850335948992e-13,1.2031860276033587e-13,4.5175141318417346e-13,1.1451234399895841e-12,4.1977829571413509e-13,1.2795338573849442e-12,2.0992858362540532e-12,5.004074431950601e-12,1.3541867933965874e-12,6.5573570353659638e-12,1.0301346589721738e-11,6.4902709356969192e-12,2.0647293222330105e-11,6.6557792034520849e-12,2.4002573559461077e-11,5.8401017848401849e-12,3.0620810295448053e-12,4.0884238095881948e-12,4.9988394817988241e-13,2.2676300480188196e-13,5.3257204073508024e-15,2.369905660734144e-16,,,,,,,,,
164,,2008,0203,1746,IS_KRMI__SHZ,,,,IS,3.2,,,,,,,28.9188,34.7724,,,,,,,,132.979509,,,,,,,,30.1178,34.7257,,,,,,,,,,,,0.11642027296665514,8.5426199142600368,,,8.8272396600801379e-05,2.8436143230389186e-07,7.9438420482533826e-08,7.7427963427991649e-10,7.7482825397838271e-10,7.7547246080610923e-10,7.7671977255400595e-10,7.7888323027610009e-10,7.8165464525922548e-10,7.8623982643859738e-10,7.9358184871494921e-10,8.0819717472377502e-10,8.2512331687949934e-10,8.6565642989339349e-10,9.2642951542213786e-10,1.0548042173462922e-09,1.0403066423225232e-09,9.2247280062950294e-10,3.711743165682346e-09,6.1688344569214692e-09,3.8997849681239072e-09,2.9984109631322326e-09,3.1672853266988138e-09,9.2879297122349667e-09,3.6868402906484169e-09,8.7583091907127576e-09,9.998848002455385e-09,8.2866070920720352e-09,4.5385005727139873e-09,3.0521448565868754e-08,9.5320517758165118e-09,1.6396713540398526e-08,1.3403763197873374e-08,1.2650532016861782e-07,1.0124137667352575e-07,1.0077582197862275e-07,2.782732661065577e-07,3.620851809885042e-07,3.2561613557125091e-07,2.1945898019044182e-07,1.7760885148270939e-07,1.0087554878535412e-07,8.3804272500860972e-09,3.4056744545205734e-10,1.9189578580100393e-11,,,,,,,,,
165,,2008,0203,1746,IS_PRNI__SHE,,,,IS,3.2,,,,,,,28.9188,34.7724,,,,,,,,160.478327,,,,,,,,30.3522,35.0052,,,,,,,,,,,,0.27350115387935653,13.093518272772499,,,4.4921410859335403e-05,1.8975745184846299e-07,3.6512762065319417e-08,1.1150223268880127e-09,1.115179984775196e-09,1.1156939768563636e-09,1.1170561306564059e-09,1.1177028171963054e-09,1.1209070663447217e-09,1.122151027581182e-09,1.1185800380092466e-09,1.1226175552411901e-09,1.1382396050193428e-09,1.1661674411945974e-09,1.1358247408309996e-09,9.7054214195774177e-10,9.2463884613905639e-10,1.5073198549379515e-09,2.5330237536125396e-09,4.0386297722986594e-09,6.2986211322320743e-09,1.2104549833164876e-08,1.5517616412891587e-08,3.3216448137985183e-08,3.4623870029148215e-08,3.2267063557473521e-08,2.6225415903766097e-08,4.0843967426423469e-08,7.4348876104806166e-08,2.3538185054833272e-08,1.0069880048278673e-08,4.1080020521588801e-08,5.6176994070408713e-08,3.7101308794096804e-08,2.8452515611015681e-08,6.2218797080758015e-08,6.1835430428481366e-08,6.7460312814294743e-08,2.3006728961891622e-08,6.0951462837127025e-08,7.7360940708030133e-09,3.6682203860597888e-08,4.8638690596483341e-09,1.2580125571861122e-09,6.0506541084343445e-12,,,,,,,,,
166,,2008,0203,1746,IS_MBRI__SHN,,,,IS,3.2,,,,,,,28.9188,34.7724,,,,,,,,97.916699,,,,,,,,29.79329,34.9152,,,,,,,,,,,,0.16138196526315954,11.841793144174749,,,2.5698080516097229e-09,9.0237478437439863e-12,4.8391070159022999e-13,9.0647873691488499e-15,9.0667647076675763e-15,9.0691380282957954e-15,9.0733271641166501e-15,9.0802164139818225e-15,9.088501438118722e-15,9.1012044199834525e-15,9.1202256796629942e-15,9.1507998852326756e-15,9.186684008476729e-15,9.2646418677268865e-15,9.3344386504778372e-15,9.4813068248923079e-15,8.8902599731783358e-15,1.3965261987900641e-14,2.3609305465286395e-14,3.0710359708276045e-14,7.3450137537417486e-14,1.0829388500717796e-13,3.2059693427321984e-13,7.9090032354249189e-13,2.8191449263050114e-13,4.301274040330904e-13,8.1859276814180216e-13,6.7360954064765793e-13,6.9311220672418212e-13,6.0975692053449117e-13,1.9575679205936785e-12,1.7568528068211847e-12,1.8683618222531886e-12,3.6315182097754791e-12,6.6718740329961351e-12,2.994833655064489e-12,2.6610009226289948e-12,1.1043838898962796e-11,7.512144262510309e-12,1.7923411465944965e-12,8.3043221925273993e-12,1.2862172546010784e-12,1.7053141114174723e-12,2.1274999957112608e-14,8.1751249523404605e-15,,,,,,,,,
167,,2008,0203,1746,IS_PRNI__SHN,,,,IS,3.2,,,,,,,28.9188,34.7724,,,,,,,,160.478327,,,,,,,,30.3522,35.0052,,,,,,,,,,,,0.22939878247817763,13.426600924495034,,,3.0788385217972068e-05,1.40421313826844e-07,9.9388328690661389e-08,9.9012015246468693e-10,9.8994534048967417e-10,9.9129005397718449e-10,9.9231200059154237e-10,9.9002983863566221e-10,9.7885483402273772e-10,1.0160808705298557e-09,9.7501659670061948e-10,9.8551568524878743e-10,9.9145087455323023e-10,9.9656204267761188e-10,9.0388202168443822e-10,1.1195877604495181e-09,1.4199587966017706e-09,8.1797988004169009e-10,4.584508725492215e-09,4.1599395484966955e-09,4.6855325478934709e-09,9.5400501627371372e-09,7.7255258288121435e-09,2.2196882852468883e-08,4.1388566248644525e-08,6.7549583400083769e-09,3.1762242836450582e-08,3.2320874888624563e-08,2.8733581235989302e-08,5.4005152819709618e-08,1.968002777992035e-08,3.8694419585240455e-08,1.4899280893520936e-08,2.986387547645705e-08,7.9596645211130404e-08,1.8439108639076713e-09,3.3239725925111161e-08,5.7952138061613242e-08,8.3755420109075238e-08,9.2541189745110113e-09,7.3091669629738828e-08,2.0921908105819556e-08,1.2824810702407759e-08,2.2706398362026781e-09,9.4651964259775119e-12,,,,,,,,,
168,,2008,0203,1746,IS_KRMI__SHN,,,,IS,3.2,,,,,,,28.9188,34.7724,,,,,,,,132.979509,,,,,,,,30.1178,34.7257,,,,,,,,,,,,0.3024113250707598,14.477555778261765,,,0.00027236330089997396,7.6185500381484654e-07,1.3804914809552412e-07,7.4302453501817266e-10,7.4398412338596995e-10,7.4400988224199145e-10,7.4345119872184612e-10,7.4437879516586427e-10,7.429266499219002e-10,7.4488321847776846e-10,7.4208667917632122e-10,7.6683696159783172e-10,7.6126894660263085e-10,7.817934644178559e-10,8.130473786342146e-10,7.5208909824134035e-10,6.7763100333553352e-10,6.8989654028007742e-10,8.4781440062595543e-10,3.5998225764938808e-09,3.6118161493430913e-09,2.58005411697599e-09,4.5997267955656771e-09,9.9763186040980497e-09,1.7904463323871871e-09,2.6038553514265184e-08,3.0707020796737757e-08,1.3779011406596085e-08,2.669476423470599e-08,4.851411072638155e-08,6.5532405945885617e-08,7.2324392063460118e-08,4.9564294796736787e-08,1.8604274630313996e-07,3.0317951428590795e-07,1.4276196741616153e-07,3.6796900323897612e-07,1.8603522183649852e-07,1.0290084010171305e-06,2.3772247708083482e-07,3.1325007969697921e-07,2.9232002261237993e-07,3.649675694273595e-07,3.3828085246303504e-08,2.5118349482308257e-10,,,,,,,,,
169,,2008,0203,1746,IS_PRNI__SHZ,,,,IS,3.2,,,,,,,28.9188,34.7724,,,,,,,,160.478327,,,,,,,,30.3522,35.0052,,,,,,,,,,,,0.26009962067397546,11.261546290434179,,,0.00019156403370478833,8.4517949027271105e-07,5.5886992792565619e-08,3.2858124953567858e-11,3.7172686166987609e-11,4.157301851784929e-11,4.9832138039847517e-11,5.8972885093654651e-11,7.1146289783968702e-11,8.0001201184885682e-11,1.040151770934674e-10,1.4079850668579086e-10,1.4929787654217699e-10,1.731646636717174e-10,2.9479285877110455e-10,3.3973964023374367e-10,4.5578953763139091e-10,1.2272422661023797e-09,1.3046832467062077e-08,1.08331047148157e-08,2.0499629801291278e-08,2.0955191748472236e-08,1.2376040189281699e-08,6.5336665680221032e-08,5.0911401166981968e-08,4.0515826764448381e-08,5.6297214442112791e-08,5.9021265333846698e-08,2.9420193330993457e-08,1.6028570293900965e-07,6.4121623741426725e-08,7.2452051288484869e-08,3.7074207760986125e-07,2.0536766358946024e-07,1.773610775243723e-07,5.4630355215075252e-07,4.8760032122901038e-08,5.329343514096083e-07,3.6479542654298869e-07,1.7462193718906998e-07,1.2501369821194924e-07,2.7525200630753099e-07,6.0974116127656836e-08,4.2079618545744914e-09,1.6188022845772401e-11,,,,,,,,,
170,,2008,0203,1746,IS_KRMI__SHE,,,,IS,3.2,,,,,,,28.9188,34.7724,,,,,,,,132.979509,,,,,,,,30.1178,34.7257,,,,,,,,,,,,0.29490920546268229,9.4456091727744216,,,0.00027381327442781866,1.0332528633766111e-06,1.0005421907754783e-07,6.6071884998429599e-10,6.6118304325265168e-10,6.6036801207416872e-10,6.6489039956277475e-10,6.616554498932857e-10,6.6326694009841034e-10,6.6702712631430731e-10,6.6834925268076564e-10,6.7840629500929945e-10,7.1660043579206727e-10,6.1262604174785964e-10,8.0304088632953594e-10,9.0386435406274034e-10,5.9534183570685979e-10,9.0022248207245512e-10,1.2807907791848899e-09,1.2849055622019589e-09,1.6229034623310408e-09,1.4173642996846184e-09,2.9980361638245022e-09,1.1228571781863499e-08,1.3414687787699924e-09,7.5202843343500548e-09,7.2416909693725025e-09,3.0610297328080234e-09,2.9065319551957118e-09,1.8820645304700991e-08,8.9968758685627638e-09,6.2845388854036662e-08,6.6147788378895774e-08,3.2176213915911982e-07,1.2872711370365989e-07,3.4613276480936937e-07,4.7243808465472719e-07,1.1917688280487416e-06,4.3325568381641611e-07,9.9406105680395779e-08,2.6113875009324047e-07,2.2107364773365301e-07,6.4692320615021849e-09,1.0426996841584418e-09,1.5626529678633461e-11,,,,,,,,,
171,,2008,0203,1746,IS_HMDT__SHZ,,,,IS,3.2,,,,,,,28.9188,34.7724,,,,,,,,376.623773,,,,,,,,32.2529,35.526,,,,,,,,,,,,0.28759319594357236,8.7599334303389345,,,4.0985283785637247e-08,3.6451595475278593e-10,2.4246635720652774e-09,5.8297540762245878e-12,5.8310222057085014e-12,5.8325288172986312e-12,5.8352933653803974e-12,5.8398660903983173e-12,5.8455373877873312e-12,5.8543436897282541e-12,5.8676473022467675e-12,5.8903389648886552e-12,5.9222128300860146e-12,5.9806706035785289e-12,6.0759762568770564e-12,6.2185967939538606e-12,6.5419299304123972e-12,6.8285853782882148e-12,1.0128768738449347e-11,1.8322643466873231e-11,2.7900298780848513e-11,3.6834565899202668e-11,1.9709573610679349e-11,4.337858377851514e-11,1.3257683001563381e-10,1.6916159649435837e-10,1.504956771172054e-10,1.2399912607703389e-10,2.1769828078125924e-10,7.3289879200180734e-11,1.4612611417816163e-10,5.8297135785100399e-11,5.1941811516405156e-11,2.9660149367543075e-10,1.4690833916426371e-10,8.0215794938946372e-11,1.2545423599897939e-10,2.6510977017518133e-10,9.7763291170593426e-11,2.2905898901958879e-11,1.751127619099862e-11,9.3950718891702798e-12,1.8213434508526026e-12,1.7530511249412819e-13,2.1069287101981442e-13,,,,,,,,,
