Record Sequence Number,EQID,YEAR,MODY,HRMN,Station Name,Station Sequence Number,Station ID  No.,Station Type,Station Network,Earthquake Magnitude,Magnitude Type,Mo (dyne.cm),Strike (deg),Dip (deg),Rake Angle (deg),Mechanism,Hypocenter Latitude (deg),Hypocenter Longitude (deg),Hypocenter Depth (km),Finite Rupture Model: 1=Yes;  0=No,Depth to Top Of Fault Rupture Model,Fault Rupture Width (km),Fault Rupture Area (km^2),Fault Name,Slip Rate (mm/Yr),EpiD      (km),HypD           (km),Joyner-Boore Dist. (km),FW/HW Indicator,Source to Site Azimuth (deg),Vs30 (m/s) selected for analysis,Preferred NEHRP Based on Vs30,Surface Geological Unit,Station Latitude,Station Longitude,Depth to Top Judea (km),Depth to Vs=1100,File Name (Horizontal 1),File Name (Horizontal 2),File Name (Vertical),H1 azimth (degrees),H2 azimith (degrees),Type of Recording,Instrument Model,Type of Filter,npass,HP (Hz),LP (Hz),Factor,Lowest Usable Freq - V (Hz),PGA (g),PGV (cm/sec),PGD (cm),f 0.01 Hz,0.012,0.014,0.017,0.021,0.025,0.030,0.036,0.044,0.052,0.063,0.076,0.091,0.110,0.130,0.160,0.190,0.230,0.280,0.330,0.400,0.480,0.580,0.690,0.830,1.00,1.20,1.450,1.740,2.090,2.510,3.020,3.630,4.370,5.250,6.310,7.590,9.120,10.970,13.180,15.850,19.060,22.910,27.540,33.110,39.810,47.860,57.540,69.180,83.180,100.00
1,,2008,0214,1659,IS_MMA0__BHZ,,,,IS,3.1,,,,,,,33.282,35.3936,,,,,,,,29.605532,,,,,,,,33.01518,35.40311,,,,,,,,,,,,,,,,0.0009300933010520353,2.4918392566561487e-06,8.8120824830414236e-08,5.229468417141691e-10,5.2319763358927089e-10,5.2344842546437268e-10,5.2370554715639694e-10,5.2417433124623322e-10,5.2521975004517222e-10,5.2295989577982004e-10,5.2648394409136559e-10,5.2577109797197459e-10,5.3122791966525807e-10,5.2414351141904999e-10,5.5774573794968076e-10,5.6804314471631653e-10,5.4615993625013132e-10,7.4281895283510623e-10,9.9702547996804492e-10,1.9910420200118288e-09,2.8398680417163563e-09,2.1079999412817146e-09,3.5678016676137835e-09,8.7783034762536828e-09,1.4131187152971696e-08,2.0212992591387059e-08,4.8441704356509824e-08,3.3747197387920792e-08,1.2815968110775234e-07,2.3163288608719246e-07,7.118273854951126e-07,7.204043851535741e-07,5.7031884338966313e-07,2.348816149220068e-07,1.1846616953413485e-06,2.74838081618077e-07,7.4334152906719261e-07,6.7640204868943846e-07,2.5839577543548844e-06,2.446285318799902e-06,2.3936793755935646e-06,2.548861131994675e-06,3.7142711658573588e-06,1.1945111199780049e-06,3.9571376188697247e-09,,,,,,,,,
