Record Sequence Number,EQID,YEAR,MODY,HRMN,Station Name,Station Sequence Number,Station ID  No.,Station Type,Station Network,Earthquake Magnitude,Magnitude Type,Mo (dyne.cm),Strike (deg),Dip (deg),Rake Angle (deg),Mechanism,Hypocenter Latitude (deg),Hypocenter Longitude (deg),Hypocenter Depth (km),Finite Rupture Model: 1=Yes;  0=No,Depth to Top Of Fault Rupture Model,Fault Rupture Width (km),Fault Rupture Area (km^2),Fault Name,Slip Rate (mm/Yr),EpiD      (km),HypD           (km),Joyner-Boore Dist. (km),FW/HW Indicator,Source to Site Azimuth (deg),Vs30 (m/s) selected for analysis,Preferred NEHRP Based on Vs30,Surface Geological Unit,Station Latitude,Station Longitude,Depth to Top Judea (km),Depth to Vs=1100,File Name (Horizontal 1),File Name (Horizontal 2),File Name (Vertical),H1 azimth (degrees),H2 azimith (degrees),Type of Recording,Instrument Model,Type of Filter,npass,HP (Hz),LP (Hz),Factor,Lowest Usable Freq - V (Hz),PGA (g),PGV (cm/sec),PGD (cm),f 0.01 Hz,0.012,0.014,0.017,0.021,0.025,0.030,0.036,0.044,0.052,0.063,0.076,0.091,0.110,0.130,0.160,0.190,0.230,0.280,0.330,0.400,0.480,0.580,0.690,0.830,1.00,1.20,1.450,1.740,2.090,2.510,3.020,3.630,4.370,5.250,6.310,7.590,9.120,10.970,13.180,15.850,19.060,22.910,27.540,33.110,39.810,47.860,57.540,69.180,83.180,100.000
,,2008,0214,1659,,,,,,3.1,,,,,,,33.282,35.3936,,,,,,,,29.942218,,,,,,,,33.01203,35.39151,,,,,,,,,,,,,,,,0.0010371483860613844,3.057719047225921e-05,1.2118933078755188e-06,3.2423718740990829e-15,,,,,,3.291106261796739e-15,,,,,,,4.2602927806449426e-15,7.3593248698676952e-15,1.8541350451034901e-14,4.8968195234945088e-14,5.0274280547316451e-14,1.2193418132411873e-13,6.893363695169186e-14,,3.1455724309721783e-13,5.3836945000965701e-13,2.1160355042559438e-12,3.1072519853680147e-12,1.8519540488209852e-12,7.1647211435722372e-12,4.3887786732222255e-12,3.7363887229058948e-11,3.0849626228023657e-11,3.3091220111528231e-11,3.0705342585489729e-12,2.1150173069095549e-11,3.4023617532627002e-11,6.7974897968469719e-11,7.1935782676316628e-11,1.364586319531921e-11,6.1517836470174529e-11,8.6571459176582294e-12,1.1920835945419707e-11,2.8217667657890172e-11,1.0774322894267366e-13,,,,,,,,,
,,2008,0214,1659,,,,,,3.1,,,,,,,33.282,35.3936,,,,,,,,279.656066,,,,,,,,30.9067,34.3979,,,,,,,,,,,,0.71609251311676791,14.062873835176694,,,3.5107643912600995e-05,4.3010004599279136e-06,4.6071913243073117e-07,1.0282473508473129e-15,,,,,,1.0234818696367298e-15,,,,,,,9.7639891872380848e-16,9.6518443755984242e-16,9.9737825080602866e-16,9.4443639196043815e-16,6.1027133644092328e-16,2.5069760701133271e-14,7.4659938518892388e-14,,2.4552407450047896e-13,1.7541070233582336e-13,1.1542423516734006e-12,2.7757417910407614e-12,4.9199869809053302e-12,9.5540256045355744e-12,3.1438039878961729e-12,5.1722717552861578e-12,6.4251004504475261e-12,3.4127814132509818e-12,1.2438149080598717e-12,1.7511947449140168e-12,6.6232294644132233e-13,7.6064794295267e-13,3.6533294734234271e-12,9.7971689019080582e-13,4.1963332148430216e-13,4.0674495420092436e-13,1.0522713278081882e-13,7.2240165351460245e-15,2.5991805829719609e-15,,,,,,,,,
,,2008,0214,1659,,,,,,3.1,,,,,,,33.282,35.3936,,,,,,,,301.971573,,,,,,,,30.5649,35.1787,,,,,,,,,,,,3.6216620393622123,12.431213364036946,,,5.2101164223984327e-08,1.3657093285501147e-09,5.553683608330827e-10,8.6890317837857971e-18,,,,,,8.6894863139886565e-18,,,,,,,8.695927840881417e-18,8.6987372843586677e-18,8.7038759358935372e-18,8.710188099807874e-18,8.7201989947008251e-18,8.7387774363230532e-18,8.7466763564061205e-18,,8.8587581781074374e-18,9.1622070113448692e-18,1.0051359960509823e-17,1.126197803136167e-17,9.9199789356534655e-18,7.1363077600419445e-17,4.2996039161781539e-16,8.4000488021416827e-17,4.2510285871115947e-16,1.3549954248333324e-15,1.5069448283897676e-15,1.6615577015091214e-15,1.6436447908794404e-15,2.4315802326756564e-15,6.200088719796008e-15,1.9325485888990914e-15,9.7047148857920777e-16,1.3023740104060957e-15,5.3600187282460758e-16,8.9178615565599197e-17,4.6969538827802976e-19,,,,,,,,,
,,2008,0214,1659,,,,,,3.1,,,,,,,33.282,35.3936,,,,,,,,279.656066,,,,,,,,30.9067,34.3979,,,,,,,,,,,,0.40037721147171618,12.000808438705121,,,0.00017867719356989009,7.426796068902536e-06,5.2219796392747606e-07,7.7664896185333703e-14,,,,,,7.7940578052520091e-14,,,,,,,8.1991050829172e-14,8.6073494127250895e-14,7.2588805656593522e-14,1.4055773232917935e-13,3.0807559602526127e-13,1.3379422104120197e-12,1.8887582075232536e-12,,3.4108148032600638e-12,3.2807174737578828e-12,6.4059886419833281e-12,4.5089354270413858e-12,5.2140961274231779e-12,5.5082814139597242e-12,1.767607444125688e-11,7.2786911522428552e-12,2.0058531229606027e-11,1.6777244646621009e-11,2.25089237024251e-11,4.8984929742135618e-12,3.6842061175267416e-11,2.2434344725170965e-11,4.0792572034299303e-11,1.5254593461913177e-11,1.0885717889560199e-11,2.0124842053092813e-12,1.2094183822676801e-12,1.9515259658356274e-13,3.3748603160749848e-15,,,,,,,,,
,,2008,0214,1659,,,,,,3.1,,,,,,,33.282,35.3936,,,,,,,,255.73492,,,,,,,,31.05451,34.69116,,,,,,,,,,,,0.96615049054116131,13.575976057322567,,,5.2034934293496806e-07,2.4140775531580112e-08,1.4711321602335073e-09,7.4527124513939384e-17,,,,,,7.4454409025200822e-17,,,,,,,7.7949083022836739e-17,7.8234776959609505e-17,7.8626936646774262e-17,8.3072456339300695e-17,1.0456322537106113e-16,1.2908984400953827e-16,5.2963052675149199e-16,,5.1673269197060701e-16,1.7805251487557745e-15,2.2501274785018867e-15,3.4156895741754615e-15,1.1866684580315218e-14,1.7732156301737628e-14,1.2115743079333865e-14,2.0606324019862472e-14,1.4280612258239616e-14,4.7553241415498933e-14,1.0326993865144446e-14,2.727426797603975e-14,1.9772251644026572e-14,1.9207693177665981e-14,7.6460254923326224e-14,1.5905897191808379e-14,4.2309004531205688e-14,1.0834138690752558e-14,1.1003145184689424e-14,4.5582221374890618e-15,3.6382466550268803e-17,,,,,,,,,
,,2008,0214,1659,,,,,,3.1,,,,,,,33.282,35.3936,,,,,,,,29.114927,,,,,,,,33.01954,35.38714,,,,,,,,,,,,,,,,0.0018252343841738794,4.1915863991307556e-05,1.1026424229692566e-06,2.84902910530988e-14,,,,,,2.8599662927163819e-14,,,,,,,3.101837329484438e-14,2.5316972848231936e-14,3.7866954769337708e-14,1.0632306807100265e-13,1.1475004191886342e-13,1.5886364852347648e-13,1.231997011580574e-13,,9.2025201673435047e-13,2.1909432952898876e-12,9.8659254453863411e-13,1.7627570933886491e-12,4.9047281065126042e-12,7.3016256329399683e-12,1.599642035376308e-11,1.6732577052051366e-11,4.8727506199953197e-11,1.1057506123683456e-11,8.2871170703580468e-12,1.1229027133693533e-10,6.6200381333911108e-11,2.2030848214800945e-10,3.900892387020793e-10,1.1645566137338253e-10,2.2396857543901984e-10,5.4990676612833617e-10,1.7338874375131901e-10,4.3572416900023822e-10,2.0079045061731149e-12,,,,,,,,,
,,2008,0214,1659,,,,,IS,3.1,,,,,,,33.282,35.3936,,,,,,,,29.942218,,,,,,,,33.01203,35.39151,,,,,,,,,,,,,,,,0.001037148387058403,3.0577153238997313e-05,1.2121977405070804e-06,1.3384711129451493e-14,,,,,,1.3435547265225499e-14,,,,,,,1.4362320208007427e-14,1.6934487957112491e-14,1.9180221910820185e-14,4.1563867293602644e-14,7.6725005376711742e-14,1.0938257342788214e-13,6.1750523906552265e-14,,3.4178036682541567e-13,4.755152893593569e-13,1.9268693026397145e-12,2.8398656419801019e-12,1.7049882343937308e-12,6.5949445184943646e-12,4.2197901336409656e-12,3.4943036036566061e-11,2.8932392809859908e-11,3.1046701255836715e-11,3.0787463814869239e-12,1.9812069008277964e-11,3.2166981910837097e-11,6.4428462865314164e-11,6.7522779166766395e-11,1.3231378283880121e-11,5.7527143639525933e-11,8.3145536535184822e-12,1.3103243007255256e-11,2.6084088733998729e-11,1.0222927964539083e-13,,,,,,,,,
