Record Sequence Number,EQID,YEAR,MODY,HRMN,Station Name,Station Sequence Number,Station ID  No.,Station Type,Station Network,Earthquake Magnitude,Magnitude Type,Mo (dyne.cm),Strike (deg),Dip (deg),Rake Angle (deg),Mechanism,Hypocenter Latitude (deg),Hypocenter Longitude (deg),Hypocenter Depth (km),Finite Rupture Model: 1=Yes;  0=No,Depth to Top Of Fault Rupture Model,Fault Rupture Width (km),Fault Rupture Area (km^2),Fault Name,Slip Rate (mm/Yr),EpiD      (km),HypD           (km),Joyner-Boore Dist. (km),FW/HW Indicator,Source to Site Azimuth (deg),Vs30 (m/s) selected for analysis,Preferred NEHRP Based on Vs30,Surface Geological Unit,Station Latitude,Station Longitude,Depth to Top Judea (km),Depth to Vs=1100,File Name (Horizontal 1),File Name (Horizontal 2),File Name (Vertical),H1 azimth (degrees),H2 azimith (degrees),Type of Recording,Instrument Model,Type of Filter,npass,HP (Hz),LP (Hz),Factor,Lowest Usable Freq - V (Hz),PGA (g),PGV (cm/sec),PGD (cm),f 0.01 Hz,0.012,0.014,0.017,0.021,0.025,0.030,0.036,0.044,0.052,0.063,0.076,0.091,0.110,0.130,0.160,0.190,0.230,0.280,0.330,0.400,0.480,0.580,0.690,0.830,1.00,1.20,1.450,1.740,2.090,2.510,3.020,3.630,4.370,5.250,6.310,7.590,9.120,10.970,13.180,15.850,19.060,22.910,27.540,33.110,39.810,47.860,57.540,69.180,83.180,100.00
31,,2008,0128,0301,IS_PRNI__SHZ,,,,IS,3.4,,,,,,,35.299,36.235,,,,,,,,560.546944,,,,,,,,30.3522,35.0052,,,,,,,,,,,,0.74704720449796991,12.143033481526487,,,2.0824696843095237e-05,1.012253109975804e-07,1.002668677337752e-08,3.4104391817427092e-10,3.4106980978999629e-10,3.4109458479600001e-10,3.4114035715631081e-10,3.4127919215709937e-10,3.4134508596694218e-10,3.4146181662908584e-10,3.4183322313223454e-10,3.4221974334346503e-10,3.4279043430088622e-10,3.4452107987175326e-10,3.4432734439255795e-10,3.4404133611209143e-10,3.5008810943278037e-10,3.4876118349350667e-10,3.1486707818138396e-10,4.3995843840699818e-10,5.5664155419525837e-10,1.127674310152679e-09,3.7994401025436469e-09,5.9323519644158641e-09,1.2264966982542181e-08,1.2162036947144506e-08,4.111932152224562e-08,3.0388013128335154e-08,2.2575673923486483e-08,5.7725772335540267e-08,1.0240752767203531e-07,2.3960374194902024e-08,5.3327158733871181e-08,5.7662318630839599e-08,4.8458746456601788e-08,1.8148258362787684e-07,1.0007218758421993e-07,1.3328993555601191e-08,2.3433577778386258e-08,6.4130147687071473e-08,5.2566522214287421e-08,1.537838849279934e-08,3.2779086720630902e-09,5.3068321304947298e-10,6.8442473726156698e-12,,,,,,,,,
32,,2008,0128,0301,IS_HMDT__SHZ,,,,IS,3.4,,,,,,,35.299,36.235,,,,,,,,344.188463,,,,,,,,32.2529,35.526,,,,,,,,,,,,0.53891672049481687,14.845846604961229,,,3.4382182787631046e-07,1.9619410106288307e-09,1.0891571524287854e-09,8.1103355307622813e-12,8.1144765045485006e-12,8.1148720346851546e-12,8.1233017331389876e-12,8.1155579779815182e-12,8.0725224007410971e-12,8.1351942820330089e-12,7.8867655257886127e-12,8.6117773929978612e-12,7.8720000260893965e-12,8.6632237817565692e-12,8.7308882716755934e-12,8.771154259418036e-12,8.2613261265481247e-12,1.264272777173315e-11,1.346959824446005e-11,1.8291520989033202e-11,1.8246737203374553e-11,1.7893899315114607e-11,4.2159998001737815e-11,1.9120700430154699e-10,2.7310857315119163e-10,1.3176858328138122e-10,3.1314958822788272e-10,1.9743308069658371e-10,3.3194231584118454e-10,5.6897436673935895e-10,3.2319841527944596e-10,1.0211115654289877e-09,4.267991363924339e-11,1.0333338430451992e-09,5.5001773644549034e-10,1.3965265288421634e-09,1.2345328547372579e-09,1.6743635477221873e-09,7.9773641431037232e-10,4.7848922554308153e-10,5.8187277621125384e-10,5.9789034683856491e-10,6.5226790886202474e-10,2.578350634869357e-10,4.0004408526582946e-13,,,,,,,,,
33,,2008,0128,0301,IS_MBRI__SHZ,,,,IS,3.4,,,,,,,35.299,36.235,,,,,,,,623.002081,,,,,,,,29.79329,34.9152,,,,,,,,,,,,0.36055050275127792,7.7259553793370914,,,6.0893142632460164e-11,3.5191968897465543e-13,8.1528909315753626e-14,7.1976279752401951e-16,7.1988493580061816e-16,7.2002586730716289e-16,7.2028696502147543e-16,7.20714782419164e-16,7.2122329308457197e-16,7.2199173228256056e-16,7.2308964761817989e-16,7.2486343142190185e-16,7.2698169185234374e-16,7.3044776646337679e-16,7.3535071863374476e-16,7.4206254673367104e-16,7.5207903687454341e-16,7.643336676145548e-16,7.8701900636753179e-16,7.9479658684275772e-16,9.4846169241728983e-16,6.9521018838905036e-16,3.4149810960455297e-15,2.2230931399613142e-14,3.5768495230211279e-14,3.6503383394785868e-14,8.1159930741988461e-14,4.8249772355229707e-14,4.0796106113105931e-14,1.0593861890525686e-13,9.7826710906367969e-14,1.6999629289934055e-13,2.6386732779104566e-13,1.4699159995191246e-13,1.1366010864468794e-13,2.30527818200772e-13,7.2030151066361379e-14,8.4308358762295643e-14,1.1417961363717339e-13,2.902187921477288e-14,2.0189660513760099e-14,1.38072516256049e-15,7.7873594479666474e-17,5.0338109619753615e-17,4.6155062570481483e-17,,,,,,,,,
34,,2008,0128,0301,IS_HNTI__SHN,,,,IS,3.4,,,,,,,35.299,36.235,,,,,,,,264.575116,,,,,,,,33.0827,35.1741,,,,,,,,,,,,0.51250984717013537,10.709731483021109,,,2.7249761521472284e-06,7.7232653796801173e-09,8.5241067181801347e-10,6.5430016135735783e-12,6.5440519491348205e-12,6.5455143796046929e-12,6.5479239269597537e-12,6.5519252677724254e-12,6.5567923709010577e-12,6.5641463916292703e-12,6.5747073207080874e-12,6.5920700013632213e-12,6.6135357100200362e-12,6.6498032560167378e-12,6.7032857962029253e-12,6.7826101511779577e-12,6.9106699596236649e-12,7.0906844601618039e-12,7.4750791266289076e-12,7.9789840999664939e-12,8.9967295126793236e-12,1.0112420961571164e-11,1.6359089158655975e-11,2.7711740177232238e-11,1.0510315625995462e-10,2.135042485223017e-10,1.6915854353010555e-10,3.8317036759057758e-10,8.9407652187116163e-10,1.3577070614548306e-09,1.7432396765256746e-09,4.5811633569645313e-09,4.5884573264388923e-09,9.6249672127705086e-10,2.0254467884802552e-09,1.187214113112872e-08,7.3556963047547928e-09,3.565016826721503e-09,4.0377283611291491e-09,1.3161694645158547e-08,1.0445063045934478e-08,2.0897978320117752e-09,8.5580897078074376e-10,6.3842988765054323e-12,2.6034119251117469e-12,,,,,,,,,
35,,2008,0128,0301,IS_MMLI__BHN,,,,IS,3.4,,,,,,,35.299,36.235,,,,,,,,326.132054,,,,,,,,32.438,35.422,,,,,,,,,,,,0.78553852521241185,13.093518272772499,,,6.2696191776974981e-05,2.4543241990523352e-07,1.805390850388754e-08,2.966077368299038e-10,2.966016209232436e-10,2.965950717977688e-10,2.9658176350085428e-10,2.9656389034870173e-10,2.9653739526283593e-10,2.9649313462895008e-10,2.9643958845848223e-10,2.9633940408857432e-10,2.9619493860421116e-10,2.9591880103867909e-10,2.9561839112957274e-10,2.9520292093927564e-10,2.9444486946800246e-10,3.103287942855439e-10,2.3907160585517369e-10,3.094164680207307e-10,2.6905563944209316e-10,2.7749863004525704e-10,3.6346736017118727e-09,6.0178109276574594e-09,9.5679125662303419e-09,9.6132345183328487e-09,1.8040020816258488e-08,1.9341510460056107e-08,2.4748899982557944e-08,4.7721467624232499e-08,3.5802436557777679e-08,1.0658167670508906e-07,9.8655846087533871e-08,8.4836830366886047e-08,2.0032424970961264e-07,1.7312313510764544e-07,6.1708782225461023e-08,4.6229144728375201e-08,7.2668294237962809e-08,1.3412596566718514e-07,1.1775283452611289e-07,3.4109542534741242e-08,4.5943466608189614e-08,4.1305829385573832e-09,2.241838021594718e-11,,,,,,,,,
56,,2008,1028,2252,IS_SLTI__SHZ,,,,IS,2.9,,,,,,,34.282,32.4601,,,,,,,,330.249806,,,,,,,,32.2408,35.041,,,,,,,,,,,,0.74704720449796991,9.9322905629509144,,,1.8948785960782338e-07,7.7208861533249269e-10,1.5583428293410435e-09,4.4149331168507598e-12,4.4150385946855356e-12,4.4151614464358116e-12,4.4153828452663617e-12,4.4157423429658472e-12,4.4161900911872376e-12,4.4168625436014503e-12,4.4178370115206456e-12,4.4194677101858494e-12,4.4214527138172826e-12,4.4251281571402157e-12,4.4304786116037069e-12,4.4385756583381572e-12,4.4538406825041271e-12,4.4701249262907495e-12,4.5142758172734315e-12,4.623004730623242e-12,4.9323413434509901e-12,9.0783723220711642e-12,6.1130597967938278e-12,2.4596987517878643e-11,1.7364502698519806e-11,8.5985182308883641e-11,1.917928223127853e-10,2.9341339184398259e-11,9.378399820795727e-11,1.3220202038636295e-10,2.0512697067273487e-10,3.5963765918721091e-11,2.8682520938160483e-10,2.5783132546864743e-10,5.0068653751702026e-10,4.0297342650932447e-10,1.2273439983116386e-10,9.5424799357362459e-10,7.8606150290911774e-10,6.6833838463225611e-10,1.8736218672379629e-10,2.0533755734362972e-11,5.0816937674867351e-12,5.8883923289376045e-13,4.2912116489307219e-13,,,,,,,,,
62,,2008,1028,2252,IS_KRMI__SHZ,,,,IS,2.9,,,,,,,34.282,32.4601,,,,,,,,508.742317,,,,,,,,30.1178,34.7257,,,,,,,,,,,,1.0098682295872989,14.477555778261765,,,8.3595450486018357e-06,2.3915715340817748e-08,1.2600639560155265e-08,5.3542429756432263e-12,5.3507371947957781e-12,5.3466532814352825e-12,5.3394146559796935e-12,5.3275068158997721e-12,5.3131771644370588e-12,5.2915747779412173e-12,5.260495947211008e-12,5.2099306574400358e-12,5.1489824480931592e-12,5.0471236663461432e-12,4.9012756182615486e-12,4.6949067246786379e-12,4.3644375580196462e-12,3.9561941277223187e-12,3.1668229304837911e-12,2.7269648602976832e-12,2.2767442691001915e-12,9.4309514176459725e-12,2.7239962276118364e-11,1.2186628383841478e-10,1.7638635273985863e-10,6.7187977472460861e-10,1.2184546505847175e-09,5.5841535014927228e-10,1.697760036111733e-09,1.6692987081677998e-09,2.737981400481121e-09,4.9689414162051093e-09,5.3578767499655317e-09,9.8673578719866731e-09,1.2719871530254407e-08,1.5381266729727291e-08,4.1733423912169218e-08,5.2191207288810082e-08,3.1651033589192066e-08,4.0876056066198582e-08,1.123699904006872e-08,8.6364515058679783e-09,4.7408685123978892e-09,1.4417529483238722e-10,3.220915377579373e-11,,,,,,,,,
84,,2008,1006,0324,IS_DSI__SHE,,,,IS,3.1,,,,,,,27.648,34.8504,,,,,,,,440.456382,,,,,,,,31.5933,35.3922,,,,,,,,,,,,0.28759319594357236,8.1240322673048038,,,5.9148700972002659e-06,4.2018571115421242e-08,1.1051453676086956e-08,1.1501958033072658e-11,1.1501500090047627e-11,1.1500972084854502e-11,1.1500059460035338e-11,1.1498706861199165e-11,1.1497233979648355e-11,1.1495659663062247e-11,1.14931390242664e-11,1.148810104137344e-11,1.1514272411682635e-11,1.1448898534660519e-11,1.1489265653951825e-11,1.1541793520793385e-11,1.2624220104474952e-11,6.2236457568742191e-12,3.4458870852433102e-11,1.0805184350710909e-10,4.2650029496782226e-10,9.5240719824591136e-10,3.9472240649067922e-09,4.6822231129367451e-09,4.3361834346345408e-09,8.5838062995558524e-09,1.8538988295517749e-08,1.1942981239756397e-08,1.9803029663760728e-08,1.8387854698906488e-08,1.0640788017317507e-08,1.0619878681166485e-08,1.292113709384791e-08,1.0944368644403729e-08,7.5929430792378433e-09,1.1232638761267143e-08,2.0786416245189901e-08,1.6187083344149524e-08,5.9299222657422786e-09,8.7454473467612217e-09,4.917785034894418e-09,1.2023926874644638e-09,7.0320979670975786e-11,8.2940420406560541e-13,3.0469380952757468e-14,,,,,,,,,
86,,2008,1006,0324,IS_DSI__SHN,,,,IS,3.1,,,,,,,27.648,34.8504,,,,,,,,440.456382,,,,,,,,31.5933,35.3922,,,,,,,,,,,,0.21274626408445713,9.6858936009058958,,,1.4885532398953344e-05,1.0380444272063514e-07,4.1780107084249343e-08,3.1927970333439484e-10,3.1911509477315735e-10,3.1891278013187292e-10,3.1855620703141505e-10,3.179604524325821e-10,3.1722276406712559e-10,3.1609889507772909e-10,3.1444113820819554e-10,3.1165383776930172e-10,3.0776484867720986e-10,3.0196552581555595e-10,2.9981642403897795e-10,2.7858535094895223e-10,2.196663539215147e-10,8.5298750688550862e-11,1.1211870114996318e-09,1.8515212728465815e-09,1.3086380654862706e-08,6.3930694282013767e-09,1.6576078647060526e-08,1.3627100730567539e-08,3.8226588690772359e-08,2.2795183059851502e-08,3.3637701936611711e-08,6.1728883476812113e-08,2.3677003239330223e-08,2.8026344715135706e-08,4.5262316600761566e-08,7.4638505066392926e-09,4.8720696521287011e-08,9.1497621702263891e-08,1.0623536124664245e-07,2.4274788020650242e-08,3.3750985582638873e-08,3.8215339140509545e-08,4.7346862067560423e-08,3.8056661541111933e-08,1.2078602624591078e-08,7.4130376741418108e-09,5.3578077933037263e-10,3.9412307378605584e-11,3.2246307104386011e-11,,,,,,,,,
88,,2008,1006,0324,IS_PRNI__SHN,,,,IS,3.1,,,,,,,27.648,34.8504,,,,,,,,300.101543,,,,,,,,30.3522,35.0052,,,,,,,,,,,,0.36972245447841673,8.5426199142600368,,,2.6817743155195319e-06,2.2726478522490286e-08,3.0739740228802623e-08,1.125447488756133e-10,1.1253726215576677e-10,1.1252859647510332e-10,1.1251349249914836e-10,1.124891175638424e-10,1.1246060529487359e-10,1.1241938484660207e-10,1.1236327093467315e-10,1.1227759554009794e-10,1.1220856391084533e-10,1.1207699401223469e-10,1.1205957067858389e-10,1.1167762474488646e-10,1.132279065136531e-10,1.1457201016441746e-10,7.0662401399922854e-11,2.6392257576298959e-10,3.151380338177871e-10,3.0683492187090977e-09,1.2712086291918157e-09,1.0286309530461619e-08,9.3969576689245444e-09,1.1351595896130838e-08,6.2387423697487471e-09,8.9787516707081026e-09,6.1377734841007448e-09,2.388551161709908e-08,5.6831833844287634e-09,1.4336784406292588e-08,7.4981338583076107e-09,2.6822868592859636e-09,6.1536313541955544e-09,9.6515107306334268e-09,6.9562267974735926e-09,8.9268694258351261e-09,4.5009027334611338e-09,1.7091536130954134e-09,9.3526503431530676e-10,3.788799715108607e-10,4.5560122007387616e-11,4.4915874610661434e-12,3.5529588671592596e-12,,,,,,,,,
92,,2008,1006,0324,IS_KRMI__SHZ,,,,IS,3.1,,,,,,,27.648,34.8504,,,,,,,,274.0077,,,,,,,,30.1178,34.7257,,,,,,,,,,,,0.16548731966907376,9.9322905629509144,,,9.5082286289329932e-06,3.5299562198136489e-08,8.4990125977605669e-09,3.0934508466099675e-11,3.5900559064764526e-11,5.0605237360936244e-11,3.440978381637199e-11,6.3741335519801557e-11,3.7547927430246972e-11,7.0742357221149299e-11,1.9587559858701969e-10,1.2566676212242668e-10,8.0139856213359611e-10,4.7420042003783874e-10,1.1137057323851983e-09,1.4437009566486538e-09,9.3802436224692304e-10,1.3541915129892735e-09,3.0712535498864616e-09,4.5348536326164018e-09,3.0019386470905536e-09,3.4622118498636148e-09,2.1756915200759324e-09,2.1080082022288637e-09,4.4233588050789067e-09,2.8146629647799118e-09,1.2940705048810607e-09,1.7042957588355085e-09,1.6080177194623398e-09,1.6888397530756255e-09,4.6892077502009957e-09,5.7656396377793753e-09,2.5220699326566904e-08,1.2850945883985187e-08,3.0499475006230321e-08,3.1598963507085309e-08,9.9453946059192854e-09,2.7615819331203527e-08,2.2366870946378016e-08,2.0791029485492561e-08,6.5053719760996382e-09,1.7678428230906527e-08,1.727396307882419e-09,8.4517711292868233e-11,3.0308130885181008e-11,,,,,,,,,
93,,2008,1006,0324,IS_PRNI__SHE,,,,IS,3.1,,,,,,,27.648,34.8504,,,,,,,,300.101543,,,,,,,,30.3522,35.0052,,,,,,,,,,,,0.24121846676948538,8.3306974396366797,,,4.005523568720587e-06,3.3247179604410789e-08,8.0675094823262989e-08,4.7579505348204587e-10,4.7591823587660087e-10,4.7606423896189337e-10,4.7633426936442352e-10,4.7677396314454939e-10,4.7732297873285463e-10,4.7815878020927057e-10,4.7943212048610468e-10,4.8158666324651723e-10,4.8440903986272002e-10,4.8948798358189143e-10,4.96772583879732e-10,5.124894749351146e-10,5.5539343983012151e-10,6.3813435356094191e-10,5.7976722474495788e-10,1.7702271379524774e-09,4.627539031548195e-09,7.9256158756606763e-09,9.7081201089362507e-09,1.1200533255173981e-08,1.0353542522029786e-08,1.1748376210320603e-08,2.110219266210042e-08,1.6299244366883034e-08,1.8292227540645032e-08,1.091918623711836e-08,4.1407924111819703e-09,8.260369569813173e-09,1.3628504753532565e-08,1.9352423464124556e-08,1.3871861466851886e-08,1.5896636093167311e-08,8.7088962514820674e-09,1.0999318891319309e-08,9.7264937073795817e-09,6.2794596656070333e-09,1.4574519510045467e-09,7.2459326286664241e-10,2.7045385872822821e-11,5.3013803104886025e-12,3.705060556720615e-12,,,,,,,,,
94,,2008,1006,0324,IS_MBRI__SHN,,,,IS,3.1,,,,,,,27.648,34.8504,,,,,,,,237.849405,,,,,,,,29.79329,34.9152,,,,,,,,,,,,0.20232171529551018,7.1651127598880802,,,2.0364843577971365e-10,1.026225463239519e-12,4.4453609387727197e-13,1.642085564673258e-15,1.6449221944853762e-15,1.6484155385345657e-15,1.6545702796342822e-15,1.6646097366170446e-15,1.6767808194848478e-15,1.6946955970269969e-15,1.7207319803105303e-15,1.760596355400815e-15,1.8106350269055159e-15,1.8940192775043467e-15,1.9442529119813901e-15,1.9596470712364696e-15,2.458618581541997e-15,3.7072461202737217e-15,7.1820492958603744e-15,7.1591401288637608e-15,2.180430735938891e-14,9.4393037701929915e-14,2.6265628608798168e-13,2.2375342044856244e-13,3.131651064919664e-13,2.3513235396682442e-13,1.144917444310293e-13,4.4368127225765132e-13,1.7748057403993487e-13,3.8814351125575825e-13,3.0059176547847876e-13,4.0367663826822979e-13,9.5905810493301262e-13,1.3968903689930985e-12,9.9513397414167278e-13,5.4323257545150962e-13,1.1735604475148977e-13,3.9812563150438211e-13,5.5769585085525877e-13,2.5967261169778014e-13,1.2917807529792422e-13,9.3201219866744323e-15,1.1557594016385879e-15,1.3994922851842456e-16,9.7219562383053439e-17,,,,,,,,,
95,,2008,1006,0324,IS_KRMI__SHN,,,,IS,3.1,,,,,,,27.648,34.8504,,,,,,,,274.0077,,,,,,,,30.1178,34.7257,,,,,,,,,,,,0.23523439924503559,10.184955554091268,,,2.1054028458901023e-05,6.5865558731187957e-08,2.7856433480461464e-08,1.0320974070836138e-10,1.0326212826293515e-10,1.0332406211267568e-10,1.0343395441843857e-10,1.036184496690024e-10,1.0384432464425457e-10,1.0419490849028933e-10,1.0472337547724431e-10,1.0559555863241455e-10,1.0684831921834916e-10,1.0885514897857948e-10,1.1295468967873966e-10,1.1652514905774982e-10,1.3091321341614382e-10,1.486552258004586e-10,1.944534216416419e-10,3.309667560330618e-10,5.5583162905613342e-10,1.075992280568133e-09,1.2470255782913581e-09,1.160295971965279e-09,8.6650321780555718e-10,3.7370468515961809e-10,1.5110970462372834e-09,4.6583790862463719e-10,6.338310083882751e-10,7.4204854659412197e-10,1.1360038537079297e-09,3.9518696703587283e-09,9.8264128463039699e-09,6.7402080576211488e-09,2.7917758932857685e-08,7.7090131482168684e-08,2.6874219045015811e-08,7.5639499902765694e-08,2.9731895049805981e-08,1.8071362160276183e-08,1.1759972916739535e-08,8.1457313954610707e-09,1.3716537161972604e-09,1.0243694778370121e-11,4.2386471291402044e-12,,,,,,,,,
96,,2008,1006,0324,IS_PRNI__SHZ,,,,IS,3.1,,,,,,,27.648,34.8504,,,,,,,,300.101543,,,,,,,,30.3522,35.0052,,,,,,,,,,,,0.3024113250707598,14.11840138794345,,,2.3442306862909012e-05,1.4250327274871889e-07,2.6925072268772611e-08,2.9507188719277688e-10,2.9489107006279124e-10,2.9481629202328563e-10,2.9405763243359029e-10,2.9356940473794958e-10,2.9040781591295337e-10,2.9796887132141233e-10,2.8941677253485735e-10,3.0850582946383785e-10,3.1429177429594543e-10,2.9504062330179535e-10,3.0473952639292152e-10,3.2560421544544462e-10,4.0315970334421764e-10,2.1913014988398895e-10,1.2846784970932442e-09,6.8970515540421202e-09,8.1765990555508184e-09,8.2478546453403754e-09,1.4617382021259323e-08,1.9131601014702636e-08,1.5751038609601773e-08,2.0568314665333534e-08,8.7497128545792463e-09,2.1113420483918787e-08,4.0075063862459743e-08,4.6722148996202921e-08,6.0598120572912144e-08,7.1234585577443211e-08,6.3915254358339269e-08,8.0189596166766595e-08,9.4269101865306126e-08,1.8335577529706647e-07,9.2098518279999838e-08,7.2618375643666166e-08,5.8835626229180578e-08,2.888486877366853e-08,3.1540086825423076e-08,3.2645207306531332e-08,5.5245761244047385e-09,2.7932323852128394e-09,2.4558509446416987e-11,,,,,,,,,
